"updated_at","location_id","address","city","external_source","facebook_places_id","lat","lng","name","short_name"
"2019-02-25 08:55:12.412549+01",193715478222524,"","Moscow, Russia","facebook_places",193715478222524,55.840579414213998,37.548806900472002,"Чайхона «Айва»","Чайхона «Айва»"
"2019-02-25 15:07:45.921181+01",213215729,"Myasnitskaya, 20","Москва","facebook_places",115552951820016,55.761330000000001,37.632990000000000,"Вышка","Вышка"
"2019-02-25 18:46:24.831158+01",846669523,"Долгопрудненское шоссе, 3","Москва","facebook_places",560952460681081,55.921599999999998,37.534930000000003,"Физтехпарк","Физтехпарк"
"2019-02-24 14:08:39.527446+01",438184004,"","","facebook_places",107000739332218,47.236400000000003,39.713900000000002,"Rostovondon, Rostovskaya Oblast', Russia","Rostovondon"
"2019-02-22 16:13:43.665845+01",573190279,"","","facebook_places",152120594861429,44.933300000000003,34.100000000000001,"Autonomous Republic of Crimea","Autonomous Republic of Crimea"
"2019-02-22 14:44:55.865018+01",426043410,"Горки Город, ул. Горная карусель 5","Estosadok, Krasnodarskiy Kray, Russia","facebook_places",710186149027671,43.683391105699997,40.266952514647997,"Горки Город","Горки Город"
"2019-02-22 12:44:01.235402+01",6561648,"улица Стромынка, 6","Москва","facebook_places",126283527421490,55.791240000000002,37.687309900000002,"Театр Романа Виктюка","Театр Романа Виктюка"
"2019-02-22 11:53:42.321549+01",215720225,"","","facebook_places",230335846992726,48.208329999999997,16.373063999999999,"Vienna","Vienna"
"2019-02-22 22:02:25.560701+01",213357299,"Исаакиевская пл., 4","","facebook_places",133002480073460,59.934100000000001,30.306200000000000,"Saint Isaac's Cathedral","Saint Isaac's Cathedral"
"2019-02-22 18:24:36.117059+01",214413140,"","","facebook_places",106065422766757,41.716700000000003,44.783299999999997,"Tbilisi, Georgia","Tbilisi"
"2019-02-25 13:03:08.336382+01",221522574,"","","facebook_places",108376102518160,55.478128147699998,37.297413533099998,"Troitsk, Moskovskaya Oblast', Russia","Troitsk"
"2019-02-22 22:18:06.100892+01",225763752,"Россия, Москва, Алексеевский район","","facebook_places",210612765667458,55.813055560000002,37.647777779999998,"Alexeyevsky District, Moscow","Alexeyevsky District"
"2019-02-22 13:26:33.01337+01",676150822,"","","facebook_places",1622528011301982,55.832931712636999,37.619643521763997,"Москвариум","Москвариум"
"2019-02-22 14:58:42.866662+01",1028428946,"Малый Калужский пер. 2 стр. 4","","facebook_places",588649387953670,55.719020000000000,37.601660000000002,"PRIDE Фотостудия","PRIDE Фотостудия"
"2019-02-22 15:08:47.102283+01",12187826,"","","facebook_places",106039436102339,59.418700000000001,24.751700000000000,"Tallinn, Estonia","Tallinn"
"2019-02-25 09:05:26.645398+01",213100244,"","","facebook_places",106287062743373,41.388800000000003,2.168100000000000,"Barcelona, Spain","Barcelona"
"2019-02-22 17:14:29.325359+01",213664707,"","","facebook_places",114232468588881,49.833300000000001,24.000000000000000,"Lviv, Ukraine","Lviv"
"2019-02-22 12:19:17.486767+01",213572516,"","","facebook_places",106442706060302,18.520299999999999,73.856700000000004,"Pune, Maharashtra","Pune"
"2019-02-25 10:28:21.234276+01",219610759,"","","facebook_places",109471685749742,54.716700000000003,20.516700000000000,"Kaliningrad","Kaliningrad"
"2019-02-22 18:47:03.093986+01",212964995,"","","facebook_places",106224666074625,30.267700000000001,-97.747500000000002,"Austin, Texas","Austin"
"2019-02-22 20:27:30.758498+01",219218122,"","","facebook_places",112768495405497,44.560833333333001,38.076666666667002,"Gelendzhik","Gelendzhik"
"2019-02-25 12:15:26.282134+01",1143963622405375,"Moscow Road","","facebook_places",1143963622405375,55.750966346364002,37.617725245918002,"Kremlin Palace Moscow","Kremlin Palace Moscow"
"2019-02-22 13:45:17.092447+01",376721845,"","","facebook_places",137406502946221,55.854722222222001,37.476111111111003,"Rechnoy Vokzal","Rechnoy Vokzal"
"2019-02-24 15:04:04.707311+01",1569915839790156,"","","facebook_places",1569915839790156,55.754445217848001,37.619756319433002,"ГУМ Каток","ГУМ Каток"
"2019-02-25 15:07:05.673279+01",213633143,"","","facebook_places",108429795855423,50.850000000000001,4.350000000000000,"Brussels, Belgium","Brussels"
"2019-02-22 13:47:31.075261+01",84137857,"","","facebook_places",114470468564233,48.583300000000001,7.750000000000000,"Strasbourg, France","Strasbourg"
"2019-02-22 11:54:52.743172+01",212901056,"","","facebook_places",108081209214649,36.167499999999997,-115.149000000000001,"Las Vegas, Nevada","Las Vegas"
"2019-02-25 15:58:40.358922+01",241466788,"","","facebook_places",114097925266932,44.743564698378002,34.436633407658000,"Alushta","Alushta"
"2019-02-25 15:34:15.438685+01",215301181,"","","facebook_places",104083606294021,43.106639999999999,-79.064329999999998,"Niagara Falls, Ontario","Niagara Falls"
"2019-02-22 21:12:28.998846+01",213274392,"","","facebook_places",107847249250173,52.205328000000002,0.121708000000000,"Cambridge, Cambridgeshire","Cambridge"
"2019-02-22 11:53:38.228478+01",213094275,"","","facebook_places",106505586052951,59.330700000000000,18.060500000000001,"Stockholm, Sweden","Stockholm"
"2019-02-25 15:29:14.94725+01",212928653,"","","facebook_places",108260802527498,25.812999999999999,-80.134100000000004,"Miami Beach, Florida","Miami Beach"
"2019-02-25 15:55:05.919193+01",214228753,"","","facebook_places",101881036520836,39.997999999999998,-75.144800000000004,"Philadelphia, Pennsylvania","Philadelphia"
"2019-02-22 16:30:21.185195+01",1235241646520806,"Складочная 1 стр. 1","Москва","facebook_places",1235241646520806,55.800159318848998,37.595429420471000,"Playground Moscow","Playground Moscow"
"2019-02-23 01:47:36.979972+01",213086496,"Gornaya Karusel 3","Estosadok ","facebook_places",513662258722467,43.683358914364000,40.262693457163998,"Gorky Gorod","Gorky Gorod"
"2019-02-25 09:01:03.933013+01",574164371,"","","facebook_places",129792377064830,55.801284114151997,37.525257317175999,"Finance University under the Government of the Russian Federation","Finance University under the Government of the Russian Federation"
"2019-02-22 17:19:38.792337+01",24960421,"","","facebook_places",108177419217114,41.149999999999999,-8.616669999999999,"Porto, Portugal","Porto"
"2019-02-22 20:29:58.851702+01",220610986,"Oxford Road","Manchester, United Kingdom","facebook_places",801704039856022,53.466143322641003,-2.232984814968600,"The University of Manchester","The University of Manchester"
"2019-02-25 12:07:42.529904+01",225807405,"","","facebook_places",370771979654193,56.865394128794002,35.900619875544002,"Г. Тверь, Р. Волга","Г. Тверь"
"2019-02-22 14:06:02.286664+01",1604068703158492,"minsk","","facebook_places",1604068703158492,53.530862801189002,28.036243661821999,"Europe/Minsk","Europe/Minsk"
"2019-02-22 21:30:57.118128+01",212898659,"","","facebook_places",111227078906045,50.450000000000003,30.523299999999999,"Kyiv, Ukraine","Kyiv"
"2019-02-22 18:35:37.842011+01",213378339,"Воронцовские Пруды ул.","Москва (Moscow, Russia)","facebook_places",260889370716863,55.666732795385002,37.529052726277001,"Vorontsovskiy Park","Vorontsovskiy Park"
"2019-02-25 18:20:47.831287+01",212990869," Россия, Московская обл.,Химки","Москва","facebook_places",240452276000881,55.964195693504003,37.409203746636997,"Международный аэропорт Шереметьево","Международный аэропорт Шереметьево"
"2019-02-25 11:03:18.457892+01",215007796,"Karla Marksa 12","","facebook_places",103104666396986,54.724662236505999,55.942457315254003,"Ufa State Aviation Technical University","Ufa State Aviation Technical University"
"2019-02-24 17:58:41.197375+01",1651359991846670,"","","facebook_places",1651359991846670,55.765700000000002,37.638800000000003,"Chistyye Prudy","Chistyye Prudy"
"2019-02-25 10:51:54.772023+01",608737539282444,"Фестивальная улица, Парк Дружбы","Москва","facebook_places",608737539282444,55.854680000000002,37.475000000000001,"Парк Дружбы","Парк Дружбы"
"2019-02-25 15:06:22.316775+01",214262158,"","","facebook_places",106024019437151,52.077800000000003,4.315800000000000,"The Hague, Netherlands","The Hague"
"2019-02-19 12:54:42.826179+01",220021938,"","","facebook_places",108446732520456,-12.061100000000000,-77.035300000000006,"Lima, Peru","Lima"
"2019-02-22 11:50:09.365723+01",212941492,"","","facebook_places",110148382341970,25.775200000000002,-80.191999999999993,"Miami, Florida","Miami"
"2019-02-25 17:09:55.315539+01",2737680,"ulitsa Krymskiy Val, 9/32 Gorky Park","Москва","facebook_places",247814790922,55.727820000000001,37.601610000000001,"Garage Museum of Contemporary Art","Garage Museum of Contemporary Art"
"2019-02-22 15:59:16.211482+01",518895783,"","","facebook_places",474163956062621,55.650377780622002,37.491935219336000,"Царицино","Царицино"
"2019-02-25 18:56:27.141886+01",219097249,"","","facebook_places",123952830983331,55.779516666667000,37.601166666666998,"Novoslobodskaya","Novoslobodskaya"
"2019-02-22 14:53:08.12494+01",410225290,"","","facebook_places",108593319166042,59.957448900000003,30.307953399999999,"ITMO University","ITMO University"
"2019-02-25 14:00:06.383824+01",215161855,"Лихачёвский проспект, 64","","facebook_places",209016595785243,55.931179999999998,37.494129999999998,"Конфитюр","Конфитюр"
"2019-02-22 23:48:04.93987+01",877251837,"","","facebook_places",860035740728421,55.763632999999999,48.736553000000001,"Innopolis","Innopolis"
"2019-02-22 12:28:30.655396+01",381923212261393,"Patriarch Ponds","","facebook_places",381923212261393,55.758850183436998,37.598052286380003,"Патриаршие Пруды, Москва, Россия","Патриаршие Пруды"
"2019-02-22 18:32:11.194574+01",383309025,"","","facebook_places",114699981875778,55.743299999999998,52.411700000000003,"Naberezhnyye Chelny","Naberezhnyye Chelny"
"2019-02-25 13:57:05.73281+01",422384944,"ул. Академика Лаврентьева, д.21","","facebook_places",585350721562900,55.942110000000000,37.503920000000001,"Улица Лаврентьева, Долгопрудный","Улица Лаврентьева"
"2019-02-22 20:31:35.243097+01",270907494,"Сиреневый бульвар","Moscow, Russia","facebook_places",310249872458847,55.806956704481998,37.775078461269999,"Сиреневый бульвар","Сиреневый бульвар"
"2019-02-25 12:09:44.547469+01",286345895,"","","facebook_places",106606082706665,55.604785955555997,38.103748911110998,"Zhukovskiy, Moskovskaya Oblast', Russia","Zhukovskiy"
"2019-02-22 12:57:09.721108+01",314490052325627,"","","facebook_places",314490052325627,14.973878907156999,103.146220137130001,"Somewhere Under the Same Sky","Somewhere Under the Same Sky"
"2019-02-25 16:13:50.835632+01",4585041,"","","facebook_places",481581178524068,55.963784536779997,37.518169960456000,"Яхт Клуб Водник","Яхт Клуб Водник"
"2019-02-19 12:54:48.626132+01",95969599,"Milton Rd","","facebook_places",135402149828082,52.233888888888998,0.144444444444440,"Cambridge Science Park","Cambridge Science Park"
"2019-02-25 12:11:39.379745+01",1033000828,"Дирижабельная, 26","","facebook_places",970308049658529,55.945571899999997,37.508010900000002,"Додо Пицца Долгопрудный","Додо Пицца Долгопрудный"
"2019-02-25 09:05:52.174246+01",881578674,"","","facebook_places",106756109439384,55.948693681800002,37.493695262700001,"Dolgoprudny","Dolgoprudny"
"2019-02-24 16:45:27.34711+01",214332801,"7 Voznesenskiy Pereulok","Moscow","facebook_places",133784283315103,55.758131378586000,37.603781819344000,"Courtyard by Marriott Moscow City Center","Courtyard by Marriott Moscow City Center"
"2019-02-24 16:47:37.714677+01",1898333350245708,"Ул.Новая д.100а","","facebook_places",1898333350245708,55.700439224630998,37.397236211253002,"New Economic School","New Economic School"
"2019-02-25 12:16:09.534866+01",216338929,"","","facebook_places",113578578652842,55.781280000000002,37.711509999999997,"Moscow Polytechnic University","Moscow Polytechnic University"
"2019-02-25 12:08:04.6403+01",290121336,"","","facebook_places",138718629479151,54.628390115999998,39.756218979000003,"Ryazan State University","Ryazan State University"
"2019-02-24 17:06:24.706713+01",946590806,"Территория Инновационного центра «Сколково», Большой бульвар, 42, корп. 1","Москва","facebook_places",369635769772641,55.691955253263998,37.346735000610003,"Форум ""Открытые инновации""","Форум ""Открытые инновации"""
"2019-02-25 18:27:15.65301+01",217855963,"","","facebook_places",138672789496048,55.818888888888999,37.578888888888997,"Timiryazevskaya","Timiryazevskaya"
"2019-02-24 17:30:41.355595+01",1958795797694340,"циолковского 4","Dolgoprudnyy, Moskovskaya Oblast', Russia","facebook_places",1958795797694340,55.931890000000003,37.516520000000000,"Dolmedia Долгопрудный","Dolmedia Долгопрудный"
"2019-02-25 09:10:33.097302+01",436946105,"","","facebook_places",110387082320273,55.462800000000001,37.700800000000001,"Domodedove, Moskovskaya Oblast', Russia","Domodedove"
"2019-02-25 10:18:09.611433+01",1026941704,"Полесский проезд д.16 стр.1","","facebook_places",1279164518765581,55.811588299999997,37.456668899999997,"Полесский Проезд д.16 стр.1","Полесский Проезд д.16 стр.1"
"2019-02-22 11:49:57.610594+01",270580700,"Московская область, Дмитровский район, Кузяевский с.о., в  районе с. Игнатово, Спортивно-Стрелковый Комплекс «Лисья Нора».","Москва","facebook_places",213150888696064,56.169072114999999,37.543175622314003,"Лисья Нора / FoxLodge","Лисья Нора / FoxLodge"
"2019-02-22 20:09:03.035876+01",1606049,"The Old Schools, Trinity Lane","Cambridge, Cambridgeshire","facebook_places",5979139863,52.204247410054997,0.119403116201320,"University of Cambridge","University of Cambridge"
"2019-02-25 14:44:51.776033+01",105998669432325,"","","facebook_places",105998669432325,55.649920000000002,37.664470000000001,"National Research Nuclear University ""MEPhI""","National Research Nuclear University ""MEPhI"""
"2019-02-25 12:15:48.784836+01",214497334,"Сочи, А-355, Аэропорт","","facebook_places",106136902750983,43.448646410423997,39.942333096380999,"Sochi International Airport","Sochi International Airport"
"2019-02-22 18:40:58.122117+01",684153132,"Teatralny proezd 5","Москва","facebook_places",230886510362760,55.760150000000003,37.625129999999999,"Центральный Детский Магазин на Лубянке","Центральный Детский Магазин на Лубянке"
"2019-02-25 15:42:46.242637+01",219842857,"","","facebook_places",112396232109865,56.141800000000004,47.248600000000003,"Cheboksary","Cheboksary"
"2019-02-22 18:42:46.828753+01",217565357,"","MOSKVA","facebook_places",254548298038090,55.775155100433999,37.635633227263000,"Красная Площадь","Красная Площадь"
"2019-02-23 11:01:00.821905+01",5113594,"117393, г.Москва, ул.Профсоюзная, д.78","","facebook_places",224708134302584,55.659763338112000,37.539028570334999,"РБК-ТВ","РБК-ТВ"
"2019-02-22 18:43:36.770968+01",1121434697948355,"ул. Моховая","","facebook_places",1121434697948355,55.593173899999996,37.606067730000000,"Моховая Улица, Москва","Моховая Улица"
"2019-02-22 18:43:46.585543+01",213273792,"Кутузовский проспект, 48","Москва","facebook_places",148469735199378,55.731840200952000,37.489549252628997,"Ресторан&Бар ""Облака""","Ресторан&Бар ""Облака"""
"2019-02-22 21:58:30.687317+01",557548989,"ул. Первомайская, д. 7а","","facebook_places",139890682818814,55.930840261299998,37.520535942199999,"Столовая МФТИ","Столовая МФТИ"
"2019-02-25 19:30:15.86747+01",1023353037,"Академика Лаврентьева, дом 8","","facebook_places",891342150980676,55.940610000000000,37.502479999999998,"Garage Craft Beer- магазин Крафтового пива","Garage Craft Beer- магазин Крафтового пива"
"2019-02-22 23:30:46.761973+01",942957878,"Ленинский проспект дом 4","Москва","facebook_places",203370586374927,55.728310000000000,37.609409900000003,"НИТУ «МИСиС»","НИТУ «МИСиС»"
"2019-02-22 18:45:19.242764+01",753623,"1 AT&T Center Pkwy","San Antonio, Texas","facebook_places",65553879418,29.426922033248999,-98.437141560102006,"AT&T Center","AT&T Center"
"2019-02-22 13:47:55.697195+01",222859765,"","","facebook_places",106249829412960,48.399999999999999,9.983300000000000,"Ulm, Germany","Ulm"
"2019-02-22 16:54:12.242359+01",5255368,"ул.Большая Полянка","Москва (Moscow, Russia)","facebook_places",346978848697890,55.734200000000001,37.618839999999999,"Большая Полянка","Большая Полянка"
"2019-02-23 11:03:33.937911+01",25534,"Москва, Комсомольская пл., 3","","facebook_places",148589931869671,55.776816356502998,37.654816264250002,"Leningradsky Railway Station","Leningradsky Railway Station"
"2019-02-22 12:58:46.913154+01",55855,"27 King's College Circle","Toronto, Ontario","facebook_places",6169515998,43.662356376101997,-79.396673064276001,"University of Toronto","University of Toronto"
"2019-02-22 12:59:53.602303+01",215138509,"Banawe Street, corner Alcaraz Street","","facebook_places",109428412416140,1.248000000000000,103.829999999999998,"Sentosa","Sentosa"
"2019-02-22 18:47:06.832494+01",624561265,"новокосинская д30","","facebook_places",635038849931523,55.742574089999998,37.869139910000001,"Новокосино","Новокосино"
"2019-02-22 12:59:54.803075+01",501723905,"","","facebook_places",348065405353896,52.376389000000003,4.622222000000000,"Cathedral of St Bavo, Haarlem","Cathedral of St Bavo"
"2019-02-25 10:25:29.449544+01",423860212,"","","facebook_places",140145676010905,55.777222219999999,37.789444439999997,"Izmaylovsky Park","Izmaylovsky Park"
"2019-02-22 15:19:09.745657+01",1745459232425781,"","","facebook_places",1745459232425781,55.752200000000002,37.615600000000001,"Стадион Лужники","Стадион Лужники"
"2019-02-22 21:54:12.641773+01",37610277,"Новинский бул. д. 8 стр. 2","Moscow, Russia","facebook_places",161356482847,55.750390000000003,37.583939999999998,"Lotte Hotel Moscow","Lotte Hotel Moscow"
"2019-02-22 13:35:25.041543+01",894812510,"","","facebook_places",194267607287725,45.366666666667001,39.433333333333003,"Krasnodar Krai","Krasnodar Krai"
"2019-02-22 15:19:16.086494+01",670450739,"Пушкинская наб.","","facebook_places",589205437836638,55.716111111110998,37.588055555555996,"Нескучный сад","Нескучный сад"
"2019-02-22 18:51:23.805118+01",78552388,"Ленинградский проспект, 39 стр. 80","","facebook_places",138284936371072,55.797141646321997,37.537950644081000,"Mail.ru HQ Skylight","Mail.ru HQ Skylight"
"2019-02-22 18:52:40.922578+01",942380507,"Пушкинская площадь дом 5","Москва","facebook_places",303490996357799,55.766292253376001,37.604438292738003,"Известия Hall","Известия Hall"
"2019-02-22 12:07:24.207276+01",515712078,"Садовническая наб., 77, стр. 1","Moscow, Russia","facebook_places",96321594859,55.735349999999997,37.641370000000002,"EY Russia","EY Russia"
"2019-02-25 12:13:46.544391+01",417840945,"Проспект мира 111","Москва","facebook_places",725192127525947,55.823297840526998,37.639831521919000,"Музей космонавтики","Музей космонавтики"
"2019-02-22 23:46:39.338208+01",213075052,"","","facebook_places",107976712569863,55.704500000000003,21.152100000000001,"Klaipeda, Lithuania","Klaipeda"
"2019-02-25 18:08:21.015107+01",221948597,"Россия, Москва, район Восточное Дегунино","","facebook_places",192925320777127,55.878100000000003,37.565800000000003,"Vostochnoye Degunino District","Vostochnoye Degunino District"
"2019-02-25 16:01:38.635107+01",214713732,"7 Bolshoi Zlatoustinskiy Per. (m) Kitai-Gorod","Москва","facebook_places",57288374844,55.758699999999998,37.632730000000002,"Propaganda (Moscow)","Propaganda (Moscow)"
"2019-02-25 12:13:15.3242+01",16994049,"Территория Инновационного центра «Сколково», ул. Большой бульвар, 42, корп. 1","","facebook_places",262194407197534,55.692282901436997,37.347548362971999,"Технопарк Сколково","Технопарк Сколково"
"2019-02-15 00:45:43.029115+01",283338922517891,"парк у  Долгих Прудов ","","facebook_places",283338922517891,55.931133080835998,37.531909965341001,"Лыжная трасса МФТИ","Лыжная трасса МФТИ"
"2019-02-25 08:58:27.796147+01",228466596,"","","facebook_places",103766729662752,56.000000000000000,38.366700000000002,"Chernogolovka","Chernogolovka"
"2019-02-25 12:25:40.178382+01",217467899,"","","facebook_places",107975022563816,56.016666666667000,37.483333333333000,"Lobnya","Lobnya"
"2019-02-22 12:13:43.692802+01",264173725,"","","facebook_places",136146733082728,55.822694444443996,37.639622222222002,"Monument to the Conquerors of Space","Monument to the Conquerors of Space"
"2019-02-25 08:48:24.292776+01",213477352,"","","facebook_places",111858022159477,25.933000000000000,-80.162400000000005,"North Miami Beach, Florida","North Miami Beach"
"2019-02-22 13:03:31.234938+01",1329723903840947,"","","facebook_places",1329723903840947,39.531156283000001,2.437676124000000,"Cala Fornells Mallorca","Cala Fornells Mallorca"
"2019-02-22 13:32:25.416652+01",300111321,"","","facebook_places",109539082405260,51.376899999999999,42.084400000000002,"Borisoglebsk","Borisoglebsk"
"2019-02-25 10:37:46.812429+01",462680411,"ул. Варварка, 6","Москва","facebook_places",186196258195700,55.750986464550998,37.626793631623002,"Zaryadye Park","Zaryadye Park"
"2019-02-22 20:48:17.426632+01",35060,"улица Каретный Ряд, 3","Москва","facebook_places",413002165422610,55.770800000000001,37.609229900000002,"Сад ""Эрмитаж""","Сад ""Эрмитаж"""
"2019-02-25 18:31:48.793091+01",275654836,"","","facebook_places",546128262150296,55.931652593477999,37.478860700538000,"Набережная Канала Им. Москвы","Набережная Канала Им. Москвы"
"2019-02-25 19:29:55.786+01",221130590,"","","facebook_places",112217965471773,54.729399999999998,55.950600000000001,"Ufa, Russia","Ufa"
"2019-02-25 12:37:04.789902+01",1614825342154126,"Московская область, г. Одинцово, ул. Ново-спортивная, д.3","","facebook_places",1614825342154126,55.680578772045003,37.277147769928000,"МГИМО-Одинцово","МГИМО-Одинцово"
"2019-02-25 12:01:25.815309+01",990208301,"Конюшковский Малый пер., 2","","facebook_places",1440446759616972,55.758270300000000,37.580169699999999,"Точка Кипения АСИ","Точка Кипения АСИ"
"2019-02-25 16:21:46.296968+01",213734388,"ул. Саморы Машела, 1","Москва (Moscow, Russia)","facebook_places",244078662310917,55.653052074690997,37.492713488101003,"ФНКЦ ДГОИ Им. Димы Рогачева","ФНКЦ ДГОИ Им. Димы Рогачева"
"2019-02-25 17:52:51.586482+01",8374551,"Одинцовский р-н, Волково д., Московская обл.","","facebook_places",148758828532525,55.683057051161001,36.691736581721003,"Пансионат ""Солнечная Поляна""","Пансионат ""Солнечная Поляна"""
"2019-02-23 00:29:17.376511+01",228423866,"Б. Грузинская, 1","","facebook_places",107547679275017,55.761944444443998,37.577222222221998,"Moscow Zoo","Moscow Zoo"
"2019-02-22 22:03:51.997032+01",410126920,"Электрозаводская дом 21, проходная №3 ""Мраморная""","","facebook_places",309010172598261,55.787070987391999,37.705399990082000,"WoodStudios","WoodStudios"
"2019-02-25 13:58:44.976524+01",213609641,"Kutuzovskiy prospekt, 48","Moscow, Russia","facebook_places",172011276184432,55.731710000000000,37.487139999999997,"Vremena Goda Moscow","Vremena Goda Moscow"
"2019-02-25 19:11:23.63654+01",217902418,"Крымский вал, 9","","facebook_places",178410178889529,55.731602093250999,37.603802877471999,"Gorky Park (Moscow)","Gorky Park (Moscow)"
"2019-02-23 11:05:29.48024+01",34173297,"","","facebook_places",288097837962298,55.815939260206001,37.575720271918002,"МФТИ На Дмитровке","МФТИ На Дмитровке"
"2019-02-22 16:13:39.154805+01",212994931,"Stockholm Arlanda Airport, Terminal 5","Sigtuna","facebook_places",149346661784148,59.651673626396999,17.931388943559998,"Stockholm-Arlanda Airport: Terminal 5","Stockholm-Arlanda Airport: Terminal 5"
"2019-02-22 18:51:28.481949+01",1024307442,"BEREZHKOVSKAYA NABEREZHNAYA","","facebook_places",506349206148122,55.720277777778001,37.563055555555998,"Воробьёвы Горы","Воробьёвы Горы"
"2019-02-22 18:58:27.809548+01",507527231,"Новодачная ул.","Moscow, Russia","facebook_places",234934323374378,55.859279510000000,37.519298999999997,"Парк Усадьбы Заболотье","Парк Усадьбы Заболотье"
"2019-02-23 11:26:07.99756+01",15885066,"","","facebook_places",150735995064439,55.927853820000003,37.531438559999998,"Роща","Роща"
"2019-02-25 19:29:41.16233+01",410299060,"Дубнинская улица","Moscow, Russia","facebook_places",826487044029923,55.897641970066999,37.553285884360001,"Станция-Лианозово","Станция-Лианозово"
"2019-02-22 18:59:07.451049+01",48959147,"","","facebook_places",231295040218598,55.758962089572996,37.757436824209002,"Шоссе Энтузиастов","Шоссе Энтузиастов"
"2019-02-22 19:00:49.545072+01",1031119085,"Волгоградский пр-кт д.32 к.4","Москва","facebook_places",1839434732950403,55.720739999999999,37.692630000000001,"Tesla Hall","Tesla Hall"
"2019-02-23 11:05:56.062593+01",2327103,"ул. Сретенка, 21/28","Москва (Moscow, Russia)","facebook_places",124651500944964,55.770694238224998,37.632434707940000,"Crazy Daisy","Crazy Daisy"
"2019-02-23 11:06:32.800814+01",71519856,"","LENINSKIY RAYON","facebook_places",684763644882557,55.509521999999997,37.730454000000002,"Белеутово","Белеутово"
"2019-02-25 10:58:00.157965+01",1019328940,"ш. Энтузиастов, дом 5","Москва","facebook_places",1628286274100299,55.749221783967997,37.696305954609997,"TESLA 4000","TESLA 4000"
"2019-02-25 15:57:18.118709+01",575585953,"","","facebook_places",144197022263922,55.765000000000001,37.691388889999999,"Lefortovo District","Lefortovo District"
"2019-02-22 19:07:23.168025+01",1001982051,"","","facebook_places",144139665601005,60.165527777778003,24.967527777777999,"Wanha Satama","Wanha Satama"
"2019-02-23 11:06:47.663129+01",519846,"ул. Тверская, 20/1","","facebook_places",170800102957638,55.766739999999999,37.602280000000000,"ДжонДжоли","ДжонДжоли"
"2019-02-23 11:06:50.529861+01",1975055,"Лужнецкая наб., 24, стр. 5.","Москва (Moscow, Russia)","facebook_places",152071591566819,55.712613304076001,37.566567224701998,"УСЗ Дружба","УСЗ Дружба"
"2019-02-22 19:09:18.222935+01",214187836,"24 York Street","Sydney, New South Wales","facebook_places",149406268535214,-33.868259999999999,151.206259899999992,"The Bavarian Beerhaus York Street","The Bavarian Beerhaus York Street"
"2019-02-23 11:07:36.466889+01",324777798,"Place de Cornavin, 7","Geneva, Switzerland","facebook_places",1457697981144070,46.210729999999998,6.143330000000000,"Gare CFF Genève-Cornavin","Gare CFF Genève-Cornavin"
"2019-02-22 19:21:17.771342+01",3298299,"Московское шоссе","","facebook_places",448820068563875,55.939109449999997,37.520037450010001,"Станция Долгопрудная","Станция Долгопрудная"
"2019-02-22 13:11:11.190215+01",549737,"улица Дерибасовская 20","Odessa, Ukraine","facebook_places",329842095899,46.484287521618000,30.736125005647999,"Ресторан «Стейкхаус. Мясо и вино»","Ресторан «Стейкхаус. Мясо и вино»"
"2019-02-25 18:01:10.640447+01",941843298,"Крымский вал 9 ","Москва","facebook_places",116007168484631,55.731439999999999,37.603369999999998,"Парк Горького","Парк Горького"
"2019-02-23 11:08:59.904707+01",2520289,"ул. Профсоюзная, 78","Moscow, Russia","facebook_places",172286916154038,55.659859514988000,37.539294239706997,"РБК (РосБизнесКонсалтинг)","РБК (РосБизнесКонсалтинг)"
"2019-02-22 16:07:46.553628+01",297175197,"","","facebook_places",106068516099522,53.156666666667000,107.383611111110000,"Olkhon Island","Olkhon Island"
"2019-02-22 13:31:04.66322+01",123428985011525,"Vittjärvsvägen 17","Boden","facebook_places",123428985011525,65.851900000000000,21.590450000000001,"MIPT-Massör och internationell personlig tränare","MIPT-Massör och internationell personlig tränare"
"2019-02-25 10:26:53.459542+01",1008623949,"55-й км Минского шоссе","Кубинка","facebook_places",407946952703132,55.572667624179999,36.831579208374002,"Парк Патриот","Парк Патриот"
"2019-02-22 13:11:47.895679+01",255394000,"Lushan Mountain, City of Langkou in Shandong Province","Sanya","facebook_places",506457026082078,18.300317614356000,109.202620312670007,"Nanshan Temple","Nanshan Temple"
"2019-02-22 23:08:43.949129+01",1017279938,"","","facebook_places",112008858815870,55.929444444444002,37.521388888889000,"Institut de physique et de technologie de Moscou","Institut de physique et de technologie de Moscou"
"2019-02-23 11:10:15.877091+01",252245291,"","","facebook_places",372010259515587,49.857637928000003,-100.924532407000001,"Virden, Mb","Virden"
"2019-02-22 13:29:08.391962+01",398504001,"","","facebook_places",111803002172556,56.500000000000000,84.966700000000003,"Tomsk, Russia","Tomsk"
"2019-02-25 10:37:58.503483+01",218406126,"Leninsky prospekt 14, Moscow","","facebook_places",106209302743440,55.710794444443998,37.577813888888997,"Russian Academy of Sciences","Russian Academy of Sciences"
"2019-02-22 19:15:04.986608+01",275638462,"Алтуфьевское шоссе","Moscow, Russia","facebook_places",268891396625501,55.894585550000002,37.580216774999997,"Лианозово","Лианозово"
"2019-02-23 11:11:02.41363+01",1402101,"Dmitrovskoye Shosse","Moskva","facebook_places",271687442973090,55.906642390077003,37.537493240563002,"Платформа Марк","Платформа Марк"
"2019-02-22 19:20:02.75829+01",509931024,"Дмитровское шоссе 171","","facebook_places",356806887727339,55.943566024768003,37.536401602871997,"Holiday Inn Vinogradovo Moscow","Holiday Inn Vinogradovo Moscow"
"2019-02-25 18:16:04.03318+01",213174824,"","","facebook_places",108131085886116,59.931046000000002,30.360478000000000,"Saint Petersburg, Russia","Saint Petersburg"
"2019-02-22 21:23:56.370816+01",84505115,"","","facebook_places",432401363439311,55.945981955000001,37.501675030000001,"ПКиО","ПКиО"
"2019-02-22 13:11:51.431239+01",276388011,"","","facebook_places",110993232255969,54.071399999999997,37.527799999999999,"Yasnaya Polyana, Tul'Skaya Oblast', Russia","Yasnaya Polyana"
"2019-02-22 13:12:27.737842+01",221875733,"","","facebook_places",102541743132180,18.258044999999999,109.450091999999998,"Sanya Bay","Sanya Bay"
"2019-02-23 01:33:50.891527+01",417575492,"","","facebook_places",221877337822785,55.924867825348997,37.527193467426002,"Пл. Новодачная","Пл. Новодачная"
"2019-02-23 11:11:10.254332+01",579024,"1701 Coyote Point Dr","","facebook_places",110877905642657,37.588221695999998,-122.325632858000006,"Coyote Point Park","Coyote Point Park"
"2019-02-22 13:12:33.174287+01",177962492873225,"No. 88 Haiyun Road, Dadonghai Bay, Sanya 572000","","facebook_places",177962492873225,18.217615752091000,109.509109761049999,"Sanya Marriott Hotel Dadonghai Bay","Sanya Marriott Hotel Dadonghai Bay"
"2019-02-22 19:20:11.697278+01",1032719341,"Московская область, г. Одинцово, ул. Ново-спортивная, д.3","","facebook_places",840778306066129,55.680579999999999,37.277349999999998,"МГИМО Одинцовский Филиал","МГИМО Одинцовский Филиал"
"2019-02-25 19:30:14.698234+01",220506321,"","","facebook_places",111562282204415,55.929699999999997,37.513300000000001,"Dolgoprudyy, Moskovskaya Oblast', Russia","Dolgoprudyy"
"2019-02-23 11:12:37.023241+01",214348176,"","","facebook_places",289298631197316,53.896700733098001,27.550426842488001,"Minsk / Belarus","Minsk / Belarus"
"2019-02-22 19:21:22.83324+01",637713684,"","","facebook_places",438103809610587,18.706785642345000,109.670783051559994,"Narada Qixian Mountain Resort, Hainan Island","Narada Qixian Mountain Resort"
"2019-02-22 13:16:08.465612+01",219964534,"","","facebook_places",112376008779326,40.785760000000003,17.235600000000002,"Alberobello","Alberobello"
"2019-02-22 15:21:08.611898+01",272575966560949,"Фрунзенская Набережная","","facebook_places",272575966560949,55.719836167444001,37.582118252957002,"Фрунзенская Набережная","Фрунзенская Набережная"
"2019-02-25 16:01:37.192001+01",361427547538610,"Тверской бульвар, 14 стр. 4","Москва","facebook_places",361427547538610,55.759590000000003,37.601320000000001,"DIDI","DIDI"
"2019-02-25 15:38:10.802972+01",213087839,"","","facebook_places",116273651719563,43.585299999999997,39.720300000000002,"Sochi, Russia","Sochi"
"2019-02-23 11:16:36.047149+01",12922462,"","","facebook_places",211181822345534,55.752919525861998,37.588449784482997,"Чайхона №1","Чайхона №1"
"2019-02-25 17:18:52.803963+01",215571386,"ул. Восточная, д.4, корп.1","Москва","facebook_places",255638201192596,55.714450800000002,37.657901799999998,"Культурный центр ЗИЛ","Культурный центр ЗИЛ"
"2019-02-22 19:22:02.773076+01",219033267,"Hainan 神州半岛-Shenzhou Peninsula","","facebook_places",396166387076813,18.672123555426001,110.353498928009998,"Shenzhou Sheraton","Shenzhou Sheraton"
"2019-02-23 11:17:06.117896+01",3261480,"","","facebook_places",419032551474605,45.018984189240001,39.029470236431003,"Табрис","Табрис"
"2019-02-22 19:27:29.853943+01",420569805,"Пресненская набережная, 6с2","","facebook_places",1416011092019415,55.748749340377998,37.539259985286002,"Moscow City Imperia Tower","Moscow City Imperia Tower"
"2019-02-23 00:59:37.611561+01",214517414,"улица Большая Дмитровка, дом 6","Москва (Moscow, Russia)","facebook_places",425808824171106,55.760105825711001,37.615930880585999,"Московский театр оперетты","Московский театр оперетты"
"2019-02-23 11:18:19.894581+01",31060003,"ул. Правобулачная, 29","Казань (Kazan, Tatarstan)","facebook_places",431657856884887,55.791139999999999,49.109470000000002,"China Town Cafe","China Town Cafe"
"2019-02-25 10:48:05.502217+01",300491777082305,"190000, St Petersburg, Dvortsovaya Naberezhnaya (Embankment), 34","","facebook_places",300491777082305,59.938110000000002,30.312550000000002,"Hermitage, St Petersburg Russia Is An Occupier","Hermitage"
"2019-02-25 16:11:26.525574+01",44272342,"Манежная площадь, д.1, стр.2","Москва","facebook_places",120435867989392,55.755809999999997,37.614600000000003,"Охотный ряд","Охотный ряд"
"2019-02-22 19:34:40.470767+01",756488434,"","","facebook_places",425644060806150,59.436693870208998,24.748301080882001,"Tallinn Old Town","Tallinn Old Town"
"2019-02-25 18:23:30.450881+01",647054121,"Россия, г. Москва, ул. Лавочкина д. 32","","facebook_places",204807676271269,55.855642389478000,37.495768998888003,"ДС Динамо","ДС Динамо"
"2019-02-23 11:22:06.982376+01",35637,"","Berkeley, CA","facebook_places",499093756767548,37.870644257099997,-122.259689569000003,"University of California Berkeley","University of California Berkeley"
"2019-02-25 16:15:22.0861+01",223217877,"Серебряническая набережная, 29","Москва (Moscow, Russia)","facebook_places",185810054813019,55.750639999999997,37.653269999999999,"БЦ Серебряный Город","БЦ Серебряный Город"
"2019-02-25 19:32:47.101237+01",294063762,"Первомайская улица","Dolgoprudyy, Moskovskaya Oblast', Russia","facebook_places",1378602805758677,55.932389999999998,37.520389999999999,"Долгопрудный","Долгопрудный"
"2019-02-23 11:21:33.321618+01",4210966,"Чистопрудный б-р, 12а","Москва","facebook_places",365402136853320,55.760614784657001,37.644292400364002,"Кинотеатр «Ролан»","Кинотеатр «Ролан»"
"2019-02-25 10:19:44.096577+01",748789279,"","","facebook_places",1585232988380240,55.608102947749003,38.172096982597999,"Кратовское Лесное Озеро","Кратовское Лесное Озеро"
"2019-02-22 13:35:23.571478+01",1033074080,"","","facebook_places",447529935443242,55.729444444443999,37.639166666667002,"Estación de Pavelétskaya","Estación de Pavelétskaya"
"2019-02-22 16:16:31.552667+01",217478883,"","","facebook_places",106567572712806,46.450699999999998,30.710400000000000,"Odessa, Ukraine","Odessa"
"2019-02-22 19:43:58.651+01",498266423,"70-й км Приозерского шоссе","Петровское (Приозерский район) (Petyayarvi)","facebook_places",394825223878004,60.644319830000001,30.201668670000000,"Связист","Связист"
"2019-02-23 11:28:14.854827+01",2110563,"Суворовская площадь, дом 2","Москва","facebook_places",178359678881646,55.782545656407002,37.613916685493002,"Театр Российской Армии","Театр Российской Армии"
"2019-02-25 15:07:18.682743+01",1029916422,"Новый бульвар 5","","facebook_places",1561522827491220,55.937640000000002,37.507289999999998,"ART of FIGHT","ART of FIGHT"
"2019-02-22 19:44:48.099341+01",457008171,"","","facebook_places",437113216309431,43.447942659074997,39.941798431763999,"Новый Афон","Новый Афон"
"2019-02-22 19:44:54.828887+01",216868845,"5 Lesnaya Street/ Лесная ул., 5 ","Moscow, Russia","facebook_places",146736315461428,55.777949999999997,37.587159999999997,"White Square Office Center / Бизнес-Центр ""Белая Площадь""","White Square Office Center / Бизнес-Центр ""Белая Площадь"""
"2019-02-22 22:01:07.505571+01",1026330145,"Институтский пер.,9","Dolgoprudnyy, Moskovskaya Oblast', Russia","facebook_places",659452837441145,55.930558599999998,37.517139499999999,"МФТИ - Физтех","МФТИ - Физтех"
"2019-02-22 17:26:46.853132+01",699026895,"","","facebook_places",1515955248691605,55.727589999999999,37.629010000000001,"Accademia Plechanov","Accademia Plechanov"
"2019-02-22 19:50:15.929401+01",825724487,"Москва,Советская,80","Москва","facebook_places",1586380678291908,55.797165700000001,37.752615599999999,"Фоп ""измайлово""","Фоп ""измайлово"""
"2019-02-22 22:51:47.599624+01",1007907280,"","","facebook_places",531518520222533,55.929444444444002,37.521388888889000,"Instituto de Física y Tecnología de Moscú","Instituto de Física y Tecnología de Moscú"
"2019-02-22 19:50:22.555485+01",1742305426007595,"Тестовская","","facebook_places",1742305426007595,55.747482295147002,37.531979334962003,"МЦК Деловой Центр","МЦК Деловой Центр"
"2019-02-25 09:05:35.87401+01",1074784106032798,"Институтский пер.,8","","facebook_places",1074784106032798,55.931460000000001,37.517449900000003,"Burger bar Chilli Out","Burger bar Chilli Out"
"2019-02-22 19:51:36.012232+01",317683263,"","","facebook_places",451859071502075,59.923352198171003,30.322073014339999,"Санкт-Петербург, Россия","Санкт-Петербург"
"2019-02-23 11:29:41.643272+01",427106345,"","","facebook_places",168180666596955,55.788333330000000,37.529444439999999,"Khoroshyovsky District","Khoroshyovsky District"
"2019-02-25 19:32:45.686942+01",636606262,"","","facebook_places",108231082537595,55.929130047999998,37.521133046000003,"Moscow Institute of Physics and Technology","Moscow Institute of Physics and Technology"
"2019-02-22 17:29:26.528278+01",398299085,"","","facebook_places",1421282131482266,55.820910684363000,37.387697696685997,"Vegas Crocus City","Vegas Crocus City"
"2019-02-25 19:25:08.404612+01",13338,"Ленинские Горы, дом 1","Москва","facebook_places",424791787567328,55.702536870213002,37.531142602538999,"Московский государственный университет имени М.В.Ломоносова","Московский государственный университет имени М.В.Ломоносова"
"2019-02-22 22:05:34.370022+01",406860432,"Ул. Каховка, д. 21/2","Moskva","facebook_places",297260700434675,55.652819999999998,37.575279999999999,"Москва Зюзино","Москва Зюзино"
"2019-02-23 11:02:04.921608+01",440336622,"","","facebook_places",203465709677924,55.929225253885001,37.517891165927999,"Мфти Главный Корпус","Мфти Главный Корпус"
"2019-02-25 19:31:37.628713+01",290652241,"","Dolgoprudyy, Moskovskaya Oblast', Russia","facebook_places",1493554024197164,55.948400000000000,37.498849999999997,"Долгопрудный","Долгопрудный"
"2019-02-22 20:09:14.806445+01",618924123,"Шаболовка, 26","","facebook_places",347684735429214,55.720534132331998,37.608511728326000,"Ниу Вшэ Шаболовская 26","Ниу Вшэ Шаболовская 26"
"2019-02-22 21:58:40.940874+01",1026683744,"Новодмитровская, 5А, строение 2.","","facebook_places",204804039869168,55.807240000000000,37.588349999999998,"Fotohive","Fotohive"
"2019-02-22 13:36:53.648047+01",204994156911712,"ул. Лужники, 24, Москва","Moscow, Russia","facebook_places",204994156911712,55.715653181590000,37.553865909575997,"FIFA World Cup 2018","FIFA World Cup 2018"
"2019-02-22 13:40:17.076687+01",215853740,"","","facebook_places",119625908083023,48.822221999999996,2.338333000000000,"Parc Montsouris","Parc Montsouris"
"2019-02-25 18:34:27.135937+01",214332343,"","","facebook_places",301734119937188,52.987923412158999,36.059974386935998,"Орел","Орел"
"2019-02-22 12:31:01.622619+01",767241838,"","","facebook_places",109347339090416,55.960600000000000,38.045600000000000,"Frjasino, Moskovskaya Oblast', Russia","Frjasino"
"2019-02-22 12:43:15.369945+01",243602456,"Aapistie 5a","","facebook_places",445468985494191,65.007269309585993,25.524965791503000,"Lääketieteellinen tiedekunta, Oulun yliopisto","Lääketieteellinen tiedekunta"
"2019-02-22 13:36:53.074115+01",897482236,"","","facebook_places",112931945391942,55.324399999999997,42.026699999999998,"Shimorskoye, Nizhegorodskaya Oblast', Russia","Shimorskoye"
"2019-02-22 13:36:54.776943+01",204590080144449,"Конюшенная площадь, 1","Санкт-Петербург","facebook_places",204590080144449,59.941357930153004,30.326246023178001,"Выставка работ Banksy в Санкт-Петербурге","Выставка работ Banksy в Санкт-Петербурге"
"2019-02-23 11:07:44.42877+01",213006946,"","","facebook_places",125850760791991,48.853138888888999,2.369111111111100,"Place de la Bastille","Place de la Bastille"
"2019-02-22 15:08:47.787598+01",213011753,"","","facebook_places",110884905606108,-33.867510000000003,151.207969999999989,"Sydney, Australia","Sydney"
"2019-02-22 12:54:05.049081+01",340436328,"","","facebook_places",103132059727613,51.158611111100001,30.490833333300000,"Prypiat River","Prypiat River"
"2019-02-22 13:37:12.06722+01",834722003,"ciencias.uniandes.edu.co","Bogotá (Bogotá, Colombia)","facebook_places",453864577993235,4.598100000000000,-74.075800000000001,"Facultad de Ciencias - Uniandes","Facultad de Ciencias - Uniandes"
"2019-02-22 13:45:14.638699+01",421610496,"","Sokolniki, Moskovskaya Oblast', Russia","facebook_places",588802661217953,55.953988500000001,36.912793399999998,"Сокольники","Сокольники"
"2019-02-25 08:48:03.817922+01",498395589,"Nobelya Ulitsa 3","Moscow, Russia","facebook_places",219605978125334,55.695533363966000,37.390647916094998,"Skolkovo Institute of Science and Technology","Skolkovo Institute of Science and Technology"
"2019-02-25 09:05:21.248109+01",321780808588054,"Институтский пер. 9с7","","facebook_places",321780808588054,55.929634876430001,37.515907287597997,"Бизнес-инкубатор МФТИ «Физтех.Старт»","Бизнес-инкубатор МФТИ «Физтех.Старт»"
"2019-02-25 10:51:54.108527+01",1023155659,"Москва, ул. Большая Татарская, д.35, стр.3","Москва","facebook_places",228105227316734,55.737609999999996,37.636809900000003,"CINIMEX","CINIMEX"
"2019-02-25 12:05:42.015943+01",218172732,"","","facebook_places",105578269476366,52.716700000000003,41.433300000000003,"Tambov","Tambov"
"2019-02-22 13:49:25.059591+01",1030259087,"Московский проспект, корпус 509","Зеленоград, Москва (Zelenograd, Russia)","facebook_places",566231470210528,55.995790000000000,37.233240000000002,"Школа  1557 имени П.Л. Капицы","Школа  1557 имени П.Л. Капицы"
"2019-02-22 20:15:36.707868+01",567635516757767,"Кубинка","","facebook_places",567635516757767,55.759615550000000,37.594462980000003,"Армия-2016","Армия-2016"
"2019-02-22 20:15:44.133913+01",48322282,"ул.Стародеревенская","","facebook_places",242928962472100,59.931727528021000,30.359621093878999,"Москва","Москва"
"2019-02-22 20:15:47.984647+01",102548100,"Косыгина, 15","","facebook_places",173818906004430,55.705385092973003,37.564506180183002,"Корстон","Корстон"
"2019-02-22 13:51:56.514759+01",500493609,"","","facebook_places",203208603140456,55.652195937945997,37.767657901847997,"Измайловский Парк","Измайловский Парк"
"2019-02-22 20:18:03.648239+01",1046448965435378,"Ходынский бульвар 4","","facebook_places",1046448965435378,55.790477765714002,37.533045049999998,"Клаустрофобия Авиапарк","Клаустрофобия Авиапарк"
"2019-02-22 20:19:03.311523+01",273074801,"17801 International Blvd","","facebook_places",145613875459073,47.441225654359997,-122.303699820079999,"Sea-Tac International Airport","Sea-Tac International Airport"
"2019-02-22 20:19:11.054684+01",633565057,"","MOSKVA","facebook_places",463310193750982,55.850045804908000,37.636910846050000,"Набережная Парк Горького","Набережная Парк Горького"
"2019-02-22 20:19:16.730582+01",485606759,"","","facebook_places",387062898021268,43.407866628881003,39.985579568930000,"Абхазия,Гагра","Абхазия"
"2019-02-25 10:27:30.235779+01",8781604,"Сколковское шоссе, д. 45","Москва","facebook_places",126344830714011,55.698135026677001,37.394199371337997,"New Economic School","New Economic School"
"2019-02-22 20:20:13.798711+01",7029754,"Ленинградский проспект","","facebook_places",149728141872189,55.805550470817003,37.515019193233002,"Сокол","Сокол"
"2019-02-25 09:09:25.680383+01",282618566,"119991, ГСП-1, Москва  Ленинские горы, МГУ имени М.В.Ломоносова  Дом 1, строение 2, Физический Факультет","Москва","facebook_places",211470758869964,55.700587214701002,37.528837533431997,"Физфак МГУ","Физфак МГУ"
"2019-02-25 18:47:56.41201+01",73985327,"121552, Москва, ул. Лавочкина, 32","Moscow, Moscow City","facebook_places",148820165188502,55.855960282345002,37.496550130223000,"Дворец Спорта ""Динамо""","Дворец Спорта ""Динамо"""
"2019-02-25 10:18:16.46008+01",269075311,"","","facebook_places",104056752963471,44.600000000000001,40.083300000000001,"Maykop","Maykop"
"2019-02-22 14:05:08.603221+01",135626596614853,"Ленинградский проспект, 39 стр. 79","Москва","facebook_places",135626596614853,55.796959999999999,37.537820000000004,"Mail.Ru Group Non-Standard Advertising","Mail.Ru Group Non-Standard Advertising"
"2019-02-22 13:43:19.174291+01",214341550,"4 Neglinnaya Street","Москва","facebook_places",250058241739564,55.760120000000001,37.621560000000002,"Ararat Park Hyatt Moscow - Арарат Парк Хаятт Москва","Ararat Park Hyatt Moscow - Арарат Парк Хаятт Москва"
"2019-02-22 14:08:55.914839+01",174901429827251,"Орджоникидзе, 6","Korolev, Russia","facebook_places",174901429827251,55.909170045948997,37.857921123505001,"Королёвский Песок","Королёвский Песок"
"2019-02-22 20:23:21.557007+01",411291965,"","","facebook_places",1386099108298028,44.678417849395998,37.561803907190999,"Дюрсо Пляж","Дюрсо Пляж"
"2019-02-25 08:58:28.654215+01",2116236305065072,"Главный Корпус МФТИ","Dolgoprudnyy, Moskovskaya Oblast', Russia","facebook_places",2116236305065072,55.929541259335998,37.517256847398002,"КЗ МФТИ","КЗ МФТИ"
"2019-02-25 15:24:07.76837+01",377296141,"","","facebook_places",232608786860240,44.679341890000003,37.543996849999999,"Пансионат ""Моряк""","Пансионат ""Моряк"""
"2019-02-25 10:58:03.390421+01",528773663,"","","facebook_places",137992189562436,55.750999999999998,37.590000000000003,"Arbat District","Arbat District"
"2019-02-22 20:25:14.66771+01",751280316,"Летная ул., д. 99А","Москва","facebook_places",842112595835308,55.824649999999998,37.415109999999998,"WakePeople RiverSpot","WakePeople RiverSpot"
"2019-02-23 00:26:13.766727+01",510745596,"улица Гагарина, 16","Zhukovskiy, Moskovskaya Oblast', Russia","facebook_places",1532499796977419,55.604190000000003,38.106540000000002,"Московский Физико-Технический институт Фалт","Московский Физико-Технический институт Фалт"
"2019-02-25 19:15:39.81612+01",269141226,"","","facebook_places",462288117145291,55.697499999999998,37.357777779999999,"Skolkovo Innovation Center","Skolkovo Innovation Center"
"2019-02-22 20:26:54.077962+01",221695880,"","","facebook_places",159771394090466,59.933000000000000,30.309000000000001,"Hotel Astoria","Hotel Astoria"
"2019-02-22 20:26:58.896779+01",577316787,"","","facebook_places",1484515185094580,44.273890000000002,38.805149999999998,"Кемпинг Радужный","Кемпинг Радужный"
"2019-02-22 20:27:02.47417+01",1773141,"Воронеж, ул. Бульвар Победы, 23 Б","г. Воронеж, Воронежская обл. (Voronezh)","facebook_places",107980195956374,51.710740000000001,39.159799999999997,"ТРК Арена","ТРК Арена"
"2019-02-25 19:30:07.180848+01",215030018,"Москва, ул. Воздвиженка, д.3/5","Москва","facebook_places",122637967785435,55.751309999999997,37.609340000000003,"Российская государственная библиотека","Российская государственная библиотека"
"2019-02-25 19:04:03.157815+01",14091773,"Lomonosov Moscow State University,GSP-1, Leninskie Gory, Moscow","","facebook_places",135004059904537,55.706282564033003,37.536661085562997,"МГУ - Moscow State University","МГУ - Moscow State University"
"2019-02-22 20:28:22.10121+01",239019218,"","","facebook_places",433065533405619,44.494239739999998,34.165031814999999,"Крым Гора Ай-Петри","Крым Гора Ай-Петри"
"2019-02-22 14:17:49.765205+01",401350510,"","","facebook_places",113623825514434,55.741111111111003,37.629444444443998,"Новокузнецкая","Новокузнецкая"
"2019-02-22 14:18:34.964354+01",498501109,"Краснознаменская улица","Shchelkovo","facebook_places",627212490680819,56.037048830000003,38.196465730000000,"Уск Подмосковье","Уск Подмосковье"
"2019-02-22 20:30:00.07558+01",213036515,"","Sochi, Krasnodar","facebook_places",107190539366022,43.575915793699998,39.725226907100002,"Набережная Центр Сочи - Russia Is An Occupier","Набережная Центр Сочи - Russia Is An Occupier"
"2019-02-22 20:31:32.01175+01",443297521,"","","facebook_places",1385040591779744,56.000480000000003,40.330666790000002,"Радужный","Радужный"
"2019-02-22 14:19:34.687862+01",1030232619,"tilak road","","facebook_places",459286814259877,18.511520000000001,73.844970000000004,"Sadashive peth","Sadashive peth"
"2019-02-22 20:30:13.088122+01",258679272,"Здравствуйте","","facebook_places",205865096229934,44.393403062372002,33.947480239556000,"Понизовка Крым","Понизовка Крым"
"2019-02-25 08:55:15.302317+01",76384854,"Московская область, Дмитровский район, д.Степаново","","facebook_places",331557286860603,56.260146073780000,37.429847567421000,"Горнолыжный Клуб Степаново","Горнолыжный Клуб Степаново"
"2019-02-22 14:21:19.915081+01",5422417,"Gheistrasse 37","Rüschlikon, Zurich","facebook_places",156119981077992,47.312616400000003,8.547295528836001,"Swiss Re Centre for Global Dialogue","Swiss Re Centre for Global Dialogue"
"2019-02-22 20:32:41.722912+01",504200054,"Большой Кисловский переулок, д. 9","Москва","facebook_places",330299477090747,55.755029999999998,37.606220000000000,"СПА Восточный Экспресс","СПА Восточный Экспресс"
"2019-02-22 20:34:14.55195+01",242917795,"Via Manzoni 12","","facebook_places",163052723846496,55.685352249373999,37.307111946455002,"Милан Италия","Милан Италия"
"2019-02-22 20:34:16.816563+01",278200856,"","Linz, Oberösterreich","facebook_places",196873330341253,48.331148966999997,14.323578731935999,"Hotel Sommerhaus","Hotel Sommerhaus"
"2019-02-25 18:07:12.36722+01",485477738171377,"улица Гагарина, 16","","facebook_places",485477738171377,55.604190000000003,38.106540000000002,"МФТИ ФАЛТ","МФТИ ФАЛТ"
"2019-02-25 10:58:01.771779+01",1010944519,"Садовая,1","","facebook_places",109977042682510,44.666699999999999,34.416699999999999,"Отдых.Крым.Рыбачье","Отдых.Крым.Рыбачье"
"2019-02-22 20:35:25.084519+01",352576463,"","","facebook_places",109438665741985,56.833333333333002,60.583333333333002,"Yekaterinburg","Yekaterinburg"
"2019-02-25 10:57:33.181081+01",1810771748936494,"Москва, Проспект Мира 119, владение 75","","facebook_places",1810771748936494,55.829599871220999,37.639387914902002,"Москва, ВДНХ, пав. 75","Москва"
"2019-02-22 20:17:45.424261+01",219957697,"","Москва","facebook_places",101471483319984,55.751335820447998,37.497604363122001,"Красная Поляна, Сочи","Красная Поляна"
"2019-02-25 18:56:42.959065+01",803361052,"ул.Молодежная","","facebook_places",845864135449155,55.940401799999996,37.487314200000000,"Долгопрудный Парк","Долгопрудный Парк"
"2019-02-22 14:30:14.669801+01",521177311,"Pervomayskaya 9 4,","","facebook_places",212019508809858,55.931693400000000,37.520265954000003,"Subway","Subway"
"2019-02-22 20:38:42.321865+01",577899070,"","","facebook_places",352240741503877,56.060672462969997,37.702714595979003,"Пестовское водохранилище","Пестовское водохранилище"
"2019-02-25 12:05:48.907789+01",551574441,"","","facebook_places",376406359100233,43.773052785361003,11.254744652995999,"Firenze, Piazza Del Duomo","Firenze"
"2019-02-25 16:39:31.317618+01",436955891,"","","facebook_places",409045225833574,55.950727620268999,37.492447600025997,"Долгопрудный ,  Лихачевское шоссе 18","Долгопрудный "
"2019-02-22 13:10:50.481835+01",217382401,"","","facebook_places",103280763037511,56.009900000000002,92.866100000000003,"Krasnoyarsk","Krasnoyarsk"
"2019-02-25 19:17:15.606327+01",433769851,"Первомайская ул., 9/4","Dolgoprudnyy, Moskovskaya Oblast', Russia","facebook_places",1442398182691115,55.931474017616999,37.520241737366000,"Теория Кухня&Бар","Теория Кухня&Бар"
"2019-02-22 20:42:17.303476+01",268206083,"","","facebook_places",120259018020326,51.366666670000001,42.178333330000001,"Borisoglebsk Air Base","Borisoglebsk Air Base"
"2019-02-25 18:56:24.559848+01",527692070,"","Dolgoprudyy, Moskovskaya Oblast', Russia","facebook_places",1428073447450407,55.930860000000003,37.519210000000001,"Московский Физико-Технический институт Аудиторный Корпус","Московский Физико-Технический институт Аудиторный Корпус"
"2019-02-22 20:45:46.27309+01",516749,"Россия, Москва, Поклонная улица","","facebook_places",161575337235863,55.735391392171998,37.516505892296003,"Поклонная Гора","Поклонная Гора"
"2019-02-22 20:45:48.935547+01",373049606,"Матросовская улица","Borisoglebsk","facebook_places",660029814064337,51.376939999999998,42.089630000000000,"Борисоглебск","Борисоглебск"
"2019-02-22 20:45:54.41565+01",499769938,"Улица Самокатная, дом 6, корпус 2, квартира 2","Moskva","facebook_places",128822193985651,55.756459999999997,37.679259999999999,"Самокатная Улица","Самокатная Улица"
"2019-02-23 00:32:32.880108+01",624188289,"","","facebook_places",200884576701810,55.604385542700001,38.106514709099997,"Фалт","Фалт"
"2019-02-22 17:40:57.361898+01",1675166472756893,"Снт Подспорье","Москва","facebook_places",1675166472756893,55.902118325000004,37.649468530000000,"AxA Studio Москва","AxA Studio Москва"
"2019-02-22 20:50:03.231482+01",419228518,"Грохольский переулок","Moscow, Russia","facebook_places",596765103753062,55.777468079999998,37.643961470000001,"НИИ Скорой Помощи им. Н.В. Склифосовского-приёмный покой","НИИ Скорой Помощи им. Н.В. Склифосовского-приёмный покой"
"2019-02-22 20:50:11.001795+01",427313850,"","","facebook_places",156520997812135,43.559260018812999,41.278178098707002,"Архыз, Карачаево-Черкесская Республика","Архыз"
"2019-02-22 22:48:48.310578+01",304881340,"","","facebook_places",111169572236520,59.939999999999998,30.328611111099999,"Church of the Savior on Blood","Church of the Savior on Blood"
"2019-02-22 14:41:35.869446+01",237054085,"","","facebook_places",107384665950648,60.883299999999998,15.100000000000000,"Rättvik","Rättvik"
"2019-02-22 14:41:44.890231+01",371836806,"Schanzenstraße 40","Köln","facebook_places",1428878334064668,50.968940828533000,7.016670944126300,"Palladium Köln","Palladium Köln"
"2019-02-22 14:43:12.669666+01",1774966589419323,"Красная Поляна, Горки Город +960, ул.Горная, 5","","facebook_places",1774966589419323,43.669105556878002,40.259517431258999,"Ёлочка: apres ski","Ёлочка: apres ski"
"2019-02-22 14:43:16.272882+01",213478000,"","","facebook_places",262795710410553,43.684416141732001,40.262437717639998,"Горная Карусель","Горная Карусель"
"2019-02-22 14:43:19.543482+01",220583558,"","","facebook_places",112250055551472,55.721863273239997,37.136066152517003,"Горки","Горки"
"2019-02-22 20:50:38.741969+01",220208556,"Калининградская   обл   ,","","facebook_places",204062809695535,54.716171793332997,20.507367563332998,"Куршская Коса","Куршская Коса"
"2019-02-22 20:50:46.698349+01",872263,"ул. Канта, дом 1","Калининград, Калининградская область (Kaliningrad, Russia)","facebook_places",209400195748335,54.706429125056999,20.511399102632002,"Кафедральный собор","Кафедральный собор"
"2019-02-22 20:50:49.358434+01",214260606,"Россия, Калининградская область, Калининград, площадь Победы","Калининград, Калиниградская обл. (Kaliningrad, Russia)","facebook_places",271072192919848,54.718344930393002,20.501676243163999,"Площадь Победы г. Калининград","Площадь Победы г. Калининград"
"2019-02-25 10:15:54.13906+01",910090451,"","","facebook_places",1379868568944381,55.924444444443999,37.527888888889002,"Новодачная","Новодачная"
"2019-02-25 12:17:32.443928+01",824730981,"Milky Way Galaxy ","","facebook_places",317769168424184,26.287893412818999,50.211113723304997,"Planet Earth","Planet Earth"
"2019-02-22 20:51:20.443042+01",73055192,"Россия, Ленинградская область,Гатчинский район, поселок Рождественно","","facebook_places",163561790484953,55.571387384665996,38.097190500349001,"Яхт клуб ""ново-Рождественно""","Яхт клуб ""ново-Рождественно"""
"2019-02-22 14:50:55.159279+01",291524218022683,"Palandöken","","facebook_places",291524218022683,39.860237054000002,41.274423077999998,"Palandöken Kayak Merkezi","Palandöken Kayak Merkezi"
"2019-02-25 16:33:10.812741+01",228339195,"","","facebook_places",226138057405840,55.534799999999997,37.809399999999997,"Moscow Oblast","Moscow Oblast"
"2019-02-22 20:52:29.16562+01",213793221977277,"","","facebook_places",213793221977277,55.781230000000001,37.611324500000002,"1C Company","1C Company"
"2019-02-22 20:52:38.267531+01",24346591,"ул. Академика Королева 12","Москва","facebook_places",119599491449370,55.822047232936001,37.606296700144000,"Телецентр ""Останкино""","Телецентр ""Останкино"""
"2019-02-25 15:19:15.389287+01",116231,"","","facebook_places",111777152182368,52.377699999999997,4.900100000000000,"Amsterdam, Netherlands","Amsterdam"
"2019-02-22 20:52:58.192171+01",615635052,"Андропова просп., д.39","Москва (Moscow, Russia)","facebook_places",157182024349445,55.672388496288001,37.664263633478001,"Коломенское","Коломенское"
"2019-02-22 14:51:27.545477+01",1018517344,"Цюрих (Zürich, Switzerland)","","facebook_places",710075369125216,47.377079999999999,8.539560000000000,"Цюрих - Zürich, Switzerland","Цюрих - Zürich"
"2019-02-25 19:17:35.857175+01",527677659,"","","facebook_places",478931252189859,55.972561939999998,37.544972039999998,"Долгопрудный, Яхт-Клуб ""дельфин""","Долгопрудный"
"2019-02-22 14:53:18.252149+01",773297913,"Цветной Бульвар, дом 30, строение 1.","Москва","facebook_places",234769819935197,55.772265155277999,37.622991243968997,"Ресторан  ""Урюк"" на Цветном бульваре","Ресторан  ""Урюк"" на Цветном бульваре"
"2019-02-25 12:20:00.567635+01",1700436253601242,"","","facebook_places",1700436253601242,51.712437270000002,39.193484190000000,"ЖК Московский Квартал","ЖК Московский Квартал"
"2019-02-22 14:53:06.407109+01",271082789,"Damrak, 1","Amsterdam, Netherlands","facebook_places",256546661058756,52.377090000000003,4.897980000000000,"Брюгге, Бельгия","Брюгге"
"2019-02-22 20:54:03.098971+01",736061224,"","","facebook_places",148861528622410,46.517107320466003,6.629552652126100,"Lausanne, Switzerland","Lausanne"
"2019-02-22 20:54:14.45751+01",1970513,"","","facebook_places",310147842355551,56.267385784755000,37.522841539307002,"Агроусадьба ""Ранчо""","Агроусадьба ""Ранчо"""
"2019-02-22 20:55:35.099101+01",1034561007,"проспект Ракетостроителей / prospekt Raketostroiteley .","","facebook_places",198767257168311,55.934630023617998,37.505404966566999,"Г Долгопрудный, пр-т Ракетостроителей, д 9, к 3","Г Долгопрудный"
"2019-02-22 20:55:43.39896+01",575925901,"улица Гагарина","Zhukovskiy, Moskovskaya Oblast', Russia","facebook_places",1418226578439924,55.608319999999999,38.092689999999998,"Стадион Фалт Мфти","Стадион Фалт Мфти"
"2019-02-22 20:56:34.066015+01",213375661,"","Москва (Moscow, Russia)","facebook_places",157152641013481,55.702757718900998,37.782128299131003,"Волгоградский Проспект","Волгоградский Проспект"
"2019-02-25 10:18:47.751935+01",26622801,"","","facebook_places",174945219294351,55.804965772163001,37.618941047001002,"Роща","Роща"
"2019-02-25 19:30:01.886644+01",283193114,"","","facebook_places",112904088720747,55.929699999999997,37.513300000000001,"Dolgoprudnyy, Moskovskaya Oblast', Russia","Dolgoprudnyy"
"2019-02-22 14:58:44.313965+01",1150164228347935,"Avenida Carlos Condell 1687, local A-8","Quillota","facebook_places",1150164228347935,-32.896777004549001,-71.244192123413001,"Sportlife Quillota","Sportlife Quillota"
"2019-02-22 20:58:26.906742+01",13828311,"Московская область, г. Химки, микрорайон ИКЕА, корпус 2","","facebook_places",203789946306971,55.911016677341998,37.396614435167002,"МЕГА Химки","МЕГА Химки"
"2019-02-25 13:56:06.744256+01",456135482,"","","facebook_places",101354339973563,55.865277780000000,37.564999999999998,"Beskudnikovsky District","Beskudnikovsky District"
"2019-02-22 21:00:16.5173+01",1007938574,"Весковский переулок, дом 3","","facebook_places",1634471286801053,55.779029999999999,37.598469999999999,"Мэри Трюфель","Мэри Трюфель"
"2019-02-25 14:03:00.400215+01",945110627,"г. Долгопрудный, ул. Московская, д. 25","","facebook_places",1424034974570218,55.955341300000001,37.516849499999999,"ЖК «Московские Водники»","ЖК «Московские Водники»"
"2019-02-25 18:10:55.573377+01",217361074,"","","facebook_places",106544882716108,55.601111111111003,38.116111111111003,"Zhukovsky, Moscow Oblast","Zhukovsky"
"2019-02-25 10:51:34.720384+01",498022944,"Beregovaya str.","","facebook_places",449843881728748,55.915579193804000,37.491280775882998,"Поселок Набережный","Поселок Набережный"
"2019-02-22 22:01:20.214606+01",1017218609,"Институтский переулок, д. 9","","facebook_places",174374955951744,55.929444444444002,37.521388888889000,"Московский физико-технический институт","Московский физико-технический институт"
"2019-02-25 12:41:51.264633+01",500625802,"","","facebook_places",105588176141470,,,"Atlantic Ocean","Atlantic Ocean"
"2019-02-25 12:44:17.61519+01",217436233,"Авиамоторная, д. 40","Москва (Moscow, Russia)","facebook_places",323299454379172,55.741750000000003,37.720170000000003,"Дворец Борьбы Имени Ивана Ярыгина","Дворец Борьбы Имени Ивана Ярыгина"
"2019-02-22 15:04:53.924248+01",722623,"idrefjäll","Idre","facebook_places",47269459200,61.890270000000001,12.827520000000000,"Idre Fjäll","Idre Fjäll"
"2019-02-22 15:13:21.837564+01",710411735,"Сочи, А-355, Аэропорт","","facebook_places",1493735160899494,43.450000000000003,39.956666666666997,"Port lotniczy Soczi-Adler","Port lotniczy Soczi-Adler"
"2019-02-22 21:10:45.979365+01",850286,"","Sankt-peterburg","facebook_places",120942088076174,59.936131676810000,30.289058157176999,"Дворцовый мост","Дворцовый мост"
"2019-02-25 09:02:10.953226+01",52882,"3555 SW 8th St","Miami, FL","facebook_places",114215478609821,25.765076716020001,-80.252900655933999,"Versailles","Versailles"
"2019-02-22 21:11:39.326031+01",498480760,"","","facebook_places",665483146813115,55.955768730000003,37.485249910000000,"Котовский Залив","Котовский Залив"
"2019-02-22 22:00:01.22332+01",415586103,"Первомайская ул., 9/4","","facebook_places",705684572800805,55.931489999999997,37.520310000000002,"Теория Кухня & Бар","Теория Кухня & Бар"
"2019-02-23 10:59:40.719537+01",452484,"Route Cantonale","Lausanne, Switzerland","facebook_places",107201356009441,46.520360606654002,6.565839014608400,"Ecole polytechnique fédérale de Lausanne (EPFL)","Ecole polytechnique fédérale de Lausanne (EPFL)"
"2019-02-22 21:14:20.887226+01",827212684,"okeanias 8, Voroklini, Cyprus","Larnaka, Larnaca, Cyprus","facebook_places",189582121118889,34.970646316000000,33.670139370000001,"Chrystalo Tavern","Chrystalo Tavern"
"2019-02-23 01:33:37.773393+01",69836769,"","","facebook_places",357503710957496,55.934747417718000,37.495008191697998,"г. Долгопрудный","г. Долгопрудный"
"2019-02-25 13:55:22.67115+01",1022131151,"Khaleej Al Arabi Street","Abu Dhabi, United Arab Emirates","facebook_places",94211421397,24.419530074425001,54.437361889620000,"Abu Dhabi National Exhibitions Company - ADNEC","Abu Dhabi National Exhibitions Company - ADNEC"
"2019-02-22 15:21:06.732444+01",534134286778924,"","","facebook_places",534134286778924,55.740650000000002,37.609290000000001,"Deworkacy","Deworkacy"
"2019-02-22 21:15:46.028931+01",214328026,"","","facebook_places",102188499823036,34.674999999999997,33.033299999999997,"Limassol, Cyprus","Limassol"
"2019-02-22 21:16:24.284583+01",354060703,"","","facebook_places",109308772427967,51.508055555555998,-0.128055555555560,"Trafalgar Square","Trafalgar Square"
"2019-02-22 22:36:24.925643+01",1019059108,"","","facebook_places",440496742710037,55.929444444444002,37.521388888889000,"Moskauer Institut für Physik und Technologie","Moskauer Institut für Physik und Technologie"
"2019-02-22 23:19:39.331308+01",223991578,"","","facebook_places",225873794230846,55.934543176605999,37.518702149425998,"Первомайская Улица","Первомайская Улица"
"2019-02-25 12:21:43.412681+01",228474235,"","","facebook_places",106552496044096,44.501100000000001,38.135300000000001,"Divnomorskoye, Krasnodarskiy Kray, Russia","Divnomorskoye"
"2019-02-25 19:02:38.067861+01",291542095,"","","facebook_places",283777024981068,55.899999999999999,37.569722220000003,"Lianozovo District","Lianozovo District"
"2019-02-22 15:30:52.165958+01",491533012,"","","facebook_places",111194178903374,55.635800000000003,37.207200000000000,"Lesnoy Gorodok, Moskovskaya Oblast', Russia","Lesnoy Gorodok"
"2019-02-22 15:30:54.238632+01",1760345337586050,"Головинское шоссе, вл. 5","Москва","facebook_places",1760345337586050,55.839474899999999,37.490213900000000,"Travelers Coffee Msk","Travelers Coffee Msk"
"2019-02-22 21:29:45.074849+01",1023631789,"Нижняя Радищевская, дом 2","Москва","facebook_places",443393585863137,55.742910000000002,37.651580000000003,"Дом русского зарубежья им. А. Солженицына","Дом русского зарубежья им. А. Солженицына"
"2019-02-22 21:32:35.726778+01",217807774,"Khreshatyk","","facebook_places",187584314777449,50.450150364518997,30.523390564155001,"Київ, Майдан Незалежності","Київ"
"2019-02-22 22:01:22.245662+01",931364140,"","","facebook_places",124510304260863,55.655555560000003,37.532777780000004,"Russian Space Research Institute","Russian Space Research Institute"
"2019-02-22 21:33:17.988843+01",431440502,"вул. Богомольця, 4","Kyiv, Ukraine","facebook_places",460235707323705,50.440359731404001,30.530866384506002,"Bogomoletz Institute of Physiology","Bogomoletz Institute of Physiology"
"2019-02-25 14:02:24.288341+01",730501083764740,"Краснодарский край, Г.Сочи, Олимпийский Парк, Олимпийский пр., Д.1","Сочи","facebook_places",730501083764740,43.414063547018998,39.951088095037001,"Главный Медиацентр","Главный Медиацентр"
"2019-02-23 00:48:42.00818+01",511743068,"Московская область, город Долгопрудный, Московское шоссе, дом 23","","facebook_places",247129442031419,55.929699999999997,37.513300000000001,"МФТИ, кофейня 6ки","МФТИ"
"2019-02-25 19:30:21.048128+01",222146698,"Дмитровское шоссе, 163а","Москва","facebook_places",269053313163399,55.909422615566001,37.540669441223002,"ТРЦ РИО Дмитровское шоссе","ТРЦ РИО Дмитровское шоссе"
"2019-02-22 15:36:33.500132+01",457708209,"","","facebook_places",262284997225329,55.413480064700998,37.900067694815000,"Аэропорт DMD","Аэропорт DMD"
"2019-02-22 21:36:29.124999+01",137438429,"Suvorova 118","","facebook_places",171177166408707,54.515196058523003,36.259377786003000,"The Rocket Bar","The Rocket Bar"
"2019-02-25 19:33:47.049404+01",1433831,"9, Institutskiy pereulok","Dolgoprudnyy, Moskovskaya Oblast', Russia","facebook_places",543279849069606,55.927923147203003,37.523587946423000,"МФТИ","МФТИ"
"2019-02-25 18:41:03.574317+01",721185918,"Institutskiy pereulok, 9","Dolgoprudnyy, Moskovskaya Oblast', Russia","facebook_places",180384995335164,55.929953099999999,37.517542200000001,"БиоФармкластер ""Северный""","БиоФармкластер ""Северный"""
"2019-02-22 21:37:12.082911+01",418439546,"Алтуфьевское шоссе, 44","Москва","facebook_places",113828695467583,55.874797113400000,37.587215517700002,"Acronis","Acronis"
"2019-02-25 14:28:23.858843+01",5303045,"ул. А.Невского, 14","Kaliningrad, Kaliningrad","facebook_places",280694638609479,54.724159999999998,20.527390000000000,"БФУ им Канта","БФУ им Канта"
"2019-02-25 15:17:42.130275+01",213543870,"420014, Казань, Кремль, а/я 20.","","facebook_places",103748482996573,55.796759000000002,49.106997999999997,"Kazan Kremlin","Kazan Kremlin"
"2019-02-22 21:40:01.937104+01",152479,"Mont des arts","Brussels, Belgium","facebook_places",234918826526184,50.843844000807998,4.357514830557400,"Square-Brussels Convention Centre","Square-Brussels Convention Centre"
"2019-02-25 14:33:14.884494+01",1024464641,"Воздвиженка 4/7, стр. 1","Москва","facebook_places",132266776851476,55.752406226235998,37.609572808114002,"Республика*","Республика*"
"2019-02-22 15:51:29.600024+01",288142342,"Шелудьково","","facebook_places",247460208772547,55.943082830000002,37.490013159999997,"Шелудьково","Шелудьково"
"2019-02-22 21:41:59.318136+01",434136900,"Посёлок Акулово","","facebook_places",1459959814241417,56.309635231999998,36.746928285999999,"Акулово","Акулово"
"2019-02-22 21:54:36.110234+01",502512067,"Raushskaya naberezhnaya, 4","","facebook_places",418615341566503,55.748530000000002,37.627270000000003,"Развлекательный клуб ""Кабана""","Развлекательный клуб ""Кабана"""
"2019-02-22 21:54:09.618906+01",1009175069,"","Moscow, Russia","facebook_places",1441028956130904,56.135277777778000,37.929444444444002,"Софрино","Софрино"
"2019-02-22 21:54:11.066009+01",2013958,"Манежная пл. д.1","Москва","facebook_places",119386594876981,55.753500000000002,37.612340000000003,"Центральный Выставочный Зал ""Манеж""","Центральный Выставочный Зал ""Манеж"""
"2019-02-25 14:38:22.007178+01",243809257,"","","facebook_places",111631732194428,44.391644220117001,9.219207523704201,"Liguria, Italy","Liguria"
"2019-02-25 14:44:50.14848+01",528403942,"","","facebook_places",400718286655017,55.891284700659000,37.614281644555000,"Тверская","Тверская"
"2019-02-25 10:20:59.496764+01",490244047993782,"141032, Россия, Московская область,  Мытищи, д. Болтино, ул. Прибрежная стр. 2в/1","","facebook_places",490244047993782,55.973287899456999,37.681185007095003,"Gals Club Яхт Клуб Галс","Gals Club Яхт Клуб Галс"
"2019-02-22 16:00:46.184381+01",237769287,"","","facebook_places",114228911923990,53.687100000000001,23.846299999999999,"Grodno, Hrodzyenskaya Voblasts', Belarus","Grodno"
"2019-02-22 21:36:31.094458+01",213951333,"","","facebook_places",115456095134627,46.519799999999996,6.633500000000000,"Lausanne, Switzerland","Lausanne"
"2019-02-25 19:28:00.582283+01",993221280791473,"Новые Водники","","facebook_places",993221280791473,55.962332799999999,37.521264799999997,"Долгопрудный,новые Водники, Набережная","Долгопрудный"
"2019-02-22 21:58:24.768989+01",1020923,"","","facebook_places",112880612104742,48.899066464294997,2.278703434339300,"Pont de Levallois","Pont de Levallois"
"2019-02-25 15:07:38.816798+01",238784504,"","","facebook_places",106377962728145,41.631354069605003,2.715508006943900,"Santa Susana, Cataluna, Spain","Santa Susana"
"2019-02-25 15:09:10.320929+01",482586425091265,"","","facebook_places",482586425091265,44.235713356889001,8.432144563896699,"Spotorno,Liguria","Spotorno"
"2019-02-22 21:59:07.720344+01",18499410,"","Санкт-Петербург","facebook_places",342397922488842,59.934083326241002,30.306112575709001,"Исакиевский Собор","Исакиевский Собор"
"2019-02-25 12:21:36.542966+01",405229172,"Площадь Киевского вокзала, 2","Москва","facebook_places",120559918064093,55.744409921208003,37.566547393798999,"ТРЦ ""Европейский""","ТРЦ ""Европейский"""
"2019-02-22 16:08:30.720729+01",277078,"Altenberger Straße 69","Linz, Austria","facebook_places",124249630820,48.337318079690000,14.318857494263000,"JKU - Johannes Kepler Universität Linz","JKU - Johannes Kepler Universität Linz"
"2019-02-22 16:08:34.120257+01",272576249,"","","facebook_places",143740825638027,6.765833000000000,73.175832999999997,"Hanimaadhoo","Hanimaadhoo"
"2019-02-25 15:13:45.437537+01",213226563,"","","facebook_places",110761475615126,51.215699999999998,4.414100000000000,"Antwerp, Belgium","Antwerp"
"2019-02-22 16:10:12.600244+01",229419285,"Santa Pod Raceway, Airfield Road, Podington","Wellingborough, United Kingdom","facebook_places",12344898527,52.237860316975997,-0.597301729197240,"Santa Pod Raceway","Santa Pod Raceway"
"2019-02-22 22:00:37.056299+01",850992987,"","","facebook_places",214415515275097,66.266666666667007,33.033333333332998,"Chupa, Republic of Karelia","Chupa"
"2019-02-22 22:02:21.825881+01",1025071177,"","","facebook_places",452276101540954,55.929444444399998,37.520555555599998,"МФТИ","МФТИ"
"2019-02-22 22:04:01.477262+01",413332595,"","","facebook_places",399111216842266,51.774643923337997,39.237477383319998,"Г. Воронеж, Олимпик, Белая Гора","Г. Воронеж"
"2019-02-25 15:15:56.17876+01",236480600,"","","facebook_places",110519205641389,31.513100000000001,-9.769720000000000,"Mogadar, Essaouira, Morocco","Mogadar"
"2019-02-22 22:04:06.087555+01",510967385,"Невский проспект, 90","","facebook_places",182943181915394,59.932380000000002,30.352270000000001,"Avenida Nevski","Avenida Nevski"
"2019-02-25 15:19:12.051765+01",264913030,"Химки, Московская область, Клязма-Старбеево квартал, Ивакино2","Москва (Moscow, Russia)","facebook_places",300489456678064,55.952464421110001,37.468989041169998,"Олимпиец","Олимпиец"
"2019-02-22 16:14:31.268259+01",216042189,"","","facebook_places",132134670155936,47.795000000000002,13.047300000000000,"Hohensalzburg Castle","Hohensalzburg Castle"
"2019-02-25 16:01:35.543015+01",1032799549,"","","facebook_places",473129626214481,55.698584255531003,37.572551644533000,"ИМБ РАН","ИМБ РАН"
"2019-02-22 23:56:49.335492+01",5645704,"Domodedovsky District","","facebook_places",107248442645764,55.413324877298002,37.903892934391998,"Domodedovo International Airport","Domodedovo International Airport"
"2019-02-25 15:20:04.271659+01",341840552855711,"","","facebook_places",341840552855711,43.413719190016998,39.949763194997999,"Технопарк ""сириус"", Сочи","Технопарк ""сириус"""
"2019-02-22 22:07:38.068337+01",505979222,"","","facebook_places",403541159748450,55.584687148299999,37.545012943499998,"Ск Альфа-Битца","Ск Альфа-Битца"
"2019-02-25 15:22:32.006346+01",344261140,"","","facebook_places",106997382664054,46.081359900000002,1.690510000000000,"Aulon, Limousin, France","Aulon"
"2019-02-22 22:08:30.627623+01",213547428,"115035, Москва, ул. Пятницкая, 27, стр. 3а","Москва","facebook_places",135417799846720,55.741320000000002,37.628880000000002,"Джаз-кафе ""Esse""","Джаз-кафе ""Esse"""
"2019-02-22 22:08:37.015861+01",219846199,"Береговая улица","","facebook_places",367380163285210,47.213941707228002,39.715760151852997,"Ростов-на-Дону Набережная","Ростов-на-Дону Набережная"
"2019-02-25 15:25:24.311789+01",430863630,"","","facebook_places",101258866649978,55.865278000000004,37.536667000000001,"Zapadnoye Degunino District","Zapadnoye Degunino District"
"2019-02-25 19:31:04.687597+01",547615751,"","","facebook_places",380562118662280,55.929046617899999,37.522089779399998,"Физтех","Физтех"
"2019-02-22 16:18:46.068529+01",446576195,"QL1D, khu vực 2, Ghềnh Ráng, tp. Quy Nhơn, Bình Định, Vietnam","Qui Nhon, Bình Ðịnh, Vietnam","facebook_places",509788672432447,13.715913923246999,109.215238094330005,"ICISE Conference Center - Quy Nhon, Vietnam","ICISE Conference Center - Quy Nhon"
"2019-02-22 22:08:46.825223+01",222439929,"проспект Шолохова, 270/1","","facebook_places",181400135315096,47.256006299029998,39.807077597799001,"Аэропорт Ростов-Дон","Аэропорт Ростов-Дон"
"2019-02-22 20:31:29.165951+01",942389244,"Музей-заповедник «Коломенское», пр-т Андропова, 39","Moscow, Russia","facebook_places",334469982872,55.669316611855997,37.673940137092004,"Пикник «Афиши»","Пикник «Афиши»"
"2019-02-22 22:07:24.291679+01",424039480,"","","facebook_places",110726305614966,51.760800000000003,55.101199999999999,"Orenburg, Russia","Orenburg"
"2019-02-22 22:10:09.056183+01",645511853,"","","facebook_places",1623377151226857,61.783299999999997,34.333300000000001,"Онежское Озеро Республика Карелия","Онежское Озеро Республика Карелия"
"2019-02-25 15:35:03.277257+01",955165125,"Ленинские горы, д. 1, стр. 12","Москва","facebook_places",285563818229074,55.704039999999999,37.521310000000000,"Биологический факультет МГУ имени М.В.Ломоносова","Биологический факультет МГУ имени М.В.Ломоносова"
"2019-02-22 22:10:49.277365+01",213801732,"","Ростов-на-Дону, Ростовская обл.","facebook_places",283687761711907,47.226149900000003,39.734369999999998,"Don","Don"
"2019-02-25 15:31:33.131694+01",440417346,"","","facebook_places",259852750787052,52.373152272825003,4.523486997936400,"Северное Море","Северное Море"
"2019-02-22 16:21:59.283825+01",505661948,"","","facebook_places",505970442750952,56.333333333333002,29.366666666667001,"Pustoshka, Pustoshkinsky District, Pskov Oblast","Pustoshka"
"2019-02-22 22:13:02.197833+01",234838152,"","","facebook_places",113454362001611,45.351599999999998,36.476100000000002,"Kerch","Kerch"
"2019-02-22 23:32:20.871874+01",423604078,"","","facebook_places",113725058638318,56.299444444400002,43.983333333300003,"N. I. Lobachevsky State University of Nizhny Novgorod","N. I. Lobachevsky State University of Nizhny Novgorod"
"2019-02-24 17:48:43.10653+01",219244324,"","","facebook_places",111734845519864,56.316699999999997,44.000000000000000,"Nizhni Novgorod, Russia","Nizhni Novgorod"
"2019-02-25 19:27:54.728534+01",380745845593173,"Мясницкая 24/7 стр.3","","facebook_places",380745845593173,55.763100000000001,37.636569999999999,"Smart place ""Розетка и кофе""","Smart place ""Розетка и кофе"""
"2019-02-22 22:14:32.794786+01",244922158,"","","facebook_places",108362562528029,43.211880000000001,2.358230000000000,"Carcassonne, France","Carcassonne"
"2019-02-22 22:19:11.640302+01",519250363,"","","facebook_places",281702861897266,4.204286480000000,-74.643052119999993,"Estacion de Policia Melgar","Estacion de Policia Melgar"
"2019-02-25 16:26:53.740574+01",221040128,"","","facebook_places",109313105760124,55.662337477495001,37.667233577245000,"Kolomenskoye, Moskva, Russia","Kolomenskoye"
"2019-02-25 18:42:56.929243+01",266014386,"проспект Мира, 119","Москва","facebook_places",209997259022691,55.826290000000000,37.637650000000001,"ВДНХ","ВДНХ"
"2019-02-22 16:23:33.318538+01",952728060,"","","facebook_places",254478594713284,46.484722222221997,30.734999999999999,"Городской сад","Городской сад"
"2019-02-25 15:41:16.991982+01",602532680,"","","facebook_places",368495096522688,55.558333330000004,38.146388889999997,"MAKS Air Show","MAKS Air Show"
"2019-02-22 22:20:42.440408+01",930756,"ул. Новослободская, 20","Москва","facebook_places",212752645406583,55.781853705000003,37.598605046666996,"Якитория","Якитория"
"2019-02-25 15:41:15.558273+01",1006972811,"","","facebook_places",255701207938550,55.558333330000004,38.146388889999997,"MAKS","MAKS"
"2019-02-23 11:02:03.455385+01",470916762,"Сиреневый бульвар 2","","facebook_places",178383592212184,55.800254412660998,37.755671763000997,"Бассейн РГУФК","Бассейн РГУФК"
"2019-02-22 16:29:37.193971+01",344276028,"","","facebook_places",207921229258325,46.527658503639003,6.589998850181900,"A Lausane","A Lausane"
"2019-02-22 22:23:43.029471+01",223289896,"Жуковский, Фрунзе, д. 28","","facebook_places",118263641658740,55.598300000000002,38.119090000000000,"ДК Ленина, г. Жуковский","ДК Ленина"
"2019-02-25 16:06:47.075322+01",30861991,"Москва, Кремль","","facebook_places",112851458726255,55.751666666666999,37.617777777778002,"Moscow Kremlin","Moscow Kremlin"
"2019-02-25 19:31:03.015902+01",17326249,"","","facebook_places",115085015172389,55.752200000000002,37.615600000000001,"Moscow, Russia","Moscow"
"2019-02-22 16:30:19.822387+01",249707717,"","","facebook_places",329086650529479,13.266986246000000,99.936181538000000,"Bang Taboon Bay, Petchaburi","Bang Taboon Bay"
"2019-02-23 00:13:02.077833+01",330912644,"","","facebook_places",163778150346428,55.606591285461000,38.093612008409998,"Жуковский - Наукоград","Жуковский - Наукоград"
"2019-02-22 22:31:02.184883+01",6219282,"Вязовая улица, 10","","facebook_places",459734014067348,59.967300000000002,30.274380000000001,"Академия Волейбола Платонова","Академия Волейбола Платонова"
"2019-02-22 22:31:07.715734+01",10851528,"33, Ligovsky Prospect","Санкт-Петербург","facebook_places",192742489386,59.932870000000001,30.361529999999998,"Graffiti L Hostel","Graffiti L Hostel"
"2019-02-22 22:31:10.049239+01",2234764,"м/р-н ИКЕА, корп.1","Москва","facebook_places",175733865807321,55.910674722799001,37.399774212186003,"IKEA Химки","IKEA Химки"
"2019-02-22 16:33:29.453436+01",220692685,"ул. Ильинка, 6/1, c.1","Москва","facebook_places",306958599443370,55.754469999999998,37.625019999999999,"Торгово-промышленная палата Российской Федерации","Торгово-промышленная палата Российской Федерации"
"2019-02-22 16:35:43.459296+01",476285388,"","","facebook_places",842548875771244,54.696411806313002,20.508701151322001,"Центр Развития Одаренных детей","Центр Развития Одаренных детей"
"2019-02-22 22:33:21.252926+01",712604471,"","","facebook_places",109924649096911,55.896386919999998,37.555401699999997,"Электричка","Электричка"
"2019-02-25 17:31:51.212716+01",421539619,"","","facebook_places",393433074077813,55.796728000000002,37.537421000000002,"Mail.Ru","Mail.Ru"
"2019-02-23 00:51:32.69357+01",513430973,"Институтский переулок, 9","","facebook_places",303793753161415,55.929933509999998,37.516743550000001,"МФТИ","МФТИ"
"2019-02-22 16:36:14.198655+01",219192758,"M12 & Jacko Jackson Dr","","facebook_places",137156826308236,-29.824999999999999,31.029722000000000,"Kings Park Stadium","Kings Park Stadium"
"2019-02-25 18:10:48.862222+01",15871298,"MOSKOVSKOYE SHOSSE","","facebook_places",307896789342811,55.928160566888998,37.525069210712999,"Стадион МФТИ","Стадион МФТИ"
"2019-02-22 22:36:20.421595+01",621512196,"Ленинградский проспект 47, строение 19","Москва","facebook_places",275476365909517,55.799399999999999,37.532620000000001,"Клуб Москва","Клуб Москва"
"2019-02-25 09:03:41.509963+01",54088,"Новоясеневский проспект, 30","Москва (Moscow, Russia)","facebook_places",252710728102099,55.604590000000002,37.536679900000003,"Дворец спорта Содружество","Дворец спорта Содружество"
"2019-02-25 16:13:12.339166+01",448073020,"Ленинский, 53, Москва","","facebook_places",262002353890421,55.697650000000003,37.565680000000000,"Фиан","Фиан"
"2019-02-22 22:39:13.502689+01",1020590752,"Lesnaya str, 5","","facebook_places",1661527494106085,55.778249072000001,37.586990069000002,"Aim Tech, Moscow","Aim Tech"
"2019-02-25 16:14:34.413496+01",3454334,"Инновационный центр Сколково, улица Нобеля, 1","Москва","facebook_places",165762016786222,55.750639999999997,37.653269999999999,"РВК","РВК"
"2019-02-25 10:36:55.940218+01",4591855,"4, Sirenevyi bul'var","Москва","facebook_places",159658157408500,55.801711737689999,37.759698942467999,"РГУФКСМиТ","РГУФКСМиТ"
"2019-02-25 16:20:08.477489+01",840777314,"","Moscow, Russia","facebook_places",349600615117530,55.671417982808002,37.676260704973998,"Geek Picnic","Geek Picnic"
"2019-02-22 12:13:49.569728+01",11230151," Краснопресненская наб., 12","Москва","facebook_places",218777668144336,55.755246666985997,37.557300682036001,"WTC Moscow Congress Center | Конгресс-центр ЦМТ","WTC Moscow Congress Center | Конгресс-центр ЦМТ"
"2019-02-22 22:42:32.603185+01",5328683,"","","facebook_places",285922234835962,55.947068159303001,37.500194428645003,"IronFitness","IronFitness"
"2019-02-22 16:48:08.490538+01",910508163,"Дерибасовская","","facebook_places",1450157311974482,46.484933354216999,30.734349083954001,"Одесса, Горсад","Одесса"
"2019-02-22 22:47:35.585158+01",218798123,"","","facebook_places",110849685631883,59.951943999999998,30.286389000000000,"Petrovsky Stadium","Petrovsky Stadium"
"2019-02-25 18:07:15.887313+01",213198597,"Улица Казакова, 8","Москва","facebook_places",429408420440561,55.762329999999999,37.662059999999997,"Гоголь-Центр / Gogol-Center","Гоголь-Центр / Gogol-Center"
"2019-02-22 22:53:13.474078+01",578543945,"мкр. Планерная вл.1 (ОУСЦ)","","facebook_places",385645898248316,55.881143001630001,37.419311187222000,"ОУСЦ Планерное","ОУСЦ Планерное"
"2019-02-25 16:38:05.186726+01",498495976,"","Moscow, Russia","facebook_places",297742177057857,55.409206753345998,37.009542876718001,"Белоусово","Белоусово"
"2019-02-25 18:12:00.7227+01",581093637,"Akademika Lavrent'yeva Ulitsa","","facebook_places",387240054777733,55.945117035088003,37.502104975282997,"Центральный Парк Город Долгопрудный","Центральный Парк Город Долгопрудный"
"2019-02-25 08:49:41.66771+01",915485625313833,"Климентовский пер., 1, стр. 18","","facebook_places",915485625313833,55.740852703607999,37.631510404281997,"МФТИ в Климентовском","МФТИ в Климентовском"
"2019-02-19 12:54:36.831141+01",2176335316027058,"Ярцевская улица, 19","","facebook_places",2176335316027058,55.738370000000003,37.410789999999999,"Ресторан Находка","Ресторан Находка"
"2019-02-24 14:04:26.887626+01",587682074630979,"Дмитровское шоссе 9","Москва","facebook_places",587682074630979,55.815420000000003,37.575449900000002,"БУХ.1С","БУХ.1С"
"2019-02-25 19:30:05.125366+01",475839896253823,"Московское ш., 21, корп. 1","","facebook_places",475839896253823,55.928893668305001,37.523665157021000,"Бассейн МФТИ","Бассейн МФТИ"
"2019-02-19 12:55:08.918567+01",1976735872566322,"Les Orres","","facebook_places",1976735872566322,44.484223756745003,6.553492610245900,"Les Orres 1850","Les Orres 1850"
"2019-02-19 12:55:09.164214+01",223545914,"","","facebook_places",107656735924502,44.513350000000003,6.548080000000000,"Les Orres","Les Orres"
"2019-02-25 08:51:43.63306+01",214338534,"Korablestroiteley str.,14","St. Petersburg, Khabarovsk, RU","facebook_places",338952602103,59.938946272924000,30.214830662265001,"Park Inn by Radisson Pribaltiyskaya Hotel & Congress Center","Park Inn by Radisson Pribaltiyskaya Hotel & Congress Center"
"2019-02-22 23:10:58.931988+01",333032,"161 Maude Street","Sandton, South Africa","facebook_places",182938755168686,-26.106003718632000,28.053548839365000,"Sandton Convention Centre","Sandton Convention Centre"
"2019-02-22 11:50:18.671395+01",228375409,"Степаново","","facebook_places",214680158608552,56.254882040516002,37.437574202467999,"Ski Resort ""Stepanovo""","Ski Resort ""Stepanovo"""
"2019-02-22 13:51:53.625143+01",509310178,"","","facebook_places",1432748673627586,55.777000000000001,37.789000000000002,"Измайловский парк","Измайловский парк"
"2019-02-25 19:24:32.388754+01",1027433771,"Институтский переулок, д. 9.","Dolgoprudnyy, Moskovskaya Oblast', Russia","facebook_places",295249057306132,55.930558599999998,37.517139499999999,"Moscow Institute of Physics and Technology - MIPT","Moscow Institute of Physics and Technology - MIPT"
"2019-02-22 11:50:16.944186+01",2248508115425202,"","Saint Petersburg, Russia","facebook_places",2248508115425202,59.955903148331998,30.432809543840001,"Biblioteka","Biblioteka"
"2019-02-22 23:08:49.980073+01",571526212,"","","facebook_places",673405236033125,55.928940740000002,37.521836309999998,"Фупм, Мфти","Фупм"
"2019-02-22 16:54:12.970904+01",280896648,"4008 220th St W","Farmington, MN","facebook_places",149806580626,44.627730636640003,-93.145035829215004,"Dakota County Fair","Dakota County Fair"
"2019-02-22 16:55:18.451649+01",87520111,"Avenida Errazuriz 885","","facebook_places",529115583810469,-33.038976759577999,-71.626226406365006,"Sportlife Valparaiso","Sportlife Valparaiso"
"2019-02-22 23:11:00.865494+01",799124676,"O.R. Tambo Airport Road","","facebook_places",289159161164466,-26.024907063499999,28.010316433000000,"Johannesburg Airport","Johannesburg Airport"
"2019-02-22 23:11:03.019852+01",251042283,"","","facebook_places",273235902765007,25.242022668000001,55.373577140000002,"Dubai International Airport - Terminal 3 (Emirates Airline)","Dubai International Airport - Terminal 3 (Emirates Airline)"
"2019-02-25 12:18:42.357872+01",942958768,"","Moscow, Russia","facebook_places",321810880576,55.733980000000002,37.588290000000001,"Яндекс","Яндекс"
"2019-02-22 23:13:42.345813+01",1017146905,"","","facebook_places",167433496652373,35.473206159999997,-97.517134810000002,"MIPT","MIPT"
"2019-02-25 16:51:59.096195+01",264225383,"Химки Левобережный","","facebook_places",273305619448777,55.900121400000003,37.478363999999999,"Левобережная Химки","Левобережная Химки"
"2019-02-22 23:18:40.792943+01",333253813,"Republica Moldova","Chisinau, Moldova","facebook_places",293775674118003,47.018826199468002,28.838488502501999,"Republica Moldova","Republica Moldova"
"2019-02-25 16:55:01.120409+01",512466437,"","","facebook_places",198711660281708,55.846768316168003,37.468866149858002,"Red Square,  Kremlin","Red Square"
"2019-02-22 17:04:05.951148+01",923348853,"Языковая студия Welcome, просп. Пацаева, 7, корп. 10, оф. 302","","facebook_places",1090978300930062,55.947073154976003,37.500436305999997,"I Love Supersport Долгопрудный","I Love Supersport Долгопрудный"
"2019-02-22 17:04:06.295136+01",4489001,"","","facebook_places",181841645200441,55.182614945113997,20.859413865625001,"Танцующий Лес","Танцующий Лес"
"2019-02-22 17:04:07.535031+01",140430942764176,"","","facebook_places",140430942764176,60.187252333300002,25.169003433299999,"The Baltic Sea","The Baltic Sea"
"2019-02-22 17:06:10.373464+01",1865805017003662,"Покровка, 17, стр.1","","facebook_places",1865805017003662,55.759794531981001,37.645211219788003,"Hygge кофейня ""Розетка и кофе""","Hygge кофейня ""Розетка и кофе"""
"2019-02-22 23:23:20.84704+01",215189779,"Парк Дракино ","Drakino, Moskovskaya Oblast', Russia","facebook_places",221683541183439,54.874305658411998,37.276382225669998,"Парк-отель ""Дракино""","Парк-отель ""Дракино"""
"2019-02-22 23:26:37.868429+01",842556295,"Европы площадь, 2","","facebook_places",435905889924829,55.741660000000003,37.567000000000000,"Москва, Рэдиссон Славянская, гостиница","Москва"
"2019-02-25 16:59:38.666022+01",213178526,"улица Володарского","","facebook_places",313642288724079,54.960261408999998,20.470838793900000,"Променад Зеленоградска","Променад Зеленоградска"
"2019-02-25 16:59:47.867554+01",531862383618258,"ул. Канта, 1","","facebook_places",531862383618258,54.706389000000002,20.511666999999999,"Кёнигсбергский собор","Кёнигсбергский собор"
"2019-02-22 17:08:02.592944+01",404781242,"ул. Ивана Франко","","facebook_places",742612559129688,45.184187320000000,33.336640279999998,"Евпатория, Пансионат Озеро Сновидений","Евпатория"
"2019-02-22 23:32:23.090969+01",412056565,"","","facebook_places",124870070921405,44.983333333333000,37.266666666667000,"Vityazevo, Krasnodar Krai","Vityazevo"
"2019-02-25 17:05:05.828748+01",1015484212,"Староконюшенный переулок, 32","","facebook_places",1476261769365824,55.749620000000000,37.595340000000000,"Omelchenko Gallery","Omelchenko Gallery"
"2019-02-25 18:38:33.221009+01",229311506,"","","facebook_places",111235688896478,45.203600000000002,33.361400000000003,"Yevpatoriya","Yevpatoriya"
"2019-02-22 11:55:46.981027+01",214109840,"","","facebook_places",104003472970388,39.904100000000000,-105.778999999999996,"Winter Park, Colorado","Winter Park"
"2019-02-22 23:32:56.638344+01",498585115,"","","facebook_places",280758032035277,44.906092719199997,37.989012664199997,"Город Крымск","Город Крымск"
"2019-02-22 23:33:01.524519+01",547691273,"Коммунистическая улица","Krymsk","facebook_places",667060349998017,44.936380000000000,37.980570000000000,"Гигант","Гигант"
"2019-02-22 23:33:03.745281+01",229682501,"","","facebook_places",1394275117451291,44.934384999999999,37.964503999999998,"Футбольный центр Гигант","Футбольный центр Гигант"
"2019-02-25 17:11:20.796093+01",774881305,"","","facebook_places",329960700431826,55.942238742366001,37.489294419697998,"Dolgoprudniy","Dolgoprudniy"
"2019-02-22 17:11:16.364935+01",301186383,"Lago Maggiore","Stresa","facebook_places",765113113529073,45.884422054780998,8.541247844696001,"Lago Maggiore","Lago Maggiore"
"2019-02-22 23:35:26.546177+01",578323022,"","","facebook_places",388414431223927,45.019942800000003,39.001446000000001,"Аэропорт","Аэропорт"
"2019-02-25 14:28:25.366921+01",407667929,"","","facebook_places",166077653437913,43.029166666667002,131.891944444440014,"Far Eastern Federal University","Far Eastern Federal University"
"2019-02-22 17:14:19.881687+01",8832515,"Rua Pêro Alenquer 555","","facebook_places",176509415721756,40.961217691359998,-8.651840686798099,"Surfivor Surf Camp","Surfivor Surf Camp"
"2019-02-22 23:36:19.983115+01",356521893,"","","facebook_places",363726070437458,44.936336218944000,37.964018586441000,"Стадион Гигант","Стадион Гигант"
"2019-02-25 19:29:10.188875+01",258961008,"Проспект Вернадского 82-84","Москва","facebook_places",362252433862064,55.667310000000000,37.478549999999998,"Президентская академия - РАНХиГС","Президентская академия - РАНХиГС"
"2019-02-22 11:58:50.10849+01",235279532,"","","facebook_places",106041646094495,30.521400000000000,-97.827900000000000,"Cedar Park, Texas","Cedar Park"
"2019-02-22 17:14:28.745642+01",96368915,"ул. Крымский вал, д. 2, Парк искусств ""Музеон""","MOSKVA","facebook_places",477349622356451,55.732598000000003,37.604768000000000,"Electra Музеон","Electra Музеон"
"2019-02-22 17:14:29.04066+01",347390033,"","","facebook_places",1121793931269533,40.946842300000000,-8.652537199999999,"Esmoriz, Praia Velha","Esmoriz"
"2019-02-22 23:40:16.092616+01",214564194,"ул. Косыгина, д. 15","Москва","facebook_places",144781755578777,55.705595408184998,37.564272880554000,"Korston Club Hotel","Korston Club Hotel"
"2019-02-22 17:16:31.286996+01",237895701,"","Sintra (Sintra, Portugal)","facebook_places",249360145176825,38.775204041008998,-9.339388715463100,"Cabo Da Roca, Lisboa","Cabo Da Roca"
"2019-02-22 17:16:37.298484+01",306430365,"Rua do Ataíde 26A","Lisboa, Portugal","facebook_places",143322459052613,38.708889999999997,-9.144650000000000,"Lisbon Old Town Hostel","Lisbon Old Town Hostel"
"2019-02-22 23:42:37.958684+01",505921342,"","","facebook_places",297016657002483,55.890594329999999,37.436331760000002,"Библиоглобус на Мясницкой","Библиоглобус на Мясницкой"
"2019-02-22 23:49:40.653602+01",1003153186,"","","facebook_places",522853104493693,44.500833333332999,38.135277777778000,"Дивноморское","Дивноморское"
"2019-02-25 19:26:38.551896+01",1022297882,"проспект Ракетостроителей, д. 4","Dolgoprudnyy, Moskovskaya Oblast', Russia","facebook_places",508711392637308,55.934827520939002,37.511658668518002,"Стадион Салют","Стадион Салют"
"2019-02-23 00:03:09.622105+01",40978794,"","","facebook_places",239159832794593,44.559452554045002,38.079462723702001,"Радуга","Радуга"
"2019-02-25 17:28:48.103145+01",762020059,"9, Institutskiy pereulok","Dolgoprudnyy, Moskovskaya Oblast', Russia","facebook_places",1603282666573978,55.929970842053997,37.517575641790003,"Alumni_mipt","Alumni_mipt"
"2019-02-22 17:20:37.229755+01",2058282,"Yeşilköy, Bakırköy","Yesilkoy, Istanbul, Turkey","facebook_places",124384564330376,40.978829993387997,28.818751058775000,"Istanbul Ataturk Airport - IST","Istanbul Ataturk Airport - IST"
"2019-02-22 23:53:45.045319+01",654102128,"","","facebook_places",271382016211952,44.502547079999999,38.127195290000003,"Дивноморск","Дивноморск"
"2019-02-25 17:38:05.888158+01",221165772,"","MOSKVA","facebook_places",388334827950604,55.752645000000001,37.572651000000000,"Москва - река","Москва - река"
"2019-02-22 23:55:01.652083+01",118778233,"Tverskaya","Moskva","facebook_places",228142907340045,55.764131399999997,37.606714799999999,"Beverly Hills Diner","Beverly Hills Diner"
"2019-02-22 23:55:08.169142+01",3167008,"ул.Садовая-Кудринская, д. 5, стр. 1","","facebook_places",114137905331523,55.761240000000001,37.583570000000002,"Московский Планетарий","Московский Планетарий"
"2019-02-25 17:38:06.993075+01",270006970,"Moscow","Moscow, Russia","facebook_places",667446356652876,55.575344285000000,37.137802790000002,"Храм Христа Спасителя","Храм Христа Спасителя"
"2019-02-25 17:38:08.60193+01",539107042,"","","facebook_places",321347774623997,55.679563810795997,37.532987948124003,"Цветной Бульвар","Цветной Бульвар"
"2019-02-25 19:33:30.793746+01",238745726798014,"Первомайская ул., 18","","facebook_places",238745726798014,55.924661158588002,37.524399392855997,"IQ Cafe","IQ Cafe"
"2019-02-22 12:02:01.209971+01",100133709,"2100 Avenue of the Stars","Cedar Park, TX","facebook_places",95897541373,30.541433993639998,-97.820381213397994,"H-E-B Center at Cedar Park","H-E-B Center at Cedar Park"
"2019-02-25 17:36:46.256737+01",1026759580,"Leninsky prospect, 31 k.4","","facebook_places",183327955358034,55.712730000000000,37.589579999999998,"ИФХЭ РАН","ИФХЭ РАН"
"2019-02-22 23:56:53.564254+01",213689720,"Московская обл., Подольский район, п. Дубровицы","","facebook_places",413783591989150,55.441410283332999,37.495721833333000,"Усадьба Дубровицы","Усадьба Дубровицы"
"2019-02-25 18:04:59.29152+01",1109500,"ул. Тверская, 18, стр. 1","","facebook_places",163669817021025,55.766178099999998,37.604209900000001,"Lookin Rooms","Lookin Rooms"
"2019-02-22 18:37:08.738593+01",286160504,"Россия, Москва, Ленинский проспект","","facebook_places",125535767589317,55.716528661700004,37.593817616000003,"Ленинский Проспект. Москва.","Ленинский Проспект. Москва."
"2019-02-22 17:28:44.585695+01",218557267,"Slalomvägen","Tärnaby, Sweden","facebook_places",142888815767170,65.714857950237004,15.287646026853000,"Ingemarbacken","Ingemarbacken"
"2019-02-25 18:08:56.499289+01",2001805,"","Dolgoprudnyy, Moskovskaya Oblast', Russia","facebook_places",141387869265123,55.939043737844003,37.515762421246997,"Долгопрудный","Долгопрудный"
"2019-02-25 17:49:12.174084+01",613445346,"Ленинградский просп., 24а","Москва","facebook_places",215952281764860,55.783239999999999,37.574289999999998,"Спортивный комплекс ""Крылья Советов""","Спортивный комплекс ""Крылья Советов"""
"2019-02-22 23:58:14.72447+01",409214835,"Россия, Крым","","facebook_places",195894047142985,44.406390421399003,34.006072806215997,"Симеиз, Крым","Симеиз"
"2019-02-22 17:36:12.666794+01",8435586,"Boulevard Croisette  ","Cannes, France","facebook_places",8338917291,43.551031050772998,7.017953711638100,"Palais des Festivals, Cannes","Palais des Festivals"
"2019-02-23 00:01:16.113666+01",217152856,"Центральный парк культуры и отдыха имени Горького Москва, Россия","Москва (Moscow, Russia)","facebook_places",304225972991431,55.732684321215999,37.442276637375002,"Парк им.Горького","Парк им.Горького"
"2019-02-25 12:05:45.129523+01",359545221,"","","facebook_places",107881505913202,55.755833333333001,37.617777777778002,"Moscow","Moscow"
"2019-02-22 17:37:34.589157+01",498067145,"м. Новокузнецкая, ул. Садовническая, д.33, стр.1","","facebook_places",127561760600500,55.745570000000001,37.637560000000001,"МГУДТ","МГУДТ"
"2019-02-25 12:37:58.872311+01",224645797,"Москва, ул. Воздвиженка, д.4/7, стр.1","Москва","facebook_places",263454913767876,55.752622242389002,37.610127925873002,"Московская Биржа","Московская Биржа"
"2019-02-22 17:39:23.584856+01",238229216538313,"","","facebook_places",238229216538313,13.892647292800000,100.561356939299998,"V24 แจ้งวัฒนะ","V24 แจ้งวัฒนะ"
"2019-02-23 00:04:48.257833+01",214586868,"Тверская-Ямская 1-я ул., 7","Москва","facebook_places",204575159565067,55.771630000000002,37.592680000000001,"Чайхона #1 на Тверской","Чайхона #1 на Тверской"
"2019-02-23 00:06:03.595154+01",20198,"Москва, ул. Льва Толстого, 16","","facebook_places",120459268003228,55.734040352122001,37.588380959652000,"Яндекс","Яндекс"
"2019-02-23 00:06:41.250219+01",1903535,"","","facebook_places",400822333294346,55.976216278730000,37.827560704471999,"Клязьма","Клязьма"
"2019-02-25 18:25:53.073876+01",1596395427339615,"","","facebook_places",1596395427339615,55.801384740000003,49.111631010000004,"Дом Земледельцев, Kazan","Дом Земледельцев"
"2019-02-22 18:19:42.452499+01",213570796,"Чебоксары","","facebook_places",365474653523123,56.144683758158003,47.232670489546997,"Залив, Чебоксары","Залив"
"2019-02-23 00:08:47.78342+01",531988050,"м. Авиамоторная, 2-й Кабельный пр., д. 1","Москва","facebook_places",543164285704163,55.747950000000003,37.716279999999998,"Дайв-клуб ""Альтернатива""","Дайв-клуб ""Альтернатива"""
"2019-02-23 00:08:55.92152+01",611601775,"","","facebook_places",237005209739845,55.698982680063999,37.578376000086003,"Институт Системного Анализа РАН","Институт Системного Анализа РАН"
"2019-02-23 00:08:59.41789+01",502913422,"","","facebook_places",386030718136786,55.674600349999999,37.567178839999997,"ЦЭМИ","ЦЭМИ"
"2019-02-25 18:31:50.431075+01",840059203,"ул. Молодогвардейская, д.54, стр.5","Москва","facebook_places",363316053866412,55.734873737941001,37.395761434027001,"Картинг-клуб ""Le Mans""","Картинг-клуб ""Le Mans"""
"2019-02-23 00:11:52.690929+01",40690797,"ПКиО Сокольники","","facebook_places",109284542499372,55.794759447790000,37.676031190406000,"Парк «Сокольники»","Парк «Сокольники»"
"2019-02-25 19:33:55.233057+01",1048038281934601,"Первомайская 18","","facebook_places",1048038281934601,55.924860000000002,37.524760000000001,"IQ Cafe","IQ Cafe"
"2019-02-23 00:12:49.643754+01",277809860,"","","facebook_places",103601583057071,55.866184231497002,37.570421602259003,"Дегунино","Дегунино"
"2019-02-22 17:50:01.714064+01",747306063,"","","facebook_places",447331741955065,55.950427566667003,38.061362500000001,"Черноголовка","Черноголовка"
"2019-02-22 12:12:13.622046+01",2234195503459457,"шмитовский проезд","","facebook_places",2234195503459457,55.756973180103003,37.551894676577000,"playground","playground"
"2019-02-23 00:16:43.809164+01",511619895,"","MOSKVA","facebook_places",300457650094813,55.724672949999999,37.642051680000002,"Рэкс Экспресс","Рэкс Экспресс"
"2019-02-25 10:25:27.419703+01",405172970,"ЮЗАО","","facebook_places",176189655792044,55.658099999999998,37.581099999999999,"Zyuzino District","Zyuzino District"
"2019-02-25 18:40:58.483765+01",224253539,"","","facebook_places",108162242541886,43.481388888889001,40.541388888889003,"Lake Ritsa","Lake Ritsa"
"2019-02-22 17:56:43.141277+01",219992009,"Краснодарский край","","facebook_places",257949550991207,55.742080776070999,37.599184210578997,"Сочи","Сочи"
"2019-02-23 00:17:07.278928+01",5999045,"Москва, ул. Маршала Катукова, 26","","facebook_places",242322772480673,55.801330000000000,37.414119900000003,"Стадион Янтарь","Стадион Янтарь"
"2019-02-23 00:18:46.161514+01",5382086,"Россия, Московская область, Савёловское направление, платформа Водники","","facebook_places",101454233272045,55.951119951010000,37.515750450231003,"Станция ""Водники""","Станция ""Водники"""
"2019-02-25 18:46:42.870152+01",570597835,"","Miass","facebook_places",1443546892556697,55.760433569999996,37.662401459999998,"Сабвэй","Сабвэй"
"2019-02-22 17:59:12.680981+01",282018480,"","","facebook_places",417934431590768,55.870134246870002,37.411487786442997,"Moscow City","Moscow City"
"2019-02-23 00:19:43.211081+01",219236216,"ул. Большая Якиманка, 24","Москва","facebook_places",214307235250904,55.737451439521998,37.612929096327001,"Президент отель","Президент отель"
"2019-02-23 00:53:13.465057+01",414127214,"","","facebook_places",226133164239188,55.933823869047004,37.509259801744001,"Стадион Салют","Стадион Салют"
"2019-02-25 15:07:08.712013+01",11616446006,"125167, г. Москва, Ленинградский проспект д.39, строение 79, БЦ «SkyLight».","Москва","facebook_places",11616446006,55.796959999999999,37.537820000000004,"Mail.ru Group","Mail.ru Group"
"2019-02-22 17:59:27.451804+01",283908995,"","Moskva","facebook_places",227138484137226,55.839259823440997,37.530477087149997,"Михалковская Улица","Михалковская Улица"
"2019-02-22 17:59:32.88181+01",320363,"Carrer de Garriga i Roca, 1","Barcelona, Catalonia","facebook_places",126674597401564,41.419490000000003,2.171070000000000,"Parc del Guinardó","Parc del Guinardó"
"2019-02-22 20:23:16.929118+01",704007969,"Потаповский переулок дом 5, строение 2","Москва","facebook_places",339364189593184,55.761679999999998,37.640580000000000,"Union Jack Pub Potapovsky","Union Jack Pub Potapovsky"
"2019-02-23 00:21:16.665572+01",757794833,"","Dolgoprudyy, Moskovskaya Oblast', Russia","facebook_places",268888923293113,55.930570000000003,37.514899999999997,"Долгопрудненское Научно-Производственное Предприятие","Долгопрудненское Научно-Производственное Предприятие"
"2019-02-22 18:00:34.317844+01",260146640,"","","facebook_places",387989391230964,41.419273069649002,2.161792734662400,"Bunkers - Barcelona","Bunkers - Barcelona"
"2019-02-23 00:22:11.961471+01",498540906,"","","facebook_places",344759328932185,55.778202091663999,37.597297911411999,"Парк Победы","Парк Победы"
"2019-02-22 18:01:21.200811+01",44135,"Carrer de Jordi Girona, 1 08034 Barcelona","","facebook_places",175818925849410,41.388040072667003,2.113144289242200,"UPC Campus Nord","UPC Campus Nord"
"2019-02-23 00:27:53.295918+01",471685135,"Большая Покровская улица","Nizhni Novgorod, Russia","facebook_places",559886790791446,56.317790000000002,43.995600000000003,"New York","New York"
"2019-02-23 01:33:38.212049+01",213532912,"ул. Егорова, 1","г. Сочи, Краснодарский край","facebook_places",100864636667921,43.590523795727996,39.715834628350002,"Парк ""Ривьера"" Сочи","Парк ""Ривьера"" Сочи"
"2019-02-23 00:35:44.215688+01",679959890,"","Dolgoprudyy, Moskovskaya Oblast', Russia","facebook_places",629937137097229,55.927579999999999,37.524090000000001,"Стадион Мфти","Стадион Мфти"
"2019-02-22 23:25:53.7341+01",1002402213,"","","facebook_places",121287021250071,55.464596000000000,37.297538000000003,"Institute for Spectroscopy Russian Academy of Sciences","Institute for Spectroscopy Russian Academy of Sciences"
"2019-02-22 19:00:13.529581+01",269344900,"Кировоградская улица","","facebook_places",193215670752063,55.611623647000002,37.591406304899998,"Chertanovo Tsentralnoye District","Chertanovo Tsentralnoye District"
"2019-02-23 00:30:38.60869+01",219817703,"","Petrodvorets, Sankt-Peterburg, Russia","facebook_places",422743841082963,59.886677952924003,29.910162870046001,"Петергоф, Фонтаны","Петергоф"
"2019-02-25 19:30:13.540078+01",406553821,"","","facebook_places",190960597705588,55.794166666667003,37.588055555555996,"Moscow Savyolovskaya railway station","Moscow Savyolovskaya railway station"
"2019-02-25 09:05:21.146832+01",214179276,"","","facebook_places",107677462599905,53.899999999999999,27.566700000000001,"Minsk, Belarus","Minsk"
"2019-02-22 14:14:27.952857+01",1257749,"улица Металлургов","Москва","facebook_places",216225141729632,55.758055697944997,37.821176138250003,"Терлецкий лесопарк","Терлецкий лесопарк"
"2019-02-25 19:19:06.384907+01",29390523,"Москва, ул. Лодочная, дом 12","","facebook_places",151806831608591,55.842440000000003,37.464050000000000,"Ледовый дворец Звезда","Ледовый дворец Звезда"
"2019-02-22 14:30:10.893549+01",288206832,"","","facebook_places",138983476126937,55.751199999999997,37.609999999999999,"Biblioteka Imeni Lenina","Biblioteka Imeni Lenina"
"2019-02-23 00:34:07.108597+01",501929994,"Пушкинский район","","facebook_places",172212129505674,56.108903834849997,37.986381550962001,"Дом Отдыха Софрино","Дом Отдыха Софрино"
"2019-02-25 19:15:52.524147+01",35689564,"Территория инновационного центра «Сколково», дом 1, Центр Городского развития (Гиперкуб)","","facebook_places",391029744332605,55.696566427401002,37.356107562228999,"Гиперкуб","Гиперкуб"
"2019-02-22 23:32:17.351625+01",19615988,"улица Лескова","Москва (Moscow, Russia)","facebook_places",356988374322215,55.901316434519998,37.602993715132001,"Лианозовский Питомник","Лианозовский Питомник"
"2019-02-22 19:38:27.811755+01",299250004,"","","facebook_places",133045286734880,55.683333333333003,37.622500000000002,"Nagatinskaya","Nagatinskaya"
"2019-02-25 15:25:23.178365+01",213264682,"","","facebook_places",115486911798138,43.277500000000003,76.895799999999994,"Almaty, Kazakhstan","Almaty"
"2019-02-25 16:42:38.143256+01",1027191876,"","","facebook_places",1021467514560946,55.928898799999999,37.523485500000000,"Бассейн Мфти","Бассейн Мфти"
"2019-02-22 18:13:03.880657+01",31071461,"","","facebook_places",282351211898234,55.894017640000001,37.521034640000003,"Оивт Ран","Оивт Ран"
"2019-02-22 22:33:19.971038+01",291199085,"ЮЗАО","","facebook_places",133630850010179,55.670277777777997,37.554444444444002,"Novye Cheryomushki","Novye Cheryomushki"
"2019-02-22 18:13:43.707561+01",498025257,"","","facebook_places",112828408733480,56.100000000000001,38.133299999999998,"Krasnoarmeysk, Moskovskaya Oblast', Russia","Krasnoarmeysk"
"2019-02-22 21:37:46.866264+01",500755104,"ул. Вавилова, д. 3","Москва","facebook_places",708910692538711,55.707070000000002,37.592160000000000,"Laser Land","Laser Land"
"2019-02-25 12:13:48.888772+01",356777434747749,"Чистопрудный бульвар","","facebook_places",356777434747749,55.762790000000002,37.641800000000004,"Чистопрудный Бульвар","Чистопрудный Бульвар"
"2019-02-22 18:17:06.400096+01",499777966,"Булатниковская улица, 2","","facebook_places",937876529575675,55.580444645796000,37.653406415848004,"ДЮСШ 5 ""Пингвины""","ДЮСШ 5 ""Пингвины"""
"2019-02-25 16:09:54.851748+01",212988663,"","","facebook_places",108424279189115,40.714199999999998,-74.006399999999999,"New York, New York","New York"
"2019-02-25 18:54:36.404997+01",466990429,"","","facebook_places",293014604131048,55.632418870000002,37.769943220000002,"Охотный Ряд Старбакс","Охотный Ряд Старбакс"
"2019-02-25 19:26:37.407267+01",617880686,"","","facebook_places",418621598192126,55.580238201428998,37.653394302857002,"ЛД ""южный""","ЛД ""южный"""
"2019-02-23 00:37:59.777707+01",576992855,"","","facebook_places",187704007985058,55.751200890092001,37.545593370779002,"Expocentre","Expocentre"
"2019-02-22 18:19:18.182514+01",227566818,"Гус-Хрустальный","","facebook_places",376241929111480,55.620019950912003,40.661489881834001,"Гусь-Хрустальный, Владимирская Область","Гусь-Хрустальный"
"2019-02-25 19:26:59.935626+01",296621693,"улица Чкалова","Medvezhyegorsk","facebook_places",446338278834562,62.914287665518003,34.513696509226001,"Малая Медвежка","Малая Медвежка"
"2019-02-22 23:08:42.252187+01",286040438,"Нижегородская область","","facebook_places",188476397886498,56.313588184902002,43.873289120530998,"Н Новгород","Н Новгород"
"2019-02-22 18:19:49.763789+01",349844276,"Vratislavova 14","","facebook_places",320892278084144,50.066470000000002,14.418100000000001,"Del Mar Private Club","Del Mar Private Club"
"2019-02-22 18:20:09.543409+01",500062653,"Älvåsen","","facebook_places",527420023949005,62.077092315973999,16.726540796198002,"Hassela Ski Resort","Hassela Ski Resort"
"2019-02-22 14:54:14.398309+01",324096458,"Россия, Москва, метро Проспект Мира","","facebook_places",133152736723259,55.780833333333000,37.632500000000000,"Prospekt Mira","Prospekt Mira"
"2019-02-22 19:37:42.384487+01",2758184,"Маршала Катукова 22","","facebook_places",431563543538752,55.804032346938001,37.410531461223002,"Дворец Спорта ""Янтарь""","Дворец Спорта ""Янтарь"""
"2019-02-23 00:51:26.472235+01",648982318,"Дмитровское шоссе, 9","","facebook_places",120277218057495,55.815420000000003,37.575449900000002,"Учебный Центр","Учебный Центр"
"2019-02-23 00:51:28.732628+01",267276314,"Москва, ул. Складочная, д. 1, строение 1","","facebook_places",185682061515150,55.800489474166000,37.595130665555999,"На Батуте.ру","На Батуте.ру"
"2019-02-23 00:59:18.672097+01",225846954,"","","facebook_places",260695350696320,55.588159984510000,38.131434279445998,"Город Жуковский","Город Жуковский"
"2019-02-25 15:47:10.830844+01",212903416,"","","facebook_places",106012156106461,41.007931999999997,28.978144000000000,"Istanbul, Turkey","Istanbul"
"2019-02-22 18:21:41.272441+01",214170194,"Gudauri, Georgia","Gudauri, Dushet'Is Raioni, Georgia","facebook_places",200864019935993,42.470158081210002,44.492159572191000,"Gudauri Ski Resort","Gudauri Ski Resort"
"2019-02-22 12:35:38.000047+01",258328204901425,"47-49 William St","","facebook_places",258328204901425,-33.874270000000003,151.214640000000003,"Slims Rooftop","Slims Rooftop"
"2019-02-22 18:23:23.063556+01",223085425,"Москва, ул. Маршала Катукова, 26","Москва (Moscow, Russia)","facebook_places",176155052437567,55.804063820650001,37.410550351200001,"Янтарь спорткомплекс","Янтарь спорткомплекс"
"2019-02-23 01:47:38.886823+01",291281399,"","","facebook_places",542231709158252,55.413919008999997,37.902490612999998,"Aeroport Domodedovo DME Airport Moscow","Aeroport Domodedovo DME Airport Moscow"
"2019-02-23 01:33:35.845703+01",428416733,"г. Черноголовка, Московская область, Ногинский район","","facebook_places",408038375893370,56.012522036667001,38.372389233333003,"Академгородок Черноголовка","Академгородок Черноголовка"
"2019-02-25 19:23:11.659088+01",206258876,"77 Massachusetts Ave","Cambridge, MA","facebook_places",126533127390327,42.358002668843000,-71.093015500788994,"Massachusetts Institute of Technology (MIT)","Massachusetts Institute of Technology (MIT)"
"2019-02-22 18:24:25.328276+01",238205546,"","","facebook_places",112731865419016,42.163749925630000,44.703044850676001,"Ananuri, Dushet'Is Raioni, Georgia","Ananuri"
"2019-02-22 14:03:08.754812+01",214494232,"","","facebook_places",115929341753983,48.388755000000003,-4.491480000000000,"Brest, Bretagne","Brest"
"2019-02-25 17:15:52.085838+01",1815425775411910,"улица Ракетостроителей 4","","facebook_places",1815425775411910,55.935236171752997,37.511744499206998,"ГТО Стадион Салют- г.Долгопрудный","ГТО Стадион Салют- г.Долгопрудный"
"2019-02-23 01:33:41.305961+01",213286571,"","","facebook_places",268593663207820,43.663577170144002,40.254740825151998,"Gornaya Karusel","Gornaya Karusel"
"2019-02-25 12:13:09.879435+01",615831356,"Коломенское","","facebook_places",209332505761792,55.667691658324998,37.669616169831002,"Парк Коломенское","Парк Коломенское"
"2019-02-23 01:33:42.51811+01",472697557,"","Khimki","facebook_places",730573143653057,55.818861601510001,37.515975585031001,"Олимпийский центр Планерная","Олимпийский центр Планерная"
"2019-02-23 01:33:45.862931+01",2983898,"Дом отдыха Ершово","","facebook_places",327149037323435,55.764970984466998,36.867188959540002,"Дом Отдыха Ершово","Дом Отдыха Ершово"
"2019-02-25 12:12:21.158937+01",413780647,"","","facebook_places",111559695526620,55.750000000000000,37.616666944443999,"Russia","Russia"
"2019-02-23 01:33:56.495989+01",293015181,"Горная,5","","facebook_places",229076943886734,43.669099195808997,40.260165968884003,"Горки Город +960","Горки Город +960"
"2019-02-25 18:41:06.788169+01",221630742,"","","facebook_places",106456079391157,55.783299999999997,49.166699999999999,"Kazan, Tatarstan","Kazan"
"2019-02-25 19:32:50.584757+01",1019346793,"","","facebook_places",470177862992771,55.768058799999999,37.599929799999998,"Чайхона 1","Чайхона 1"
"2019-02-25 14:02:19.175009+01",1951967925046415,"Олимпийский Проспект, 21","","facebook_places",1951967925046415,43.403610911823002,39.963588993575002,"Олимпийский Парк, Сочи","Олимпийский Парк"
"2019-02-22 12:40:44.462884+01",1631543427170499,"","","facebook_places",1631543427170499,43.471679687500000,40.533760070801002,"Abhazya, Ritsa lake Абхазия, озеро Рица","Abhazya"
"2019-02-25 18:28:22.413485+01",213054430,"с. Эстосадок, ул. Олимпийская, д. 35","г. Сочи, Краснодарский край","facebook_places",378445532238786,43.672458347472997,40.294874912683000,"Роза Хутор","Роза Хутор"
"2019-02-22 18:32:06.451406+01",499995929,"","","facebook_places",106501689383238,55.883899999999997,37.027799999999999,"Snegiri, Moskovskaya Oblast', Russia","Snegiri"
"2019-02-23 01:47:35.928713+01",20162057,"коммунистическая 43","","facebook_places",241338009316283,54.767167191071998,56.060498664207998,"Японика","Японика"
"2019-02-23 01:47:30.341695+01",336531362,"","MOSKVA","facebook_places",272474296288263,55.754831123646000,37.621476542038003,"Red Square, Moscow","Red Square"
"2019-02-25 16:17:33.13233+01",221674386,"","","facebook_places",107428115952951,54.183900000000001,37.597400000000000,"Tula, Russia","Tula"
"2019-02-22 18:38:51.295647+01",537792722,"","","facebook_places",111606925526941,44.550300000000000,38.213600000000000,"Vozrozhdeniye, Krasnodarskiy Kray, Russia","Vozrozhdeniye"
"2019-02-22 18:37:17.715348+01",662125093963070,"","","facebook_places",662125093963070,55.929444444444002,37.521388888889000,"معهد موسكو للفيزياء والتكنولوجيا","معهد موسكو للفيزياء والتكنولوجيا"
"2019-02-22 18:37:23.951002+01",272050712,"М4","Gelendzhik","facebook_places",1467541490145313,44.549370000000003,38.219949999999997,"Возрождение","Возрождение"
"2019-02-22 22:55:06.137043+01",574813888,"","","facebook_places",137803249574539,55.765000000000001,37.605555555556002,"Tverskaya","Tverskaya"
"2019-02-22 20:25:07.001696+01",1025974742,"проспект Ракетостроителей, № 4 / ФОК Салют | prospekt Raketostroiteley, № 4 / FOK Saljut .","","facebook_places",539921859502650,55.932600000000001,37.497990000000002,"Долгопрудный Ракетостроителей 4","Долгопрудный Ракетостроителей 4"
"2019-02-22 23:36:21.692427+01",274317852,"","","facebook_places",304028066370715,55.959247079567000,37.411298697444998,"Moscow Sheremetyevo International Airport, Terminal D","Moscow Sheremetyevo International Airport"