"updated_at","location_id","address","city","external_source","facebook_places_id","lat","lng","name","short_name"
"2019-02-25 08:55:12.412549+01",193715478222524,"","Moscow, Russia","facebook_places",193715478222524,55.840579414213998,37.548806900472002,"Чайхона «Айва»","Чайхона «Айва»"
"2019-02-25 15:07:45.921181+01",213215729,"Myasnitskaya, 20","Москва","facebook_places",115552951820016,55.761330000000001,37.632990000000000,"Вышка","Вышка"
"2019-02-24 14:07:14.96562+01",7538318,"","","facebook_places",109653395718995,55.676111111110998,12.568888888888999,"Copenhagen","Copenhagen"
"2019-02-25 18:46:24.831158+01",846669523,"Долгопрудненское шоссе, 3","Москва","facebook_places",560952460681081,55.921599999999998,37.534930000000003,"Физтехпарк","Физтехпарк"
"2019-02-24 14:06:05.09909+01",281946019111099,"Новомытищинский просп., 38, Мытищи, Московская область","","facebook_places",281946019111099,55.909873962402003,37.734191894531001,"Учительская школы №6","Учительская школы №6"
"2019-02-24 14:08:39.527446+01",438184004,"","","facebook_places",107000739332218,47.236400000000003,39.713900000000002,"Rostovondon, Rostovskaya Oblast', Russia","Rostovondon"
"2019-02-25 19:27:43.750147+01",479987719169835,"Алтуфьевское ш., 97","","facebook_places",479987719169835,55.904543829383002,37.586616877090002,"Алтуфьевское 97","Алтуфьевское 97"
"2019-02-24 14:04:48.466609+01",180082869542799,"","","facebook_places",180082869542799,55.767705999999997,37.561667000000000,"Станция Метро Комсомольская","Станция Метро Комсомольская"
"2019-02-25 19:24:58.237108+01",223125721,"","","facebook_places",113484365328971,51.670800000000000,39.214199999999998,"Voronezh","Voronezh"
"2019-02-25 09:00:57.215036+01",223290516,"","","facebook_places",104042686299084,55.899999999999999,37.450000000000003,"Khimki","Khimki"
"2019-02-25 09:01:13.434797+01",568591716858115,"","","facebook_places",568591716858115,55.935908950003998,37.558668750003001,"Дмитровское Шоссе","Дмитровское Шоссе"
"2019-02-25 09:09:57.193408+01",501048121,"","","facebook_places",142860085729688,55.764947222221998,37.671583333332997,"Basmanny District","Basmanny District"
"2019-02-25 12:18:07.695886+01",3011715,"ул. Остоженка, д. 38","","facebook_places",113191235361635,55.738720000000001,37.594890000000000,"Moscow State Linguistic University","Moscow State Linguistic University"
"2019-02-25 09:06:08.688557+01",518740,"Tverskaya Street 3","Москва","facebook_places",155594884514565,55.757280000000002,37.612890000000000,"The Ritz-Carlton, Moscow","The Ritz-Carlton"
"2019-02-25 13:03:08.336382+01",221522574,"","","facebook_places",108376102518160,55.478128147699998,37.297413533099998,"Troitsk, Moskovskaya Oblast', Russia","Troitsk"
"2019-02-25 09:07:30.962153+01",222651085,"","","facebook_places",106007332772985,22.550000000000001,114.099999999999994,"Shenzhen, Guangdong","Shenzhen"
"2019-02-25 12:07:39.803038+01",214426443,"Орджоникидзе ул. 11","Moscow, Russia","facebook_places",541932115843118,55.709628354708997,37.595332198910000,"ГЛАВCLUB GREEN CONCERT","ГЛАВCLUB GREEN CONCERT"
"2019-02-22 13:26:33.01337+01",676150822,"","","facebook_places",1622528011301982,55.832931712636999,37.619643521763997,"Москвариум","Москвариум"
"2019-02-24 15:08:54.206911+01",570724565,"","","facebook_places",150242435020153,56.014099999999999,92.864300000000000,"Moscow, Russia","Moscow"
"2019-02-25 09:05:26.645398+01",213100244,"","","facebook_places",106287062743373,41.388800000000003,2.168100000000000,"Barcelona, Spain","Barcelona"
"2019-02-25 19:27:03.685999+01",215768966,"","","facebook_places",110145572342035,51.110799999999998,17.037500000000001,"Wroclaw, Poland","Wroclaw"
"2019-02-25 12:06:55.16555+01",218157092,"","","facebook_places",112516965430021,45.049999999999997,41.983300000000000,"Stavropol","Stavropol"
"2019-02-25 18:12:04.238982+01",415253316,"","","facebook_places",105563156144502,56.750000000000000,37.149999999999999,"Dubna","Dubna"
"2019-02-25 08:56:10.080477+01",507355966,"Рублевское шоссе, 42 корпус 1","Москва","facebook_places",830131677028179,55.750869799999997,37.412429799999998,"Ресторан ESHAK Рублевка","Ресторан ESHAK Рублевка"
"2019-02-22 20:27:30.758498+01",219218122,"","","facebook_places",112768495405497,44.560833333333001,38.076666666667002,"Gelendzhik","Gelendzhik"
"2019-02-25 18:31:42.066902+01",429897923,"","","facebook_places",112718018754703,55.604486220729001,37.284653176088000,"Vnukovo International Airport","Vnukovo International Airport"
"2019-02-25 12:15:26.282134+01",1143963622405375,"Moscow Road","","facebook_places",1143963622405375,55.750966346364002,37.617725245918002,"Kremlin Palace Moscow","Kremlin Palace Moscow"
"2019-02-25 08:56:42.023358+01",87755,"","","facebook_places",190554124319030,55.738774017966001,37.265255927969001,"Барвиха Luxury Village","Барвиха Luxury Village"
"2019-02-24 15:04:04.707311+01",1569915839790156,"","","facebook_places",1569915839790156,55.754445217848001,37.619756319433002,"ГУМ Каток","ГУМ Каток"
"2019-02-24 16:03:28.955967+01",215031298,"","","facebook_places",104052339630034,57.149999999999999,65.533333333333005,"Tyumen","Tyumen"
"2019-02-25 15:07:05.673279+01",213633143,"","","facebook_places",108429795855423,50.850000000000001,4.350000000000000,"Brussels, Belgium","Brussels"
"2019-02-25 12:11:45.684179+01",264672071,"Мкад 84-ый Километр","Москва","facebook_places",523998781053048,55.912812920566999,37.586158265507997,"ТРЦ ""Весна"", Алтуфьево","ТРЦ ""Весна"""
"2019-02-25 19:27:06.409788+01",213830427,"","","facebook_places",111665038853258,37.492400000000004,15.075200000000001,"Catania, Italy","Catania"
"2019-02-25 15:58:40.358922+01",241466788,"","","facebook_places",114097925266932,44.743564698378002,34.436633407658000,"Alushta","Alushta"
"2019-02-24 15:28:14.945939+01",10428404,"Москва, ул. Земляной вал, д.73","Москва","facebook_places",165850773528723,55.745794664301002,37.657929062789002,"МГУТУ","МГУТУ"
"2019-02-25 15:34:15.438685+01",215301181,"","","facebook_places",104083606294021,43.106639999999999,-79.064329999999998,"Niagara Falls, Ontario","Niagara Falls"
"2019-02-25 14:18:08.97962+01",214928415,"","","facebook_places",108023362564746,51.751899999999999,-1.257800000000000,"Oxford, Oxfordshire","Oxford"
"2019-02-25 15:16:01.22439+01",225297875,"","","facebook_places",108101485885534,44.500000000000000,34.166699999999999,"Yalta","Yalta"
"2019-02-25 16:25:42.629546+01",483970813,"","","facebook_places",106130232750982,55.671111111099996,37.481111111099999,"Moscow Technological University","Moscow Technological University"
"2019-02-25 18:57:20.809457+01",213370106,"","","facebook_places",111536985531661,56.956400000000002,24.121300000000002,"Riga, Latvia","Riga"
"2019-02-25 15:29:14.94725+01",212928653,"","","facebook_places",108260802527498,25.812999999999999,-80.134100000000004,"Miami Beach, Florida","Miami Beach"
"2019-02-13 18:15:28.888352+01",304186326606173,"Милашенкова, дом 1","","facebook_places",304186326606173,55.752200000000002,37.615600000000001,"Метро Фонвизинская","Метро Фонвизинская"
"2019-02-13 18:15:28.991965+01",213072767,"Волгоградский проспект","Москва","facebook_places",195550387152558,55.709222404012998,37.732167126781000,"Метро ""Текстильщики""","Метро ""Текстильщики"""
"2019-02-19 04:45:21.088297+01",284870911,"улица Красный Казанец","Moscow, Russia","facebook_places",232702270256532,55.716360000000002,37.819989999999997,"Метро-Выхино","Метро-Выхино"
"2019-02-25 08:55:24.788426+01",1018640247,"","","facebook_places",543731682389264,55.763105555599999,37.675338888900001,"Московский государственный областной университет","Московский государственный областной университет"
"2019-02-25 15:55:05.919193+01",214228753,"","","facebook_places",101881036520836,39.997999999999998,-75.144800000000004,"Philadelphia, Pennsylvania","Philadelphia"
"2019-02-25 14:37:31.508361+01",757207048,"","","facebook_places",138208192871081,7.925583581653800,98.347359977522004,"Phuket, Thailand","Phuket"
"2019-02-25 12:11:03.285204+01",249707506,"","","facebook_places",108007695965640,55.661949999999997,37.476489999999998,"Moscow State University of Fine Chemical Technologies","Moscow State University of Fine Chemical Technologies"
"2019-02-25 09:01:03.933013+01",574164371,"","","facebook_places",129792377064830,55.801284114151997,37.525257317175999,"Finance University under the Government of the Russian Federation","Finance University under the Government of the Russian Federation"
"2019-02-25 09:01:21.413704+01",277658809,"Менделеевская улица, 8","","facebook_places",469476136492183,54.195270590126000,37.619933803240002,"Тульский кремль","Тульский кремль"
"2019-02-25 10:45:12.175482+01",675167310,"Проспект Вернадского 78","","facebook_places",456389217787133,55.670699999999996,37.482729999999997,"Московский технологический университет","Московский технологический университет"
"2019-02-24 14:34:02.928997+01",142858613,"ул. Университетская, 1","","facebook_places",398286726939216,55.753408681918003,48.743622650676997,"Innopolis University","Innopolis University"
"2019-02-25 12:07:42.529904+01",225807405,"","","facebook_places",370771979654193,56.865394128794002,35.900619875544002,"Г. Тверь, Р. Волга","Г. Тверь"
"2019-02-25 18:39:34.304826+01",213000204,"49 Leningradsky Prospekt, Moscow, Russia, 125993, GSP-3.","","facebook_places",148654631822466,55.799922604321999,37.529086222250001,"Financial University under the Government of the Russian Federation","Financial University under the Government of the Russian Federation"
"2019-02-24 15:48:04.510365+01",877587385,"Pobřežní 1","Prague, Czech Republic","facebook_places",115479358466037,50.093339999999998,14.439650000000000,"Hilton Prague","Hilton Prague"
"2019-02-25 10:48:02.088685+01",712565481,"Ярцевская улица, 19","Москва","facebook_places",689593044482903,55.738370000000003,37.410789999999999,"Кунцево Плаза","Кунцево Плаза"
"2019-02-25 19:24:08.462887+01",216416212,"","","facebook_places",113250165357767,43.250000000000000,76.950000000000003,"Alma-Ata, Almaty, Kazakhstan","Alma-Ata"
"2019-02-25 16:25:48.117177+01",499771977,"Бутырская улица","","facebook_places",116108098436660,55.806388888889003,37.581666666666997,"Dmitrovskaya","Dmitrovskaya"
"2019-02-13 18:40:54.392416+01",1027463041,"Лианозовский проезд","","facebook_places",1403104396607021,55.890277777778003,37.542222222222001,"Лианозово (станция метро)","Лианозово (станция метро)"
"2019-02-25 18:20:47.831287+01",212990869," Россия, Московская обл.,Химки","Москва","facebook_places",240452276000881,55.964195693504003,37.409203746636997,"Международный аэропорт Шереметьево","Международный аэропорт Шереметьево"
"2019-02-25 17:54:21.798143+01",25965955,"Krasnaya ploshchad","","facebook_places",219875014692674,55.755746803428004,37.618646269812999,"Red Square","Red Square"
"2019-02-25 11:03:18.457892+01",215007796,"Karla Marksa 12","","facebook_places",103104666396986,54.724662236505999,55.942457315254003,"Ufa State Aviation Technical University","Ufa State Aviation Technical University"
"2019-02-24 14:04:25.62902+01",337439456859697,"","Elektrosal, Moscow Oblast, Russia","facebook_places",337439456859697,55.783332999999999,38.466667000000001,"Elektrosal, Moscow Oblast, Russia","Elektrosal"
"2019-02-24 17:58:41.197375+01",1651359991846670,"","","facebook_places",1651359991846670,55.765700000000002,37.638800000000003,"Chistyye Prudy","Chistyye Prudy"
"2019-02-25 10:51:54.772023+01",608737539282444,"Фестивальная улица, Парк Дружбы","Москва","facebook_places",608737539282444,55.854680000000002,37.475000000000001,"Парк Дружбы","Парк Дружбы"
"2019-02-25 09:01:00.295793+01",761843139,"Red Square, Moskva, Russland, 109012","","facebook_places",170779933056970,55.984865585728997,37.802408943567002,"Moscow , Red Square","Moscow "
"2019-02-25 10:20:07.532366+01",174136273162226,"ЭКО-БЕРЕГ","Химки, Московская область","facebook_places",174136273162226,55.891973403706999,37.469719648361000,"Эко-Берег Химки","Эко-Берег Химки"
"2019-02-25 14:03:31.736924+01",994605401,"32 Novy Arbat Street  Moscow  121099  Russian Federation","Москва","facebook_places",380489812157720,55.753219999999999,37.580730000000003,"Moscow Marriott Hotel Novy Arbat","Moscow Marriott Hotel Novy Arbat"
"2019-02-25 15:06:22.316775+01",214262158,"","","facebook_places",106024019437151,52.077800000000003,4.315800000000000,"The Hague, Netherlands","The Hague"
"2019-02-19 05:23:11.575904+01",498195319,"","","facebook_places",487226711300110,55.899950244999999,37.582716144999999,"Метро Новослободская","Метро Новослободская"
"2019-02-13 18:52:04.60051+01",630822909,"улица Героев Панфиловцев","Moscow, Russia","facebook_places",621775871241043,55.860967899999999,37.424041000000003,"Метро-Сходненская","Метро-Сходненская"
"2019-02-13 18:52:47.753433+01",269780535,"Россия, Москва, Алтуфьевский район","","facebook_places",280769431936324,55.879722219999998,37.584166670000002,"Altufyevsky District","Altufyevsky District"
"2019-02-21 22:47:11.701497+01",410414809,"","","facebook_places",102555356464265,55.718611111111002,37.607777777777997,"Shabolovskaya","Shabolovskaya"
"2019-02-19 09:16:59.553609+01",486161015,"Россия, Москва, метро Отрадное","","facebook_places",1476005039293646,55.860277779999997,37.602222220000002,"Отрадное","Отрадное"
"2019-02-25 17:09:55.315539+01",2737680,"ulitsa Krymskiy Val, 9/32 Gorky Park","Москва","facebook_places",247814790922,55.727820000000001,37.601610000000001,"Garage Museum of Contemporary Art","Garage Museum of Contemporary Art"
"2019-02-25 18:56:27.141886+01",219097249,"","","facebook_places",123952830983331,55.779516666667000,37.601166666666998,"Novoslobodskaya","Novoslobodskaya"
"2019-02-25 10:29:49.790941+01",482763641,"","","facebook_places",103812399657354,55.835200000000000,37.635300000000001,"Russian State Social University","Russian State Social University"
"2019-02-25 14:00:06.383824+01",215161855,"Лихачёвский проспект, 64","","facebook_places",209016595785243,55.931179999999998,37.494129999999998,"Конфитюр","Конфитюр"
"2019-02-25 08:53:56.67841+01",951069930,"пер. Нахичеванский, 29)","RostovnaDonu, Rostov, Russia (Ростов-на-Дону, Ростовская обл.)","facebook_places",163293893730179,47.228271918411998,39.737944997650999,"Rostov State Medical University","Rostov State Medical University"
"2019-02-25 08:53:05.387764+01",1031429297,"Московская область ","Железнодорожный (Балашиха) (Zheleznodorozhny)","facebook_places",683964488410560,55.745339999999999,38.031860000000002,"МБОУ ""Лицей""","МБОУ ""Лицей"""
"2019-02-25 19:27:41.661964+01",518568821851396,"","","facebook_places",518568821851396,55.871584749999997,37.500250350000002,"Москва, СВАО","Москва"
"2019-02-25 12:10:34.874408+01",220989735,"","","facebook_places",108056909215396,51.656120000000001,39.206359900000002,"Voronezh State University","Voronezh State University"
"2019-02-25 08:50:03.645007+01",992617659,"","","facebook_places",224377200925510,56.483333333333000,44.533333333332998,"Nizhny Novgorod Oblast","Nizhny Novgorod Oblast"
"2019-02-25 08:53:10.457955+01",672243519,"Нижняя Сыромятническая, 10","","facebook_places",638032193009890,55.752589003098002,37.668641291191001,"Артплей Центр","Артплей Центр"
"2019-02-25 08:51:09.222034+01",454833731,"","","facebook_places",104682932904429,52.950000000000003,88.033299999999997,"Sheregesh, Kemerovskaya Oblast', Russia","Sheregesh"
"2019-02-24 14:30:27.034978+01",147783495810841,"Улица Псковская","","facebook_places",147783495810841,55.901789999999998,37.551369999999999,"Улица Псковская","Улица Псковская"
"2019-02-25 09:00:30.977743+01",302290402,"Бутлерова 3","","facebook_places",151945784947285,55.655171863899000,37.520906194681999,"Общежитие Ргу Нефти И Газа Им. Губкина","Общежитие Ргу Нефти И Газа Им. Губкина"
"2019-02-25 10:31:55.928771+01",508996515,"","","facebook_places",394990197283573,55.642777777778001,37.526111111111000,"Беляево","Беляево"
"2019-02-24 14:31:38.819581+01",522715773,"Можайское шоссе, дом 31, корп. 2","Moscow, Russia","facebook_places",631097493635140,55.721225675576001,37.417998835319999,"Ломоносовская Частная Начальная школа","Ломоносовская Частная Начальная школа"
"2019-02-25 08:58:45.941086+01",1150554075048844,"Триумфальная площадь, вл. 2","","facebook_places",1150554075048844,55.768950300000000,37.595906200000002,"Burger Heroes","Burger Heroes"
"2019-02-24 14:47:15.064626+01",584566637,"","","facebook_places",318257908255942,55.642798831751001,37.674492031138001,"Афимол","Афимол"
"2019-02-24 14:41:42.348265+01",213530342,"","","facebook_places",108108862550331,54.845393251211000,83.095927910285994,"Novosibirsk State University","Novosibirsk State University"
"2019-02-24 14:47:16.816631+01",1757518627885766,"Красная Пресня","","facebook_places",1757518627885766,55.762015775675003,37.568883549029003,"Красная Пресня 28","Красная Пресня 28"
"2019-02-25 08:55:55.341699+01",335105963940603,"Волгоградский просп., 32, корп. 43","","facebook_places",335105963940603,55.722921022112999,37.685309532169001,"Мослабиринт","Мослабиринт"
"2019-02-25 08:58:48.380011+01",1549690078399413,"","","facebook_places",1549690078399413,55.752200000000002,37.615600000000001,"9-я Парковая ул","9-я Парковая ул"
"2019-02-24 15:07:35.709877+01",177845826430795,"Солидарности 81","","facebook_places",177845826430795,55.159799485295998,82.957250913717004,"Начало-начал","Начало-начал"
"2019-02-25 09:09:24.144433+01",548486943,"","","facebook_places",117068928354513,55.559600000000003,46.928400000000003,"Moscow, Russia","Moscow"
"2019-02-25 08:59:29.960134+01",500609866,"Обнинск","","facebook_places",381640088539167,55.096036050663997,36.607672712252999,"г.Обнинск, Калужская обл.","г.Обнинск"
"2019-02-12 11:07:20.933744+01",504758987,"Лихачевский проспект, 64","Dolgoprudyy, Moskovskaya Oblast', Russia","facebook_places",1417753728491636,55.931309081461997,37.494173085149001,"Галакс","Галакс"
"2019-02-25 09:00:33.831413+01",272326466816835,"Алтуфьевское ш.","Moscow, Russia","facebook_places",272326466816835,55.897927276525998,37.587791032953000,"Метро Алтуфьево (metro Altufyevo)","Метро Алтуфьево (metro Altufyevo)"
"2019-02-25 13:57:05.73281+01",422384944,"ул. Академика Лаврентьева, д.21","","facebook_places",585350721562900,55.942110000000000,37.503920000000001,"Улица Лаврентьева, Долгопрудный","Улица Лаврентьева"
"2019-02-24 15:31:06.869294+01",217962928,"","","facebook_places",116565558357677,55.888116150191998,37.661563449066001,"Medvedkovo, Moskva, Russia","Medvedkovo"
"2019-02-25 09:00:35.041885+01",1676569245943804,"","","facebook_places",1676569245943804,55.875590430773997,37.633065730764002,"Москва м. Бабушкинская","Москва м. Бабушкинская"
"2019-02-25 08:58:58.608176+01",162941524656919,"","","facebook_places",162941524656919,53.975263606691001,27.340582239302002,"Черный лебедь","Черный лебедь"
"2019-02-25 08:59:05.565766+01",1033415687,"","","facebook_places",540891776089557,55.642777777778001,37.526111111111000,"Beljajevo","Beljajevo"
"2019-02-25 09:05:31.097072+01",2230975357170412,"МФТИ","","facebook_places",2230975357170412,55.929306572220000,37.522907889404003,"Студгородок МФТИ","Студгородок МФТИ"
"2019-02-24 15:33:29.3396+01",227967481,"Новоостаповская улица, 5, строение 2","","facebook_places",430169273735440,55.723997358200002,37.677456164600002,"Ледовая Арена Морозово","Ледовая Арена Морозово"
"2019-02-24 15:33:30.68565+01",228635115,"г. Москва, м.Спортивная, Лужники 24, стр. 2","Москва","facebook_places",121787841235088,55.722257660398000,37.547666762585003,"ГЦКЗ ""РОССИЯ""","ГЦКЗ ""РОССИЯ"""
"2019-02-25 12:09:44.547469+01",286345895,"","","facebook_places",106606082706665,55.604785955555997,38.103748911110998,"Zhukovskiy, Moskovskaya Oblast', Russia","Zhukovskiy"
"2019-02-25 17:46:24.951994+01",218492266,"","","facebook_places",110499192310382,52.618600000000001,39.568899999999999,"Lipezk, Lipetskaya Oblast', Russia","Lipezk"
"2019-02-25 14:01:07.234539+01",991092262,"Железнодорожная Улица","","facebook_places",567300926698491,55.970694444444000,37.504638888888998,"Хлебниково","Хлебниково"
"2019-02-25 16:13:50.835632+01",4585041,"","","facebook_places",481581178524068,55.963784536779997,37.518169960456000,"Яхт Клуб Водник","Яхт Клуб Водник"
"2019-02-24 16:02:38.883892+01",500146183,"","","facebook_places",110734902353733,55.718055555555999,37.676666666667003,"Dubrovka","Dubrovka"
"2019-02-25 09:03:12.154427+01",118612911526301,"30, Lenin Avenue","Tomsk","facebook_places",118612911526301,56.488531299999998,84.946928099999994,"National Research Tomsk Polytechnic Univercity","National Research Tomsk Polytechnic Univercity"
"2019-02-25 09:02:04.778678+01",1034434519,"","","facebook_places",256647887843196,55.865000000000002,37.548333333332998,"Селигерская (станция метро)","Селигерская (станция метро)"
"2019-02-25 10:58:25.253264+01",214131624,"Госпитальная набережная, дом 4/2","Москва","facebook_places",158255837576089,55.772755054637003,37.697529733994998,"Спорткомплекс МГТУ им. Н.Э. Баумана","Спорткомплекс МГТУ им. Н.Э. Баумана"
"2019-02-25 15:06:09.610657+01",224551404,"","","facebook_places",109389552412408,46.351799999999997,48.033099999999998,"Astrakhan","Astrakhan"
"2019-02-25 09:08:15.294228+01",813949222126169,"","","facebook_places",813949222126169,55.930554800000003,37.517123099999999,"Профком студентов МФТИ","Профком студентов МФТИ"
"2019-02-25 10:20:18.293156+01",187284412073161,"Ленинский пр-т, 14","","facebook_places",187284412073161,55.720456750026997,37.593543150095996,"Президиум РАН","Президиум РАН"
"2019-02-25 10:19:21.149365+01",439859386,"Путевой Проезд","Moscow, Russia","facebook_places",321503864664390,55.883560500000002,37.567854199999999,"Станция-Бескудниково","Станция-Бескудниково"
"2019-02-25 09:05:30.446792+01",184575122420579,"Ул. Академика Лавреньтьева","","facebook_places",184575122420579,55.939279999999997,37.502944999999997,"Долгопрудный-СМИ","Долгопрудный-СМИ"
"2019-02-25 09:03:06.134192+01",976305769222842,"Дмитровское ш., 9","","facebook_places",976305769222842,55.815554114064000,37.576173968940999,"МФТИ","МФТИ"
"2019-02-24 16:04:40.432641+01",718586296,"Россия","Yemelyanovo, Krasnoyarskiy Kray, Russia","facebook_places",280688125368318,55.984489565794000,37.430965441101002,"Шереметьево Москва","Шереметьево Москва"
"2019-02-25 09:03:41.704175+01",416945128,"Калужская пл.1 стр.2","","facebook_places",866619666698415,55.727860000000000,37.613840000000003,"La Provincia","La Provincia"
"2019-02-25 09:03:43.307576+01",498089141,"","","facebook_places",103141189726431,54.939008960038997,73.382391279950994,"Omsk State University","Omsk State University"
"2019-02-25 12:11:39.379745+01",1033000828,"Дирижабельная, 26","","facebook_places",970308049658529,55.945571899999997,37.508010900000002,"Додо Пицца Долгопрудный","Додо Пицца Долгопрудный"
"2019-02-24 16:16:02.17287+01",2156268157757277,"","","facebook_places",2156268157757277,56.004979358543999,38.384315878636002,"Большая гостинная","Большая гостинная"
"2019-02-25 09:03:39.231809+01",1760914,"Bagrationovskiy Proezd 5","Moscow, Moscow City, Russia (Moscow, Russia)","facebook_places",194929907211607,55.744278273698001,37.509082827954003,"Alex Fitness","Alex Fitness"
"2019-02-25 09:04:07.61467+01",873286926,"","","facebook_places",390561614478601,55.759500190997002,37.581816819244999,"Balzi Rossi","Balzi Rossi"
"2019-02-25 09:05:52.174246+01",881578674,"","","facebook_places",106756109439384,55.948693681800002,37.493695262700001,"Dolgoprudny","Dolgoprudny"
"2019-02-24 16:49:45.939669+01",1947912178803711,"Маршала Жукова, 26","","facebook_places",1947912178803711,51.766272930160000,55.114588737487999,"Hilton Garden Inn Orenburg","Hilton Garden Inn Orenburg"
"2019-02-24 16:45:27.34711+01",214332801,"7 Voznesenskiy Pereulok","Moscow","facebook_places",133784283315103,55.758131378586000,37.603781819344000,"Courtyard by Marriott Moscow City Center","Courtyard by Marriott Moscow City Center"
"2019-02-24 16:47:37.714677+01",1898333350245708,"Ул.Новая д.100а","","facebook_places",1898333350245708,55.700439224630998,37.397236211253002,"New Economic School","New Economic School"
"2019-02-13 18:22:15.372539+01",97023689,"Россия, Москва, метро ВДНХ","Москва","facebook_places",172138222834975,55.822547588928998,37.645769737118002,"метро ВДНХ","метро ВДНХ"
"2019-02-24 16:47:42.00577+01",1034493927,"","","facebook_places",1679757712280916,50.581245000000003,36.596272999999996,"Belgorod Technological University","Belgorod Technological University"
"2019-02-25 12:11:01.708795+01",9905938,"Лихачёвский проспект, дом 64","","facebook_places",287664821330665,55.931179999999998,37.494129999999998,"Хмельбург","Хмельбург"
"2019-02-24 17:26:13.621608+01",182239889072950,"Тверская, 9а стр 6","Москва","facebook_places",182239889072950,55.759790000000002,37.609859999999998,"Moscow Republic","Moscow Republic"
"2019-02-25 09:09:03.116626+01",299274694,"","","facebook_places",111778315505749,49.811799999999998,73.081400000000002,"Karaganda","Karaganda"
"2019-02-25 09:09:05.730763+01",225309341,"","","facebook_places",114379615239447,49.798900000000003,73.099400000000003,"Karaganda, Qaraghandy, Kazakhstan","Karaganda"
"2019-02-13 19:32:30.991808+01",233619434039089,"Ул. Авиаторов, 5","","facebook_places",233619434039089,55.641240000000003,37.398069999999997,"Метро Солнцево","Метро Солнцево"
"2019-02-13 18:49:09.603001+01",514173762309203,"Пушкинская пл.","","facebook_places",514173762309203,55.765733500000003,37.608364799999997,"Метро Пушкинская","Метро Пушкинская"
"2019-02-25 12:16:09.534866+01",216338929,"","","facebook_places",113578578652842,55.781280000000002,37.711509999999997,"Moscow Polytechnic University","Moscow Polytechnic University"
"2019-02-25 09:06:15.140836+01",440780395,"","","facebook_places",106605742707956,67.648100000000000,53.047199999999997,"Narjan Mar","Narjan Mar"
"2019-02-19 00:42:02.274474+01",213011827,"Россия, Москва, район Перово","","facebook_places",137341679620514,55.750160000000001,37.780700000000003,"Perovo","Perovo"
"2019-02-13 18:48:19.617815+01",289847032,"проспект Андропова","Moscow, Russia","facebook_places",611150208970923,55.680509533515000,37.674634232736999,"Метро-Коломенская","Метро-Коломенская"
"2019-02-25 12:08:04.6403+01",290121336,"","","facebook_places",138718629479151,54.628390115999998,39.756218979000003,"Ryazan State University","Ryazan State University"
"2019-02-24 16:58:17.342229+01",587866751663121,"Бибиревская ул.","Moscow, Russia","facebook_places",587866751663121,55.884135159773997,37.601618127875000,"Метро Бибирево (metro Bibirevo)","Метро Бибирево (metro Bibirevo)"
"2019-02-13 18:42:00.806277+01",1688210501210382,"Пролетарский просп.","","facebook_places",1688210501210382,55.639290099999997,37.671082900000002,"Метро Кантемировская","Метро Кантемировская"
"2019-02-19 07:01:40.598704+01",270845770,"","","facebook_places",104319169608773,55.628300000000003,37.660800000000002,"Tsaritsyno, Moskva, Russia","Tsaritsyno"
"2019-02-24 17:21:49.176116+01",1825818311048776,"Дмитровское шоссе,71","","facebook_places",1825818311048776,55.752200000000002,37.615600000000001,"Верхние Лихоборы Станция метро","Верхние Лихоборы Станция метро"
"2019-02-13 18:40:54.14757+01",213533246,"Локомотивный проезд","Москва (Moscow, Russia)","facebook_places",339700446122022,55.837766284682999,37.573804084210998,"Метро Петровско-Разумовская","Метро Петровско-Разумовская"
"2019-02-13 18:49:10.34181+01",2263939263850529,"Зеленый просп.","","facebook_places",2263939263850529,55.751221439303997,37.786617279052997,"Метро Перово (metro Perovo)","Метро Перово (metro Perovo)"
"2019-02-16 14:38:36.132342+01",404754821,"Улица Свободы","","facebook_places",224763200913541,55.858611109999998,37.446388890000002,"Severnoye Tushino District","Severnoye Tushino District"
"2019-02-24 17:06:24.706713+01",946590806,"Территория Инновационного центра «Сколково», Большой бульвар, 42, корп. 1","Москва","facebook_places",369635769772641,55.691955253263998,37.346735000610003,"Форум ""Открытые инновации""","Форум ""Открытые инновации"""
"2019-02-24 16:59:35.536479+01",1299465473431503,"Станционная улица 6","","facebook_places",1299465473431503,55.847110000000001,37.591450000000002,"МЦК Владыкино","МЦК Владыкино"
"2019-02-24 17:21:11.042361+01",507070486,"","","facebook_places",517241231627608,47.261411340000002,39.694533980000003,"Медицинский Университет","Медицинский Университет"
"2019-02-25 09:07:28.432439+01",1015507456,"Китайгородский проезд дом 7","Москва (Moscow, Russia)","facebook_places",1395764934023943,55.752057973333002,37.633345501332997,"Министерство промышленности и торговли Российской Федерации","Министерство промышленности и торговли Российской Федерации"
"2019-02-25 10:31:44.534793+01",1597959320263514,"одинцово","","facebook_places",1597959320263514,55.720108333333002,37.379730000000002,"Вегас Кунцево","Вегас Кунцево"
"2019-02-25 18:27:15.65301+01",217855963,"","","facebook_places",138672789496048,55.818888888888999,37.578888888888997,"Timiryazevskaya","Timiryazevskaya"
"2019-02-24 17:23:43.469226+01",1020766699,"Ул. Большая Дмитровка, д.32, стр.1","Москва","facebook_places",1059067684137666,55.765450000000001,37.610990000000001,"MENZA","MENZA"
"2019-02-25 09:09:21.787793+01",520604068289446,",Рязаньул. Высоковольтная, д.9","","facebook_places",520604068289446,54.622329999999998,39.709739900000002,"Рязанский Государственный  медицинский университет","Рязанский Государственный  медицинский университет"
"2019-02-24 17:32:44.613364+01",1204423936260996,"","","facebook_places",1204423936260996,55.642777777778001,37.526111111111000,"Beliaïevo","Beliaïevo"
"2019-02-24 17:26:29.71336+01",406558099,"проспект Ленина","Tula, Russia","facebook_places",506921586096512,54.345239337126003,37.358079221154000,"Тульский Государственный университет","Тульский Государственный университет"
"2019-02-24 17:29:20.418277+01",268461964,"улица Профессора Нужина","Казань (Kazan, Tatarstan)","facebook_places",165187426869260,55.792161149999998,49.122087652281003,"КГУ","КГУ"
"2019-02-24 17:30:41.355595+01",1958795797694340,"циолковского 4","Dolgoprudnyy, Moskovskaya Oblast', Russia","facebook_places",1958795797694340,55.931890000000003,37.516520000000000,"Dolmedia Долгопрудный","Dolmedia Долгопрудный"
"2019-02-24 17:30:42.730205+01",404957340,"","","facebook_places",113090198703824,48.641944444400004,44.422499999999999,"Volgograd State University","Volgograd State University"
"2019-02-24 17:28:36.803122+01",270054940,"","Luzhniki, Moskovskaya Oblast', Russia","facebook_places",628569540550489,52.928240696674997,36.017820839999999,"Лужники","Лужники"
"2019-02-24 17:29:25.422483+01",1035353416,"Ленина, 211А","Ставрополь, Ставропольский край","facebook_places",1152204734813205,45.040160000000000,41.972420000000000,"Marshmallow_stv","Marshmallow_stv"
"2019-02-25 09:10:33.097302+01",436946105,"","","facebook_places",110387082320273,55.462800000000001,37.700800000000001,"Domodedove, Moskovskaya Oblast', Russia","Domodedove"
"2019-02-24 17:37:41.18344+01",593507711,"ул. Большая Морская, д. 18","","facebook_places",108177562549656,59.934809999999999,30.316150000000000,"СПбГУТД","СПбГУТД"
"2019-02-25 10:18:09.611433+01",1026941704,"Полесский проезд д.16 стр.1","","facebook_places",1279164518765581,55.811588299999997,37.456668899999997,"Полесский Проезд д.16 стр.1","Полесский Проезд д.16 стр.1"
"2019-02-25 18:35:40.60352+01",268251168,"","","facebook_places",129609467080879,55.744444444444000,37.605555555556002,"Cathedral of Christ the Saviour","Cathedral of Christ the Saviour"
"2019-02-25 10:34:30.423528+01",504632353,"СВАО, район Бибирево","","facebook_places",210764292459094,55.891388890000002,37.603333329999998,"Бибирево","Бибирево"
"2019-02-25 18:48:27.649596+01",151576,"Ленинградское шоссе, 16А строение 4 ","Москва","facebook_places",180274172089514,55.823410000000003,37.497959999999999,"ТЦ МЕТРОПОЛИС","ТЦ МЕТРОПОЛИС"
"2019-02-25 08:57:35.237173+01",285075922333493,"Новинский бул., 8","","facebook_places",285075922333493,55.751297480957000,37.583971023559997,"Лотте Плаза","Лотте Плаза"
"2019-02-24 14:25:15.299298+01",616802161,"","","facebook_places",221634261380085,55.796734999999998,37.609620000000000,"Владыкино","Владыкино"
"2019-02-25 11:04:20.33559+01",338731066,"","","facebook_places",113520311994339,43.255800000000001,42.649400000000000,"Elbrus, Kabardino-Balkariya, Russia","Elbrus"
"2019-02-24 15:54:09.600164+01",1003050484,"","","facebook_places",135854036437044,55.741388888888999,37.654166666667002,"Tagansky District","Tagansky District"
"2019-02-25 14:41:24.441464+01",224955142,"","","facebook_places",112088222151683,53.510100000000001,49.418199999999999,"Togliatti, Russia","Togliatti"
"2019-02-24 17:34:15.313119+01",419665049,"","","facebook_places",111228645594852,59.939416904246997,30.298380696572000,"Universitetskaya Embankment","Universitetskaya Embankment"
"2019-02-25 08:47:23.216783+01",426320581139600,"","","facebook_places",426320581139600,56.833300000000001,53.183300000000003,"Ижевск","Ижевск"
"2019-02-25 14:44:51.776033+01",105998669432325,"","","facebook_places",105998669432325,55.649920000000002,37.664470000000001,"National Research Nuclear University ""MEPhI""","National Research Nuclear University ""MEPhI"""
"2019-02-25 10:42:07.360325+01",1986200171700461,"Ленинский проспект 4","","facebook_places",1986200171700461,55.728412051130000,37.608602670499998,"НИТУ МИСиС","НИТУ МИСиС"
"2019-02-25 12:15:48.784836+01",214497334,"Сочи, А-355, Аэропорт","","facebook_places",106136902750983,43.448646410423997,39.942333096380999,"Sochi International Airport","Sochi International Airport"
"2019-02-25 15:42:46.242637+01",219842857,"","","facebook_places",112396232109865,56.141800000000004,47.248600000000003,"Cheboksary","Cheboksary"
"2019-02-22 18:42:43.719573+01",360055469,"","","facebook_places",112258738789364,26.052199999999999,50.508400000000002,"University of Bahrain","University of Bahrain"
"2019-02-22 18:42:46.828753+01",217565357,"","MOSKVA","facebook_places",254548298038090,55.775155100433999,37.635633227263000,"Красная Площадь","Красная Площадь"
"2019-02-25 09:04:31.221294+01",393591894,"","","facebook_places",111319718886543,55.159999999999997,61.388900000000000,"Chelyabinsk, Russia","Chelyabinsk"
"2019-02-22 18:43:46.585543+01",213273792,"Кутузовский проспект, 48","Москва","facebook_places",148469735199378,55.731840200952000,37.489549252628997,"Ресторан&Бар ""Облака""","Ресторан&Бар ""Облака"""
"2019-02-22 21:58:30.687317+01",557548989,"ул. Первомайская, д. 7а","","facebook_places",139890682818814,55.930840261299998,37.520535942199999,"Столовая МФТИ","Столовая МФТИ"
"2019-02-25 19:30:15.86747+01",1023353037,"Академика Лаврентьева, дом 8","","facebook_places",891342150980676,55.940610000000000,37.502479999999998,"Garage Craft Beer- магазин Крафтового пива","Garage Craft Beer- магазин Крафтового пива"
"2019-02-25 19:30:22.723911+01",380997642237267,"проспект Пацаева, д. 7, корп. 6","","facebook_places",380997642237267,55.947060000000000,37.501649999999998,"DRUG BAR","DRUG BAR"
"2019-02-24 16:45:22.170453+01",213709399,"","","facebook_places",106041442770197,51.137999999999998,71.424899999999994,"Astana, Kazakhstan","Astana"
"2019-02-22 12:59:53.602303+01",215138509,"Banawe Street, corner Alcaraz Street","","facebook_places",109428412416140,1.248000000000000,103.829999999999998,"Sentosa","Sentosa"
"2019-02-25 10:48:43.571284+01",478902,"Кремль, Государственный Кремлевский Дворец","Москва","facebook_places",141598399242815,55.751755130863998,37.615190103289997,"Государственный Кремлевский Дворец","Государственный Кремлевский Дворец"
"2019-02-25 17:52:41.859267+01",217973792,"Crocus City Hall","Krasnogorsk, Moskovskaya Oblast', Russia","facebook_places",149479175116837,55.826164518699997,37.390524265720003,"Crocus City Hall","Crocus City Hall"
"2019-02-25 10:25:29.449544+01",423860212,"","","facebook_places",140145676010905,55.777222219999999,37.789444439999997,"Izmaylovsky Park","Izmaylovsky Park"
"2019-02-25 12:07:42.593461+01",612035524,"Хамовники","","facebook_places",643391542373574,55.726111111111003,37.571111111111001,"Хамовники","Хамовники"
"2019-02-25 19:33:52.299612+01",499996008,"Пречистенская набережная , 11","MOSKVA","facebook_places",577181095692299,55.737850000000002,37.603630000000003,"РАНХиГС","РАНХиГС"
"2019-02-25 12:06:55.207533+01",221042725,"","","facebook_places",112221025456744,57.816699999999997,28.333300000000001,"Pskov","Pskov"
"2019-02-25 12:13:46.544391+01",417840945,"Проспект мира 111","Москва","facebook_places",725192127525947,55.823297840526998,37.639831521919000,"Музей космонавтики","Музей космонавтики"
"2019-02-24 16:59:34.273634+01",702941662,"","","facebook_places",1385058025090293,55.872222219999998,37.504722219999998,"Ховрино","Ховрино"
"2019-02-25 18:56:22.367994+01",2074009,"Берсеневская наб., д.6, стр.1","Москва","facebook_places",231809386866836,55.740185337174999,37.608781456947000,"Красный Октябрь","Красный Октябрь"
"2019-02-25 18:08:21.015107+01",221948597,"Россия, Москва, район Восточное Дегунино","","facebook_places",192925320777127,55.878100000000003,37.565800000000003,"Vostochnoye Degunino District","Vostochnoye Degunino District"
"2019-02-25 16:01:38.635107+01",214713732,"7 Bolshoi Zlatoustinskiy Per. (m) Kitai-Gorod","Москва","facebook_places",57288374844,55.758699999999998,37.632730000000002,"Propaganda (Moscow)","Propaganda (Moscow)"
"2019-02-25 12:13:15.3242+01",16994049,"Территория Инновационного центра «Сколково», ул. Большой бульвар, 42, корп. 1","","facebook_places",262194407197534,55.692282901436997,37.347548362971999,"Технопарк Сколково","Технопарк Сколково"
"2019-02-15 00:45:43.029115+01",283338922517891,"парк у  Долгих Прудов ","","facebook_places",283338922517891,55.931133080835998,37.531909965341001,"Лыжная трасса МФТИ","Лыжная трасса МФТИ"
"2019-02-25 08:58:27.796147+01",228466596,"","","facebook_places",103766729662752,56.000000000000000,38.366700000000002,"Chernogolovka","Chernogolovka"
"2019-02-25 08:47:32.743734+01",701174562,"","","facebook_places",358282297688753,53.916666666666998,37.583333333333002,"Tula Oblast","Tula Oblast"
"2019-02-25 16:54:39.92786+01",80246,"105005, Москва, Рубцовская наб., д. 2/18","","facebook_places",276629405788591,55.770691977017996,37.691912843612997,"УЛК МГТУ им. Н. Э. Баумана","УЛК МГТУ им. Н. Э. Баумана"
"2019-02-25 17:54:25.542027+01",294132386,"Mezhdunarodnaya 12","Krasnogorsk, Moskovskaya Oblast', Russia","facebook_places",641739205901487,55.820442539397000,37.386418253038002,"Vegas City Hall","Vegas City Hall"
"2019-02-25 12:25:40.178382+01",217467899,"","","facebook_places",107975022563816,56.016666666667000,37.483333333333000,"Lobnya","Lobnya"
"2019-02-25 10:42:10.385035+01",3753402,"","","facebook_places",107952409225233,54.782777777778001,32.045277777777997,"Smolensk","Smolensk"
"2019-02-25 08:48:24.292776+01",213477352,"","","facebook_places",111858022159477,25.933000000000000,-80.162400000000005,"North Miami Beach, Florida","North Miami Beach"
"2019-02-25 18:20:35.958738+01",6534015,"Калинина 13","г. Краснодар, Краснодарский край (Krasnodar)","facebook_places",217447224946358,45.044435399999998,38.927716400000001,"КубГАУ","КубГАУ"
"2019-02-25 12:14:49.570923+01",505941942,"","","facebook_places",120381834701502,55.708611111110997,37.622500000000002,"Tulskaya","Tulskaya"
"2019-02-25 10:37:46.812429+01",462680411,"ул. Варварка, 6","Москва","facebook_places",186196258195700,55.750986464550998,37.626793631623002,"Zaryadye Park","Zaryadye Park"
"2019-02-25 10:57:23.185814+01",5076402,"Волоколамское шоссе, 69","Москва","facebook_places",531082510251488,55.817836659572002,37.440290451049996,"Открытие Арена","Открытие Арена"
"2019-02-25 16:38:03.235246+01",497277308,"СВАО, район Бибирево","","facebook_places",263664773666419,55.887411700000001,37.606650100000003,"Bibirevo District","Bibirevo District"
"2019-02-25 15:24:04.692833+01",503225474,"vavilova","","facebook_places",694965343918242,55.679253816401001,37.547403424563001,"Москва, Улица Вавилова.","Москва"
"2019-02-22 20:48:17.426632+01",35060,"улица Каретный Ряд, 3","Москва","facebook_places",413002165422610,55.770800000000001,37.609229900000002,"Сад ""Эрмитаж""","Сад ""Эрмитаж"""
"2019-02-25 18:31:48.793091+01",275654836,"","","facebook_places",546128262150296,55.931652593477999,37.478860700538000,"Набережная Канала Им. Москвы","Набережная Канала Им. Москвы"
"2019-02-25 19:22:23.040711+01",589227922,"","","facebook_places",109970465688029,53.016700000000000,158.650000000000006,"Petropavlovsk, Kamchatskaya Oblast', Russia","Petropavlovsk"
"2019-02-23 11:04:11.025367+01",787962,"улица Покрышкина, дом 4","Москва","facebook_places",213398748674220,55.665070000000000,37.481389999999998,"Starbucks","Starbucks"
"2019-02-25 12:04:04.582479+01",504560694,"","Moskva","facebook_places",290485784458304,55.803649000000000,37.810850000000002,"Москва Река","Москва Река"
"2019-02-25 11:04:37.193481+01",221453191,"Измайловский Вал, д.2","Москва","facebook_places",107740426031863,55.807540000000003,37.509480000000004,"Университет СИНЕРГИЯ","Университет СИНЕРГИЯ"
"2019-02-25 19:29:55.786+01",221130590,"","","facebook_places",112217965471773,54.729399999999998,55.950600000000001,"Ufa, Russia","Ufa"
"2019-02-25 12:37:04.789902+01",1614825342154126,"Московская область, г. Одинцово, ул. Ново-спортивная, д.3","","facebook_places",1614825342154126,55.680578772045003,37.277147769928000,"МГИМО-Одинцово","МГИМО-Одинцово"
"2019-02-25 13:59:08.670003+01",942920991,"ул.2-я Бауманская д.5 ","Москва","facebook_places",271826552857385,55.765749999999997,37.685600000000001,"МГТУ им.Н.Э.Баумана/ГУИМЦ","МГТУ им.Н.Э.Баумана/ГУИМЦ"
"2019-02-25 12:01:25.815309+01",990208301,"Конюшковский Малый пер., 2","","facebook_places",1440446759616972,55.758270300000000,37.580169699999999,"Точка Кипения АСИ","Точка Кипения АСИ"
"2019-02-25 16:21:46.296968+01",213734388,"ул. Саморы Машела, 1","Москва (Moscow, Russia)","facebook_places",244078662310917,55.653052074690997,37.492713488101003,"ФНКЦ ДГОИ Им. Димы Рогачева","ФНКЦ ДГОИ Им. Димы Рогачева"
"2019-02-25 17:52:51.586482+01",8374551,"Одинцовский р-н, Волково д., Московская обл.","","facebook_places",148758828532525,55.683057051161001,36.691736581721003,"Пансионат ""Солнечная Поляна""","Пансионат ""Солнечная Поляна"""
"2019-02-25 12:06:28.51857+01",224642829,"Москва, Ярославское шоссе, 26","Москва","facebook_places",340365909410532,55.852515525523998,37.698654705604000,"НИУ МГСУ / MGSU","НИУ МГСУ / MGSU"
"2019-02-25 08:58:43.046964+01",218371649,"","","facebook_places",110999745655516,55.766730840000001,37.685583129999998,"МГТУ им. Н.Э. Баумана","МГТУ им. Н.Э. Баумана"
"2019-02-25 16:23:28.145893+01",213010669,"","","facebook_places",104098062958601,55.787777777800002,37.608055555599996,"Moscow State University of Railway Engineering","Moscow State University of Railway Engineering"
"2019-02-25 12:21:27.666377+01",1890451891207912,"Малая Бронная 28/2","Москва","facebook_places",1890451891207912,55.763719999999999,37.594130000000000,"Margarita Bistro","Margarita Bistro"
"2019-02-25 13:58:44.976524+01",213609641,"Kutuzovskiy prospekt, 48","Moscow, Russia","facebook_places",172011276184432,55.731710000000000,37.487139999999997,"Vremena Goda Moscow","Vremena Goda Moscow"
"2019-02-25 10:19:46.924374+01",360400790,"Крымский вал, 9","","facebook_places",174197865966845,55.731439999999999,37.603369999999998,"Парк Горького (Москва)","Парк Горького (Москва)"
"2019-02-25 19:11:23.63654+01",217902418,"Крымский вал, 9","","facebook_places",178410178889529,55.731602093250999,37.603802877471999,"Gorky Park (Moscow)","Gorky Park (Moscow)"
"2019-02-25 19:33:54.047072+01",33860514,"Щербаковская, 38","MOSKVA","facebook_places",659556074055421,55.780709999999999,37.732390000000002,"Финансовый Университет При Правительстве Рф","Финансовый Университет При Правительстве Рф"
"2019-02-22 18:58:27.809548+01",507527231,"Новодачная ул.","Moscow, Russia","facebook_places",234934323374378,55.859279510000000,37.519298999999997,"Парк Усадьбы Заболотье","Парк Усадьбы Заболотье"
"2019-02-25 15:12:32.574026+01",288968228171973,"Петровка, 27","Москва","facebook_places",288968228171973,55.767719999999997,37.613639900000003,"КЛЕВО. Рыбный ресторан Аркадия Новикова","КЛЕВО. Рыбный ресторан Аркадия Новикова"
"2019-02-23 11:26:07.99756+01",15885066,"","","facebook_places",150735995064439,55.927853820000003,37.531438559999998,"Роща","Роща"
"2019-02-25 19:24:38.707702+01",1854374768182877,"Московские Водники, Долгопрудный, Старое Дмитровское шоссе, 15.","","facebook_places",1854374768182877,55.961558533361000,37.529197766758003,"Московские Водники, Долгопрудный, Старое Дмитровское Шоссе, 15.","Московские Водники"
"2019-02-25 08:49:22.432245+01",201008784148000,"ул. Садовая-Самотечная, 8","","facebook_places",201008784148000,55.772502061965000,37.614724053802000,"МГПУ","МГПУ"
"2019-02-25 19:29:41.16233+01",410299060,"Дубнинская улица","Moscow, Russia","facebook_places",826487044029923,55.897641970066999,37.553285884360001,"Станция-Лианозово","Станция-Лианозово"
"2019-02-24 15:30:47.715246+01",2303946169678644,"Коммунистическая ул., 47","Ufa, Russia","facebook_places",2303946169678644,54.726813511282998,55.944045782088999,"Пивнушка на мельнице","Пивнушка на мельнице"
"2019-02-22 19:00:49.545072+01",1031119085,"Волгоградский пр-кт д.32 к.4","Москва","facebook_places",1839434732950403,55.720739999999999,37.692630000000001,"Tesla Hall","Tesla Hall"
"2019-02-25 08:49:37.481173+01",510095972,"Черкасская улица","Krasnodar","facebook_places",629601763787899,45.065501250080999,39.020289133295996,"На Черкасской","На Черкасской"
"2019-02-24 13:48:29.345202+01",235188616501103,"Yaroslavskoye Shosse, 26","Moscow, Russia","facebook_places",235188616501103,55.856439999999999,37.690069999999999,"Moscow State University of Civil Engineering","Moscow State University of Civil Engineering"
"2019-02-24 14:48:50.630126+01",419260780,"Пресненская наб., 7с1","Москва","facebook_places",860742193938427,55.747059999999998,37.539319999999996,"The Moscow City","The Moscow City"
"2019-02-25 10:51:09.804823+01",214568397,"","","facebook_places",218322188198641,59.950000000000003,30.316666666667000,"Saint Petersburg","Saint Petersburg"
"2019-02-25 10:58:00.157965+01",1019328940,"ш. Энтузиастов, дом 5","Москва","facebook_places",1628286274100299,55.749221783967997,37.696305954609997,"TESLA 4000","TESLA 4000"
"2019-02-24 13:48:41.006661+01",2146717238923781,"МФТИ","","facebook_places",2146717238923781,55.929287447047997,37.520772915617996,"Новый корпус (Корпус микроэлектроники)","Новый корпус (Корпус микроэлектроники)"
"2019-02-25 10:56:51.266886+01",226542481,"","","facebook_places",116511638359013,53.200000000000003,45.016700000000000,"Penza, Russia","Penza"
"2019-02-25 15:52:44.214459+01",498053705,"Сокольническая площадь","","facebook_places",123285881050061,55.800277777778000,37.674166666666998,"Sokolniki Park","Sokolniki Park"
"2019-02-25 15:57:18.118709+01",575585953,"","","facebook_places",144197022263922,55.765000000000001,37.691388889999999,"Lefortovo District","Lefortovo District"
"2019-02-23 11:06:47.663129+01",519846,"ул. Тверская, 20/1","","facebook_places",170800102957638,55.766739999999999,37.602280000000000,"ДжонДжоли","ДжонДжоли"
"2019-02-24 13:48:57.368324+01",265607205,"Москва, ул. Авиационная 79","Москва","facebook_places",526621464038633,55.806152998012003,37.448064904489002,"Яхт-клуб ""Алые Паруса""","Яхт-клуб ""Алые Паруса"""
"2019-02-22 19:21:17.771342+01",3298299,"Московское шоссе","","facebook_places",448820068563875,55.939109449999997,37.520037450010001,"Станция Долгопрудная","Станция Долгопрудная"
"2019-02-25 18:01:10.640447+01",941843298,"Крымский вал 9 ","Москва","facebook_places",116007168484631,55.731439999999999,37.603369999999998,"Парк Горького","Парк Горького"
"2019-02-24 14:09:19.228911+01",736335376728616,"Огородный пр.","Moscow, Russia","facebook_places",736335376728616,55.813882262733003,37.601695060730002,"Метро Бутырская (metro Butyrskaya)","Метро Бутырская (metro Butyrskaya)"
"2019-02-25 12:09:48.001195+01",1733323413644627,"Петровка","","facebook_places",1733323413644627,55.765940000000000,37.615679999999998,"Москва ЦУМ","Москва ЦУМ"
"2019-02-25 10:26:53.459542+01",1008623949,"55-й км Минского шоссе","Кубинка","facebook_places",407946952703132,55.572667624179999,36.831579208374002,"Парк Патриот","Парк Патриот"
"2019-02-25 08:51:11.019406+01",213158478,"Россия, Москва, Проспект Мира, 150","Москва","facebook_places",107597869334549,55.822569332211998,37.645967776554002,"Hotel Cosmos, Moscow Russia","Hotel Cosmos"
"2019-02-22 23:08:43.949129+01",1017279938,"","","facebook_places",112008858815870,55.929444444444002,37.521388888889000,"Institut de physique et de technologie de Moscou","Institut de physique et de technologie de Moscou"
"2019-02-25 10:37:58.503483+01",218406126,"Leninsky prospekt 14, Moscow","","facebook_places",106209302743440,55.710794444443998,37.577813888888997,"Russian Academy of Sciences","Russian Academy of Sciences"
"2019-02-22 19:15:04.986608+01",275638462,"Алтуфьевское шоссе","Moscow, Russia","facebook_places",268891396625501,55.894585550000002,37.580216774999997,"Лианозово","Лианозово"
"2019-02-23 11:11:02.41363+01",1402101,"Dmitrovskoye Shosse","Moskva","facebook_places",271687442973090,55.906642390077003,37.537493240563002,"Платформа Марк","Платформа Марк"
"2019-02-22 19:20:02.75829+01",509931024,"Дмитровское шоссе 171","","facebook_places",356806887727339,55.943566024768003,37.536401602871997,"Holiday Inn Vinogradovo Moscow","Holiday Inn Vinogradovo Moscow"
"2019-02-25 18:16:04.03318+01",213174824,"","","facebook_places",108131085886116,59.931046000000002,30.360478000000000,"Saint Petersburg, Russia","Saint Petersburg"
"2019-02-22 21:23:56.370816+01",84505115,"","","facebook_places",432401363439311,55.945981955000001,37.501675030000001,"ПКиО","ПКиО"
"2019-02-25 12:15:54.378898+01",1020507039,"ул. Бориса Ельцина, д. 3","г. Екатеринбург, Свердловская обл. (Yekaterinburg,...","facebook_places",440216556122825,56.845039399999997,60.589618700000003,"Президентский центр Бориса Ельцина","Президентский центр Бориса Ельцина"
"2019-02-23 01:33:50.891527+01",417575492,"","","facebook_places",221877337822785,55.924867825348997,37.527193467426002,"Пл. Новодачная","Пл. Новодачная"
"2019-02-22 19:20:11.697278+01",1032719341,"Московская область, г. Одинцово, ул. Ново-спортивная, д.3","","facebook_places",840778306066129,55.680579999999999,37.277349999999998,"МГИМО Одинцовский Филиал","МГИМО Одинцовский Филиал"
"2019-02-25 09:06:53.747254+01",214854889,"Volokolamskoe Shosse 4","Москва","facebook_places",118187594923097,55.811639999999997,37.502389999999998,"Moscow Aviation Institute","Moscow Aviation Institute"
"2019-02-25 19:30:14.698234+01",220506321,"","","facebook_places",111562282204415,55.929699999999997,37.513300000000001,"Dolgoprudyy, Moskovskaya Oblast', Russia","Dolgoprudyy"
"2019-02-23 11:12:37.023241+01",214348176,"","","facebook_places",289298631197316,53.896700733098001,27.550426842488001,"Minsk / Belarus","Minsk / Belarus"
"2019-02-22 19:21:22.83324+01",637713684,"","","facebook_places",438103809610587,18.706785642345000,109.670783051559994,"Narada Qixian Mountain Resort, Hainan Island","Narada Qixian Mountain Resort"
"2019-02-25 10:53:34.809398+01",212999109,"","","facebook_places",110970792260960,34.052199999999999,-118.242999999999995,"Los Angeles, California","Los Angeles"
"2019-02-25 16:01:37.192001+01",361427547538610,"Тверской бульвар, 14 стр. 4","Москва","facebook_places",361427547538610,55.759590000000003,37.601320000000001,"DIDI","DIDI"
"2019-02-25 15:38:10.802972+01",213087839,"","","facebook_places",116273651719563,43.585299999999997,39.720300000000002,"Sochi, Russia","Sochi"
"2019-02-25 17:18:52.803963+01",215571386,"ул. Восточная, д.4, корп.1","Москва","facebook_places",255638201192596,55.714450800000002,37.657901799999998,"Культурный центр ЗИЛ","Культурный центр ЗИЛ"
"2019-02-25 13:04:05.744607+01",967833808,"Новоостаповская улица 5/2","Москва","facebook_places",410969428975436,55.723460000000003,37.677079999999997,"Ледовый комплекс ""Арена Морозово""","Ледовый комплекс ""Арена Морозово"""
"2019-02-22 19:22:02.773076+01",219033267,"Hainan 神州半岛-Shenzhou Peninsula","","facebook_places",396166387076813,18.672123555426001,110.353498928009998,"Shenzhou Sheraton","Shenzhou Sheraton"
"2019-02-25 09:08:17.933724+01",449003439,"","","facebook_places",106291082740239,56.833300000000001,53.183300000000003,"Izhevsk, Udmurtiya","Izhevsk"
"2019-02-25 10:25:42.906868+01",215711407,"","","facebook_places",114741018538386,55.016700000000000,82.933300000000003,"Novosibirsk, Russia","Novosibirsk"
"2019-02-25 08:47:14.924767+01",510433149064437," Москва, Калужское ш., 23-й км, п. Сосенское, домовл., 14, стр. 3 ","Moscow, Russia","facebook_places",510433149064437,55.391219999999997,37.230719999999998,"К2 Бизнес-парк","К2 Бизнес-парк"
"2019-02-25 10:48:05.502217+01",300491777082305,"190000, St Petersburg, Dvortsovaya Naberezhnaya (Embankment), 34","","facebook_places",300491777082305,59.938110000000002,30.312550000000002,"Hermitage, St Petersburg Russia Is An Occupier","Hermitage"
"2019-02-25 08:47:08.200176+01",991955814244902,"","","facebook_places",991955814244902,55.758055555555998,37.749722222221998,"Shosse Entuziastov (Moscow Metro)","Shosse Entuziastov (Moscow Metro)"
"2019-02-25 16:11:26.525574+01",44272342,"Манежная площадь, д.1, стр.2","Москва","facebook_places",120435867989392,55.755809999999997,37.614600000000003,"Охотный ряд","Охотный ряд"
"2019-02-25 10:19:51.882279+01",213742796,"","","facebook_places",108361222522278,45.033333333332998,38.983333333333000,"Krasnodar","Krasnodar"
"2019-02-24 14:47:15.940771+01",499302432,"","","facebook_places",425956224095172,55.790881479500001,37.672525028700001,"Афимолл Сити","Афимолл Сити"
"2019-02-25 12:49:08.072865+01",3095309,"Бульвар Строителей, дом 1","Krasnogorsk, Moskovskaya Oblast', Russia","facebook_places",244952745565423,55.815978264625002,37.381412862493001,"Дом Правительства Московской области","Дом Правительства Московской области"
"2019-02-25 14:04:03.657835+01",689048686," ул.Лётная, д.7","МО, г.Долгопрудный","facebook_places",651356334969182,55.931696301106001,37.500807903772000,"Физтех-Лицей им. Капицы","Физтех-Лицей им. Капицы"
"2019-02-25 12:23:49.362368+01",308055992544897,"ул. Введенского д.1А","Москва","facebook_places",308055992544897,55.648429999999998,37.551319900000003,"Московский финансово-юридический университет МФЮА","Московский финансово-юридический университет МФЮА"
"2019-02-24 16:03:36.63538+01",504050704,"Пирогова,1","","facebook_places",148685188613910,54.843778555961002,83.090675624796006,"НГУ Новосибирск","НГУ Новосибирск"
"2019-02-25 08:56:02.85022+01",1733237326972559,"","","facebook_places",1733237326972559,55.752200000000002,37.615600000000001,"Кутузовский Проспект","Кутузовский Проспект"
"2019-02-25 10:32:26.371421+01",499651571,"Красная улица","Krasnodar","facebook_places",1495577694004374,45.049042933335002,39.028469899999003,"Москва","Москва"
"2019-02-25 09:03:00.634282+01",1936065850020770,"Сигнальный пр.","Moscow, Russia","facebook_places",1936065850020770,55.848745707870002,37.590064231150997,"Остановка «Метро Владыкино»","Остановка «Метро Владыкино»"
"2019-02-25 16:15:22.0861+01",223217877,"Серебряническая набережная, 29","Москва (Moscow, Russia)","facebook_places",185810054813019,55.750639999999997,37.653269999999999,"БЦ Серебряный Город","БЦ Серебряный Город"
"2019-02-24 17:49:24.267136+01",585040304,"22, Naberezhnaya str","Dolgoprudyy","facebook_places",121251654618052,55.955680000000001,37.516260000000003,"Мореман","Мореман"
"2019-02-25 19:32:47.101237+01",294063762,"Первомайская улица","Dolgoprudyy, Moskovskaya Oblast', Russia","facebook_places",1378602805758677,55.932389999999998,37.520389999999999,"Долгопрудный","Долгопрудный"
"2019-02-24 14:21:21.708283+01",414191348,"","","facebook_places",110758072275440,55.908900000000003,37.733899999999998,"Mytischtschi, Moskovskaya Oblast', Russia","Mytischtschi"
"2019-02-25 08:56:57.681346+01",2037327499664636,"8-й км Рублево-Успенского ш., 114","","facebook_places",2037327499664636,55.738838111981004,37.268465568963002,"Барвиха Luxury Village","Барвиха Luxury Village"
"2019-02-25 09:04:15.436058+01",338594090225371,"Алтуфьевское ш.","","facebook_places",338594090225371,55.898563070217001,37.587033098260001,"Остановка «Метро Алтуфьево»","Остановка «Метро Алтуфьево»"
"2019-02-25 10:19:44.096577+01",748789279,"","","facebook_places",1585232988380240,55.608102947749003,38.172096982597999,"Кратовское Лесное Озеро","Кратовское Лесное Озеро"
"2019-02-22 19:43:58.651+01",498266423,"70-й км Приозерского шоссе","Петровское (Приозерский район) (Petyayarvi)","facebook_places",394825223878004,60.644319830000001,30.201668670000000,"Связист","Связист"
"2019-02-25 15:07:18.682743+01",1029916422,"Новый бульвар 5","","facebook_places",1561522827491220,55.937640000000002,37.507289999999998,"ART of FIGHT","ART of FIGHT"
"2019-02-22 22:01:07.505571+01",1026330145,"Институтский пер.,9","Dolgoprudnyy, Moskovskaya Oblast', Russia","facebook_places",659452837441145,55.930558599999998,37.517139499999999,"МФТИ - Физтех","МФТИ - Физтех"
"2019-02-25 12:46:50.837238+01",370072686,"","","facebook_places",106503359386874,48.473399999999998,135.067299999999989,"Khabarovsk, Russia","Khabarovsk"
"2019-02-25 12:58:23.714813+01",893745838,"Пресненская набережная, д. 8, стр. 1","Москва","facebook_places",420116208190744,55.747501821492001,37.538974285126002,"THE MOSCOW CITY","THE MOSCOW CITY"
"2019-02-22 22:51:47.599624+01",1007907280,"","","facebook_places",531518520222533,55.929444444444002,37.521388888889000,"Instituto de Física y Tecnología de Moscú","Instituto de Física y Tecnología de Moscú"
"2019-02-25 10:21:32.217525+01",546385559,"Будущее","","facebook_places",523463564431080,45.480013339999999,9.212910170000001,"Будущее","Будущее"
"2019-02-25 09:05:35.87401+01",1074784106032798,"Институтский пер.,8","","facebook_places",1074784106032798,55.931460000000001,37.517449900000003,"Burger bar Chilli Out","Burger bar Chilli Out"
"2019-02-25 13:56:54.197727+01",213158406,"","","facebook_places",107805995909391,55.751111111111001,37.596111111111000,"Arbat Street","Arbat Street"
"2019-02-22 00:55:11.545321+01",13518604,"Россия, Москва, метро Площадь Ильича","Moscow, Moscow City, Russia (Moscow, Russia)","facebook_places",206845022669366,55.744970490637002,37.679638349557997,"Площадь Ильича","Площадь Ильича"
"2019-02-25 14:28:21.064458+01",713921852080164,"Кутузовский проспект, 2/1, стр.1","","facebook_places",713921852080164,55.751449600000001,37.565650900000001,"Гостиница Украина Ресторан BONO","Гостиница Украина Ресторан BONO"
"2019-02-25 08:50:05.671106+01",699155,"","","facebook_places",371044052943311,55.888037058499997,37.478694726800001,"Левый Берег, Химки","Левый Берег"
"2019-02-25 09:02:13.767866+01",213131048,"","","facebook_places",111175118906315,52.518391000000001,13.401251000000000,"Berlin, Germany","Berlin"
"2019-02-25 09:05:56.987171+01",497565062,"Преображенская улица","","facebook_places",1398309223783496,50.599519999999998,36.582859900000002,"Белгородский Государственный университет-Социально-Теологический факультет","Белгородский Государственный университет-Социально-Теологический факультет"
"2019-02-22 19:51:36.012232+01",317683263,"","","facebook_places",451859071502075,59.923352198171003,30.322073014339999,"Санкт-Петербург, Россия","Санкт-Петербург"
"2019-02-25 10:20:10.025076+01",456156227,"","","facebook_places",551296378255443,55.916666666666998,37.816666666666997,"Королёв","Королёв"
"2019-02-25 19:32:45.686942+01",636606262,"","","facebook_places",108231082537595,55.929130047999998,37.521133046000003,"Moscow Institute of Physics and Technology","Moscow Institute of Physics and Technology"
"2019-02-25 19:25:08.404612+01",13338,"Ленинские Горы, дом 1","Москва","facebook_places",424791787567328,55.702536870213002,37.531142602538999,"Московский государственный университет имени М.В.Ломоносова","Московский государственный университет имени М.В.Ломоносова"
"2019-02-23 11:02:04.921608+01",440336622,"","","facebook_places",203465709677924,55.929225253885001,37.517891165927999,"Мфти Главный Корпус","Мфти Главный Корпус"
"2019-02-25 19:31:37.628713+01",290652241,"","Dolgoprudyy, Moskovskaya Oblast', Russia","facebook_places",1493554024197164,55.948400000000000,37.498849999999997,"Долгопрудный","Долгопрудный"
"2019-02-22 21:58:40.940874+01",1026683744,"Новодмитровская, 5А, строение 2.","","facebook_places",204804039869168,55.807240000000000,37.588349999999998,"Fotohive","Fotohive"
"2019-02-25 12:06:39.204752+01",124586848212362,"г.Химки, Левобережный район","Химки, Московская область","facebook_places",124586848212362,55.894649999999999,37.478510000000000,"Левобережный, Химки","Левобережный"
"2019-02-25 18:34:27.135937+01",214332343,"","","facebook_places",301734119937188,52.987923412158999,36.059974386935998,"Орел","Орел"
"2019-02-25 08:47:10.922538+01",580941465,"Алтуфьево","","facebook_places",479262522144042,55.897777777778003,37.586944444444001,"Алтуфьево","Алтуфьево"
"2019-02-25 08:51:21.791238+01",226550279,"","","facebook_places",139837606076695,55.983113720341997,37.208909889971999,"MIET (Russia)","MIET (Russia)"
"2019-02-25 09:03:47.376897+01",164530400648470,"м. Соколо","","facebook_places",164530400648470,55.805439999999997,37.503850000000000,"Экспериментариум","Экспериментариум"
"2019-02-25 09:03:50.095493+01",1034530107,"Ул. Большая Пироговская, д. 2, стр. 4","Москва","facebook_places",362254993913188,55.731279999999998,37.568080000000002,"Первый МГМУ имени И.М. Сеченова","Первый МГМУ имени И.М. Сеченова"
"2019-02-23 11:07:44.42877+01",213006946,"","","facebook_places",125850760791991,48.853138888888999,2.369111111111100,"Place de la Bastille","Place de la Bastille"
"2019-02-25 16:02:08.80635+01",737566741,"Сокольническая площадь","","facebook_places",216389261887268,55.800277777778000,37.674166666666998,"Сокольники","Сокольники"
"2019-02-25 08:48:03.817922+01",498395589,"Nobelya Ulitsa 3","Moscow, Russia","facebook_places",219605978125334,55.695533363966000,37.390647916094998,"Skolkovo Institute of Science and Technology","Skolkovo Institute of Science and Technology"
"2019-02-25 08:52:41.362535+01",1017667311,"пл. Собина, 3","Dolgoprudnyy, Moskovskaya Oblast', Russia","facebook_places",1452692931670145,55.936611200000002,37.512027699999997,"Долгопрудный","Долгопрудный"
"2019-02-25 09:05:21.248109+01",321780808588054,"Институтский пер. 9с7","","facebook_places",321780808588054,55.929634876430001,37.515907287597997,"Бизнес-инкубатор МФТИ «Физтех.Старт»","Бизнес-инкубатор МФТИ «Физтех.Старт»"
"2019-02-25 09:05:29.458398+01",1441240769303878,"Новомолоково","","facebook_places",1441240769303878,55.562742949503999,37.852277755736999,"ЖК «Ново-Молоково»","ЖК «Ново-Молоково»"
"2019-02-25 12:05:42.015943+01",218172732,"","","facebook_places",105578269476366,52.716700000000003,41.433300000000003,"Tambov","Tambov"
"2019-02-22 20:15:36.707868+01",567635516757767,"Кубинка","","facebook_places",567635516757767,55.759615550000000,37.594462980000003,"Армия-2016","Армия-2016"
"2019-02-25 19:22:16.885333+01",213048049,"Проспект Вернадского, 76","Москва","facebook_places",218105574869975,55.672494950301001,37.488010219190997,"МГИМО","МГИМО"
"2019-02-25 10:24:21.724808+01",376277979495025,"Академика Лаврентьева Д 23","","facebook_places",376277979495025,55.940289999999997,37.505000000000003,"Nuahule Smoke Dolgopa","Nuahule Smoke Dolgopa"
"2019-02-25 10:27:30.235779+01",8781604,"Сколковское шоссе, д. 45","Москва","facebook_places",126344830714011,55.698135026677001,37.394199371337997,"New Economic School","New Economic School"
"2019-02-25 10:28:30.030636+01",405037061,"","","facebook_places",143198302362403,55.642777777778001,37.526111111111000,"Belyayevo","Belyayevo"
"2019-02-25 18:47:56.41201+01",73985327,"121552, Москва, ул. Лавочкина, 32","Moscow, Moscow City","facebook_places",148820165188502,55.855960282345002,37.496550130223000,"Дворец Спорта ""Динамо""","Дворец Спорта ""Динамо"""
"2019-02-25 10:18:16.46008+01",269075311,"","","facebook_places",104056752963471,44.600000000000001,40.083300000000001,"Maykop","Maykop"
"2019-02-22 14:05:08.603221+01",135626596614853,"Ленинградский проспект, 39 стр. 79","Москва","facebook_places",135626596614853,55.796959999999999,37.537820000000004,"Mail.Ru Group Non-Standard Advertising","Mail.Ru Group Non-Standard Advertising"
"2019-02-25 09:05:44.618843+01",407080912,"","","facebook_places",161034723917308,55.996899999999997,37.250500000000002,"Zelenograd, Russia","Zelenograd"
"2019-02-25 08:58:28.654215+01",2116236305065072,"Главный Корпус МФТИ","Dolgoprudnyy, Moskovskaya Oblast', Russia","facebook_places",2116236305065072,55.929541259335998,37.517256847398002,"КЗ МФТИ","КЗ МФТИ"
"2019-02-25 09:07:31.855227+01",504604659,"Пятницкое Шоссе","","facebook_places",548486328530692,55.858443104999999,37.348721159400000,"Пятницкое шоссе","Пятницкое шоссе"
"2019-02-25 15:24:07.76837+01",377296141,"","","facebook_places",232608786860240,44.679341890000003,37.543996849999999,"Пансионат ""Моряк""","Пансионат ""Моряк"""
"2019-02-25 10:58:03.390421+01",528773663,"","","facebook_places",137992189562436,55.750999999999998,37.590000000000003,"Arbat District","Arbat District"
"2019-02-23 00:26:13.766727+01",510745596,"улица Гагарина, 16","Zhukovskiy, Moskovskaya Oblast', Russia","facebook_places",1532499796977419,55.604190000000003,38.106540000000002,"Московский Физико-Технический институт Фалт","Московский Физико-Технический институт Фалт"
"2019-02-25 19:15:39.81612+01",269141226,"","","facebook_places",462288117145291,55.697499999999998,37.357777779999999,"Skolkovo Innovation Center","Skolkovo Innovation Center"
"2019-02-22 20:27:02.47417+01",1773141,"Воронеж, ул. Бульвар Победы, 23 Б","г. Воронеж, Воронежская обл. (Voronezh)","facebook_places",107980195956374,51.710740000000001,39.159799999999997,"ТРК Арена","ТРК Арена"
"2019-02-25 12:15:34.294488+01",212994805,"Level +960, Gorky Gorod, Esto-Sadok, Sochi, Russia · Estosadok, Krasnodarskiy Kray, Russia","Estosadok, Krasnodarskiy Kray, Russia","facebook_places",504778836302032,43.670415095343998,40.261488969220998,"Rixos Krasnaya Polyana Sochi","Rixos Krasnaya Polyana Sochi"
"2019-02-25 19:27:30.386511+01",464460160627902,"","","facebook_places",464460160627902,55.867838539520001,37.589978044848998,"Отрадное-Алтуфьево","Отрадное-Алтуфьево"
"2019-02-25 19:30:07.180848+01",215030018,"Москва, ул. Воздвиженка, д.3/5","Москва","facebook_places",122637967785435,55.751309999999997,37.609340000000003,"Российская государственная библиотека","Российская государственная библиотека"
"2019-02-25 19:04:03.157815+01",14091773,"Lomonosov Moscow State University,GSP-1, Leninskie Gory, Moscow","","facebook_places",135004059904537,55.706282564033003,37.536661085562997,"МГУ - Moscow State University","МГУ - Moscow State University"
"2019-02-25 13:55:15.407733+01",499843506,"420111, РФ, Г. Казань, ул. Пушкина, д.30, офис 212","Kazan, Tataristan (Kazan, Tatarstan)","facebook_places",312174112166453,55.791209064396000,49.125065803528003,"Казань, Татарстан | Kazan, Tataristan","Казань"
"2019-02-22 14:17:49.765205+01",401350510,"","","facebook_places",113623825514434,55.741111111111003,37.629444444443998,"Новокузнецкая","Новокузнецкая"
"2019-02-25 08:55:03.163127+01",744095,"Новинский бульвар, 8","Москва","facebook_places",169773279711350,55.751379999999998,37.584389999999999,"Lotte Plaza","Lotte Plaza"
"2019-02-25 08:57:37.569974+01",575630949486458,"","","facebook_places",575630949486458,55.753055584214998,37.621125063256997,"ГУМ Красная Площадь","ГУМ Красная Площадь"
"2019-02-25 08:55:15.302317+01",76384854,"Московская область, Дмитровский район, д.Степаново","","facebook_places",331557286860603,56.260146073780000,37.429847567421000,"Горнолыжный Клуб Степаново","Горнолыжный Клуб Степаново"
"2019-02-25 09:07:54.511478+01",527843753,"141031, Московская обл., Мытищинский р-н, Вешки пос.","Москва","facebook_places",847282045287236,55.752200000000002,37.615600000000001,"Новые Вешки","Новые Вешки"
"2019-02-25 09:09:38.955614+01",264528814229160,"","","facebook_places",264528814229160,55.865272210294002,37.474828143777003,"Метро Беломорская","Метро Беломорская"
"2019-02-25 14:16:38.082708+01",152729938111322,"Новослободская, 23","Москва","facebook_places",152729938111322,55.781599999999997,37.598230000000001,"Центр им. Вс. Мейерхольда/The Meyerhold Theatre Centre","Центр им. Вс. Мейерхольда/The Meyerhold Theatre Centre"
"2019-02-25 10:23:37.402917+01",498569540,"Р257","","facebook_places",1581081772117276,43.192593350000003,44.539370250000999,"Ергаки","Ергаки"
"2019-02-25 10:21:30.22795+01",860129357,"","","facebook_places",378811438938196,55.762055560000000,37.585972220000002,"Kutafin Moscow State Law University","Kutafin Moscow State Law University"
"2019-02-25 12:06:34.334807+01",535233444,"","","facebook_places",425480140806144,55.720408705099999,37.593925976556001,"Президиум Академии Наук","Президиум Академии Наук"
"2019-02-22 20:34:14.55195+01",242917795,"Via Manzoni 12","","facebook_places",163052723846496,55.685352249373999,37.307111946455002,"Милан Италия","Милан Италия"
"2019-02-25 18:07:12.36722+01",485477738171377,"улица Гагарина, 16","","facebook_places",485477738171377,55.604190000000003,38.106540000000002,"МФТИ ФАЛТ","МФТИ ФАЛТ"
"2019-02-25 09:08:00.059307+01",1428747887193231,"Leningradsky Prospect, 80, Moscow, Russia, 127299","","facebook_places",1428747887193231,55.807540000000003,37.509480000000004,"Synergy University, Moscow, Russia","Synergy University"
"2019-02-25 10:24:04.767611+01",1432190430198920,"ул. Садовая-Самотечная, 8,","","facebook_places",1432190430198920,55.773009999999999,37.614400000000003,"МГПУ","МГПУ"
"2019-02-22 20:35:25.084519+01",352576463,"","","facebook_places",109438665741985,56.833333333333002,60.583333333333002,"Yekaterinburg","Yekaterinburg"
"2019-02-25 08:56:15.679914+01",507215474,"","","facebook_places",173818002701442,54.791312645251999,83.049747444280996,"Санаторий ""Барвиха""","Санаторий ""Барвиха"""
"2019-02-25 08:56:16.560656+01",1725241991116432,"Жуковка 71","","facebook_places",1725241991116432,55.737379767421999,37.241592407227003,"Рублевка","Рублевка"
"2019-02-25 08:56:32.36589+01",279001969388400,"","","facebook_places",279001969388400,56.929092046624000,24.176986320266000,"Рублёвка","Рублёвка"
"2019-02-25 10:57:33.181081+01",1810771748936494,"Москва, Проспект Мира 119, владение 75","","facebook_places",1810771748936494,55.829599871220999,37.639387914902002,"Москва, ВДНХ, пав. 75","Москва"
"2019-02-25 10:24:29.001943+01",282421442293791,"Каширское шоссе, 31 (м. Каширская)","","facebook_places",282421442293791,55.649920000000002,37.664470000000001,"НИЯУ МИФИ","НИЯУ МИФИ"
"2019-02-25 10:32:35.747784+01",293995661,"","","facebook_places",119351791443925,55.657222222222003,37.540277777778002,"Kaluzhskaya","Kaluzhskaya"
"2019-02-25 18:56:42.959065+01",803361052,"ул.Молодежная","","facebook_places",845864135449155,55.940401799999996,37.487314200000000,"Долгопрудный Парк","Долгопрудный Парк"
"2019-02-25 10:25:35.972231+01",209661169,"","","facebook_places",104022926303756,37.444099999999999,-122.163300000000007,"Palo Alto, California","Palo Alto"
"2019-02-25 09:09:43.361479+01",301239182,"9, Institutskiy pereulok","Dolgoprudnyy, Moskovskaya Oblast', Russia","facebook_places",174632852715591,55.930557299999997,37.517139399999998,"Физтех-Союз","Физтех-Союз"
"2019-02-25 10:25:03.055914+01",1574013959558984,"Строгинское шоссе, вл. 1","","facebook_places",1574013959558984,55.803903162864998,37.439599105588002,"SuperBeach"" в ""Берёзы Парк"" Berezy Park","SuperBeach"" в ""Берёзы Парк"" Berezy Park"
"2019-02-25 12:05:48.907789+01",551574441,"","","facebook_places",376406359100233,43.773052785361003,11.254744652995999,"Firenze, Piazza Del Duomo","Firenze"
"2019-02-25 16:39:31.317618+01",436955891,"","","facebook_places",409045225833574,55.950727620268999,37.492447600025997,"Долгопрудный ,  Лихачевское шоссе 18","Долгопрудный "
"2019-02-25 08:57:23.903052+01",338326316516612,"Красногвардеский 1-й пр., 21с2","","facebook_places",338326316516612,55.758009999999999,37.542639999999999,"Москва-Сити, башня ""Око""","Москва-Сити"
"2019-02-25 19:17:15.606327+01",433769851,"Первомайская ул., 9/4","Dolgoprudnyy, Moskovskaya Oblast', Russia","facebook_places",1442398182691115,55.931474017616999,37.520241737366000,"Теория Кухня&Бар","Теория Кухня&Бар"
"2019-02-25 18:56:24.559848+01",527692070,"","Dolgoprudyy, Moskovskaya Oblast', Russia","facebook_places",1428073447450407,55.930860000000003,37.519210000000001,"Московский Физико-Технический институт Аудиторный Корпус","Московский Физико-Технический институт Аудиторный Корпус"
"2019-02-25 10:25:59.350543+01",2160138364253041,"Улица Бутлерова, 12","","facebook_places",2160138364253041,55.651585652599998,37.527462698717997,"Антикафе #нарайоне","Антикафе #нарайоне"
"2019-02-22 20:45:46.27309+01",516749,"Россия, Москва, Поклонная улица","","facebook_places",161575337235863,55.735391392171998,37.516505892296003,"Поклонная Гора","Поклонная Гора"
"2019-02-25 10:28:07.171297+01",216440538934138,"Проспект Пацаева, 7к11","Dolgoprudnyy, Moskovskaya Oblast', Russia","facebook_places",216440538934138,55.945871595775003,37.499738931655998,"СССР Долгопрудный","СССР Долгопрудный"
"2019-02-23 00:32:32.880108+01",624188289,"","","facebook_places",200884576701810,55.604385542700001,38.106514709099997,"Фалт","Фалт"
"2019-02-25 08:58:14.286625+01",420259560,"Муксинова 2","","facebook_places",268785863301219,54.692714515016000,55.997849423311997,"Уфимский Юридический институт МВД","Уфимский Юридический институт МВД"
"2019-02-25 10:28:45.694918+01",274081267,"Садовая улица","Krasnodar","facebook_places",307373002747881,45.034700000000001,38.992989999999999,"Ргтэу-Учётно-Финансовый факультет","Ргтэу-Учётно-Финансовый факультет"
"2019-02-22 20:50:03.231482+01",419228518,"Грохольский переулок","Moscow, Russia","facebook_places",596765103753062,55.777468079999998,37.643961470000001,"НИИ Скорой Помощи им. Н.В. Склифосовского-приёмный покой","НИИ Скорой Помощи им. Н.В. Склифосовского-приёмный покой"
"2019-02-25 10:30:02.572088+01",330965252,"улица Бутлерова","Moskva","facebook_places",234798416679897,55.646219510925000,37.538490722672002,"Бутлерова Улица","Бутлерова Улица"
"2019-02-25 10:31:46.221165+01",806493857,"","","facebook_places",1375501642710947,45.046700000000001,38.928500000000000,"Кубанский государственный аграрный университет","Кубанский государственный аграрный университет"
"2019-02-25 10:51:35.705412+01",135832490238190,"Россия, Москва, Смольная улица, 24","","facebook_places",135832490238190,55.861055587187003,37.482716679755001,"Смольная 24 А","Смольная 24 А"
"2019-02-25 10:27:19.862939+01",1715157321856576," пл. Ростовского Стрелкового Полка Народного Ополчения, д. 2 ","Ростов-на-Дону","facebook_places",1715157321856576,47.989921667414002,40.078125000000000,"Ростовский государственный университет путей сообщения РГУПС - РИИЖТ","Ростовский государственный университет путей сообщения РГУПС - РИИЖТ"
"2019-02-25 10:32:12.72306+01",225773916,"40 Lenina pr.","Томск, Томская обл.","facebook_places",168851799869407,56.474139999999998,84.949830000000006,"ТУСУР","ТУСУР"
"2019-02-25 10:15:54.13906+01",910090451,"","","facebook_places",1379868568944381,55.924444444443999,37.527888888889002,"Новодачная","Новодачная"
"2019-02-25 10:27:35.729355+01",310421315,"","","facebook_places",103744379663779,53.983300000000000,-9.116700000000000,"Foxford","Foxford"
"2019-02-25 10:31:32.035884+01",1028072050,"Садовая 69","","facebook_places",1486084521618199,47.223055555556002,39.718055555555999,"Ростовский государственный экономический университет","Ростовский государственный экономический университет"
"2019-02-25 12:17:32.443928+01",824730981,"Milky Way Galaxy ","","facebook_places",317769168424184,26.287893412818999,50.211113723304997,"Planet Earth","Planet Earth"
"2019-02-22 20:51:20.443042+01",73055192,"Россия, Ленинградская область,Гатчинский район, поселок Рождественно","","facebook_places",163561790484953,55.571387384665996,38.097190500349001,"Яхт клуб ""ново-Рождественно""","Яхт клуб ""ново-Рождественно"""
"2019-02-25 16:33:10.812741+01",228339195,"","","facebook_places",226138057405840,55.534799999999997,37.809399999999997,"Moscow Oblast","Moscow Oblast"
"2019-02-25 10:32:29.497005+01",3527383,"Пестеля ул., 7","SanktPeterburg, Saint Petersburg City, Russia (Санкт-Петербург)","facebook_places",223494671012636,59.942189999999996,30.341139999999999,"Китайский Летчик Джао Да","Китайский Летчик Джао Да"
"2019-02-25 10:52:39.257434+01",213086242,"ул. Тверская, 11","Москва","facebook_places",336747169721773,55.760629999999999,37.609830000000002,"Министерство просвещения Российской Федерации","Министерство просвещения Российской Федерации"
"2019-02-25 15:19:15.389287+01",116231,"","","facebook_places",111777152182368,52.377699999999997,4.900100000000000,"Amsterdam, Netherlands","Amsterdam"
"2019-02-25 09:00:13.824631+01",603760389,"Невский пр., 47","Санкт-Петербург","facebook_places",403704416360434,59.932417924452999,30.347372571826000,"""Palkin Restaurant""","""Palkin Restaurant"""
"2019-02-25 10:18:23.315312+01",226884184,"Россия, Москва, метро Калужская","Москва","facebook_places",306277732764790,55.674968273316999,37.496696527213999,"Метро Калужская","Метро Калужская"
"2019-02-25 10:52:39.334936+01",721959800,"ул. Барышиха","","facebook_places",278777262229907,55.840548088170998,37.359975594990999,"Барышыха","Барышыха"
"2019-02-22 14:51:27.545477+01",1018517344,"Цюрих (Zürich, Switzerland)","","facebook_places",710075369125216,47.377079999999999,8.539560000000000,"Цюрих - Zürich, Switzerland","Цюрих - Zürich"
"2019-02-25 19:17:35.857175+01",527677659,"","","facebook_places",478931252189859,55.972561939999998,37.544972039999998,"Долгопрудный, Яхт-Клуб ""дельфин""","Долгопрудный"
"2019-02-25 12:20:00.567635+01",1700436253601242,"","","facebook_places",1700436253601242,51.712437270000002,39.193484190000000,"ЖК Московский Квартал","ЖК Московский Квартал"
"2019-02-22 14:53:06.407109+01",271082789,"Damrak, 1","Amsterdam, Netherlands","facebook_places",256546661058756,52.377090000000003,4.897980000000000,"Брюгге, Бельгия","Брюгге"
"2019-02-25 10:18:32.368387+01",2932497,"улица Большая Дмитровка, 20","Moscow, Russia","facebook_places",158786840809040,55.762568995296000,37.613208595562000,"Nobu Moscow","Nobu Moscow"
"2019-02-25 10:30:50.28866+01",274136345,"","","facebook_places",142928805723660,55.710299999999997,37.559199999999997,"Vorobyovy Gory","Vorobyovy Gory"
"2019-02-25 10:32:33.846628+01",199957224051596,"Ул. Правды 24, стр. 3","Москва","facebook_places",199957224051596,55.788040000000002,37.583840000000002,"vip_karaoke_vstrecha","vip_karaoke_vstrecha"
"2019-02-25 18:29:53.055368+01",217611320,"Миклухо-маклая","","facebook_places",397311560379089,55.638610000000000,37.541049999999998,"РУДН","РУДН"
"2019-02-25 10:35:37.576511+01",290716823,"","","facebook_places",112555852093515,55.648100000000000,37.857199999999999,"Kotelniki","Kotelniki"
"2019-02-25 12:08:09.766133+01",214466048,"Москва","Москва (Moscow, Russia)","facebook_places",284179628341979,55.709119585850999,37.541915804158997,"Смотровая Площадка МГУ Воробьёвы Горы","Смотровая Площадка МГУ Воробьёвы Горы"
"2019-02-25 10:54:27.541677+01",422256520,"ул. Гагарина, 67, Жуковский, Московская обл.","Zhukovskiy, Moskovskaya Oblast', Russia","facebook_places",1374853846134208,55.608240000000002,38.090940000000003,"Океан","Океан"
"2019-02-22 20:55:35.099101+01",1034561007,"проспект Ракетостроителей / prospekt Raketostroiteley .","","facebook_places",198767257168311,55.934630023617998,37.505404966566999,"Г Долгопрудный, пр-т Ракетостроителей, д 9, к 3","Г Долгопрудный"
"2019-02-22 20:55:43.39896+01",575925901,"улица Гагарина","Zhukovskiy, Moskovskaya Oblast', Russia","facebook_places",1418226578439924,55.608319999999999,38.092689999999998,"Стадион Фалт Мфти","Стадион Фалт Мфти"
"2019-02-25 09:00:56.237251+01",129524387727266,"Ул. Трифоновская, д. 57","","facebook_places",129524387727266,55.790225024976003,37.631142735429002,"НИУ ВШЭ","НИУ ВШЭ"
"2019-02-25 10:33:35.955616+01",723918,"Московская обл., Люберецкий р-н, Котельники г., Покровский 1-й пр-д, 5, ТРЦ Мега Белая Дача","Москва","facebook_places",208497999172378,55.654533955391003,37.844716580144002,"Starbucks","Starbucks"
"2019-02-25 12:08:30.205216+01",284251344,"ул. Свободы, 56","Moscow, Russia","facebook_places",307053726111017,55.860979999999998,37.449900000000000,"Тушинский Природный парк","Тушинский Природный парк"
"2019-02-25 12:08:35.627283+01",1018945646,"Кронверкский проспект, 49","San Petersburgo (Saint Petersburg, Russia)","facebook_places",1505538063094656,59.956989999999998,30.309329999999999,"Центр научной коммуникации - Университет ИТМО","Центр научной коммуникации - Университет ИТМО"
"2019-02-25 18:46:31.380831+01",465889743772671,"Мясницкая","","facebook_places",465889743772671,55.761511102919997,37.633195819918001,"НИУ ВШЭ","НИУ ВШЭ"
"2019-02-25 09:01:14.957273+01",1020539716,"","","facebook_places",624976330872759,55.839722222222001,37.568333333333001,"Петровско-Разумовское (платформа)","Петровско-Разумовское (платформа)"
"2019-02-25 09:01:40.967307+01",162187591388831,"Факультет вычислительной математики и кибернетики МГУ","","facebook_places",162187591388831,55.699171434598000,37.532095599624000,"Кафедра системного программирования ВМК МГУ","Кафедра системного программирования ВМК МГУ"
"2019-02-25 10:18:47.751935+01",26622801,"","","facebook_places",174945219294351,55.804965772163001,37.618941047001002,"Роща","Роща"
"2019-02-25 19:30:01.886644+01",283193114,"","","facebook_places",112904088720747,55.929699999999997,37.513300000000001,"Dolgoprudnyy, Moskovskaya Oblast', Russia","Dolgoprudnyy"
"2019-02-25 10:19:04.884516+01",1158617360911421,"Олимпийский проспект,1","г. Сочи, Краснодарский край","facebook_places",1158617360911421,43.414696497335001,39.949808120728001,"Парк науки и искусства ""Сириус""","Парк науки и искусства ""Сириус"""
"2019-02-25 13:56:06.744256+01",456135482,"","","facebook_places",101354339973563,55.865277780000000,37.564999999999998,"Beskudnikovsky District","Beskudnikovsky District"
"2019-02-25 14:03:00.400215+01",945110627,"г. Долгопрудный, ул. Московская, д. 25","","facebook_places",1424034974570218,55.955341300000001,37.516849499999999,"ЖК «Московские Водники»","ЖК «Московские Водники»"
"2019-02-25 10:56:31.111766+01",486003830,"ул. Сущевский Вал, 56","Москва","facebook_places",1494321194155459,55.790871686678997,37.620964418029999,"Кёрлинг клуб  ""Новая Лига""","Кёрлинг клуб  ""Новая Лига"""
"2019-02-25 12:09:49.828644+01",222587449,"ул. Пилотов, 38","","facebook_places",142731779070329,59.818739999999998,30.290710000000001,"Saint Petersburg State University of Civil Aviation","Saint Petersburg State University of Civil Aviation"
"2019-02-25 12:09:56.195563+01",1752916998350197,"Ул. Дыбенко","","facebook_places",1752916998350197,55.877541100000002,37.483003300000000,"Станция Метро Ховрино","Станция Метро Ховрино"
"2019-02-25 18:10:55.573377+01",217361074,"","","facebook_places",106544882716108,55.601111111111003,38.116111111111003,"Zhukovsky, Moscow Oblast","Zhukovsky"
"2019-02-25 18:30:10.241509+01",458047389,"Мясницкая ул, дом 13, стр 18","Moscow, Russia","facebook_places",632431260100342,55.762933503004000,37.632792592049000,"ФРИИ","ФРИИ"
"2019-02-25 10:51:34.720384+01",498022944,"Beregovaya str.","","facebook_places",449843881728748,55.915579193804000,37.491280775882998,"Поселок Набережный","Поселок Набережный"
"2019-02-25 12:10:02.020157+01",376899964,"Россия, Москва, Смольная улица, 63Б","Москва","facebook_places",262554680437458,55.870060000000002,37.469890000000000,"ТЦ Экстрим","ТЦ Экстрим"
"2019-02-25 09:02:07.35098+01",630963920634400,"","","facebook_places",630963920634400,55.797702251254002,49.141510164307000,"Суворовское ВВКУ","Суворовское ВВКУ"
"2019-02-25 10:19:15.031074+01",569068536632193,"","","facebook_places",569068536632193,55.909732949999999,37.225014260000002,"Салоники","Салоники"
"2019-02-25 12:41:51.264633+01",500625802,"","","facebook_places",105588176141470,,,"Atlantic Ocean","Atlantic Ocean"
"2019-02-25 12:10:48.105312+01",2269883249904037,"","","facebook_places",2269883249904037,55.763519670116999,37.551273284798000,"Unilever Russia","Unilever Russia"
"2019-02-25 12:44:17.61519+01",217436233,"Авиамоторная, д. 40","Москва (Moscow, Russia)","facebook_places",323299454379172,55.741750000000003,37.720170000000003,"Дворец Борьбы Имени Ивана Ярыгина","Дворец Борьбы Имени Ивана Ярыгина"
"2019-02-25 10:54:05.232603+01",697226613,"пр.Мира","","facebook_places",629797073786736,55.756100000000004,52.428899999999999,"Казанский федеральный университет","Казанский федеральный университет"
"2019-02-25 10:57:30.814481+01",148471804,"Мкрн.Северное Чертаново, д.1А, к.1","MOSKVA","facebook_places",566520770080218,55.637309864235000,37.597611709562997,"Qiwi HQ","Qiwi HQ"
"2019-02-25 09:02:10.953226+01",52882,"3555 SW 8th St","Miami, FL","facebook_places",114215478609821,25.765076716020001,-80.252900655933999,"Versailles","Versailles"
"2019-02-25 12:16:08.102272+01",1911112212238968,"Университетская наб., 7/9, Санкт-Петербург,","","facebook_places",1911112212238968,59.940269999999998,30.300879999999999,"СПбГУ","СПбГУ"
"2019-02-25 10:37:44.338943+01",150812752252966,"ул. Радио, д. 10А","","facebook_places",150812752252966,55.763150000000003,37.677889999999998,"МГОУ","МГОУ"
"2019-02-25 10:57:27.236171+01",275636560,"","","facebook_places",116918978447160,55.690557135428001,37.732656953582001,"Трц Атриум","Трц Атриум"
"2019-02-25 12:41:49.30007+01",499878244,"","Zhukovskiy, Moskovskaya Oblast', Russia","facebook_places",226934234017414,55.586567232299998,38.162900621799999,"Озеро в Кратово","Озеро в Кратово"
"2019-02-25 10:21:14.64141+01",279341495,"Московская обл., Лобня г., ул. Чехова, 5","","facebook_places",765681233443152,55.989631956407997,37.419485933563003,"Лобненский городской парк культуры и отдыха","Лобненский городской парк культуры и отдыха"
"2019-02-25 12:33:23.356616+01",250592148711677,"ул. Пятницкая, 6/1","Москва","facebook_places",250592148711677,55.744450000000000,37.627299999999998,"Dashkov Loft Lounge","Dashkov Loft Lounge"
"2019-02-25 12:43:20.156747+01",500376293,"","","facebook_places",216821695102543,56.715270700299001,36.765955155275002,"Конаково,Тверская Обл","Конаково"
"2019-02-25 12:53:27.058234+01",819164601551980,"","Москва (Moscow, Russia)","facebook_places",819164601551980,55.720258100549003,37.693963050842001,"Академия волейбола","Академия волейбола"
"2019-02-25 12:53:45.736741+01",505504275,"город Жуковский, ул. Жуковского, дом 1","","facebook_places",119297828116323,55.597029999999997,38.111120000000000,"Central Aerohydrodynamic Institute","Central Aerohydrodynamic Institute"
"2019-02-25 12:39:50.84201+01",883224509,"Киевское море","","facebook_places",1042905335738114,50.619494975591998,30.530952466679999,"Яхт-Клуб Водник","Яхт-Клуб Водник"
"2019-02-25 12:56:10.231638+01",567104940,"Инновационный центр ""Сколково"", Большой бульвар 42, корпус 1","Москва","facebook_places",373340512702956,55.689487908437997,37.367141246796002,"Technopark Skolkovo LLC","Technopark Skolkovo LLC"
"2019-02-25 13:00:13.991013+01",1690434334599057,"1-ый Западный проезд, д. 12/1 ","","facebook_places",1690434334599057,56.013191475583000,37.191971540451000,"НИИ Молекулярной Электроники - НИИМЭ","НИИ Молекулярной Электроники - НИИМЭ"
"2019-02-25 12:30:41.437504+01",227885985,"лихоборские бугры д3","","facebook_places",158901040918053,55.841580495994002,37.548155570256000,"Москва, Лихоборские Бугры","Москва"
"2019-02-23 01:33:37.773393+01",69836769,"","","facebook_places",357503710957496,55.934747417718000,37.495008191697998,"г. Долгопрудный","г. Долгопрудный"
"2019-02-25 09:02:20.589475+01",218766416,"Сиреневый бульвар 2","","facebook_places",121078331300355,55.800522339950000,37.755964374575001,"ГЦОЛИФК бассейн","ГЦОЛИФК бассейн"
"2019-02-25 13:55:22.67115+01",1022131151,"Khaleej Al Arabi Street","Abu Dhabi, United Arab Emirates","facebook_places",94211421397,24.419530074425001,54.437361889620000,"Abu Dhabi National Exhibitions Company - ADNEC","Abu Dhabi National Exhibitions Company - ADNEC"
"2019-02-25 12:46:41.365217+01",265917761,"А108","","facebook_places",104068809628381,56.375983333332996,37.328363888889001,"Novosinkovo","Novosinkovo"
"2019-02-25 10:58:24.955213+01",1206301769405730,"ул. Миклухо-Маклая 18/2","","facebook_places",1206301769405730,55.644889999999997,37.519430000000000,"Крошкино","Крошкино"
"2019-02-25 12:12:29.766418+01",164287500375154,"","","facebook_places",164287500375154,55.725169999999998,84.928380000000004,"ЮТИ ТПУ","ЮТИ ТПУ"
"2019-02-25 13:10:16.3777+01",1718855018127873,"Ленинский проспект, 4","Москва","facebook_places",1718855018127873,55.728310000000000,37.609409900000003,"Кафедра ИЯКТ НИТУ ""МИСиС""","Кафедра ИЯКТ НИТУ ""МИСиС"""
"2019-02-25 12:34:34.167498+01",503136967,"","","facebook_places",112335622116476,56.316699999999997,36.549999999999997,"Vysokovsk","Vysokovsk"
"2019-02-25 13:10:23.329463+01",499270008,"","","facebook_places",120873991291461,55.633333333332999,37.519166666666997,"Konkovo","Konkovo"
"2019-02-25 13:55:55.657954+01",63512547,"ул. Смольная, д.36","Москва","facebook_places",156300414432500,55.865595673266000,37.477957941610001,"РГТЭУ","РГТЭУ"
"2019-02-25 10:37:52.845094+01",497839768,"","","facebook_places",113278185352266,52.612699999999997,38.501700000000000,"Yelets","Yelets"
"2019-02-25 10:58:40.874831+01",453815747,"Чеховский Район","","facebook_places",176329862441228,55.149999999999999,37.483333330000001,"Chekhovsky District","Chekhovsky District"
"2019-02-25 12:13:07.453573+01",414104495,"Вершинина, 47","","facebook_places",195387147230985,56.452190000000002,84.961619999999996,"ФЭТ ТУСУР","ФЭТ ТУСУР"
"2019-02-25 12:13:12.783267+01",224608824,"","","facebook_places",107810879248530,55.785899999999998,49.145099999999999,"Kazan National Research Technological University","Kazan National Research Technological University"
"2019-02-25 12:34:32.009088+01",8166721,"ул. Мосфильмовская, 22","Москва (Moscow, Russia)","facebook_places",165135233587661,55.721147987150999,37.524949349339003,"Тануки","Тануки"
"2019-02-25 10:39:00.048939+01",574129878,"Пречистинская набережная, 11","","facebook_places",463004173715269,55.737953286314003,37.603074638769002,"РАНХ и ГС ПРИ ПРЕЗИДЕНТЕ РФ","РАНХ и ГС ПРИ ПРЕЗИДЕНТЕ РФ"
"2019-02-25 13:07:59.941731+01",622328449,"","","facebook_places",437352489611240,55.754354772450000,37.750223765976003,"Вднх","Вднх"
"2019-02-25 12:13:41.280899+01",1610222925941257,"Демьяна Бедного 9","","facebook_places",1610222925941257,60.037970000000001,30.386399999999998,"СПбГБУ Центр Физической Культуры, Спорта и Здоровья Калининского района","СПбГБУ Центр Физической Культуры"
"2019-02-25 10:58:47.601964+01",256627404,"","","facebook_places",103996936303401,50.266700000000000,127.533000000000001,"Blagoveshchensk","Blagoveshchensk"
"2019-02-25 11:03:15.407851+01",1015359546,"Дмитровское шоссе, 163А","","facebook_places",713104628834978,55.912627100000002,37.543897399999999,"Г. Москва ТЦ РИО","Г. Москва ТЦ РИО"
"2019-02-25 11:03:26.982031+01",1018245037,"ул. Белорусская, 14","Тольятти (Togliatti, Russia)","facebook_places",630933256918799,53.510854449999996,49.411136099992000,"Тольяттинский государственный университет","Тольяттинский государственный университет"
"2019-02-25 12:36:54.898675+01",472655944," ул. Юности, дом 8","Зеленоград, Москва","facebook_places",269136713195616,55.999000000000002,37.223869999999998,"Бизнес-инкубатор ""Зеленоград""","Бизнес-инкубатор ""Зеленоград"""
"2019-02-25 12:21:43.412681+01",228474235,"","","facebook_places",106552496044096,44.501100000000001,38.135300000000001,"Divnomorskoye, Krasnodarskiy Kray, Russia","Divnomorskoye"
"2019-02-25 14:00:38.682043+01",1876301815924305,"Улица Авиационная, дом 77","","facebook_places",1876301815924305,55.810001985051997,37.454801965484002,"Жк Алые Паруса","Жк Алые Паруса"
"2019-02-25 14:03:37.505632+01",500003966,"г. Долгопрудный, улица Академика Лаврентьева, дом 27","","facebook_places",424671837658638,55.939417055257003,37.504861769556001,"Гелиос Фитнес","Гелиос Фитнес"
"2019-02-25 19:02:38.067861+01",291542095,"","","facebook_places",283777024981068,55.899999999999999,37.569722220000003,"Lianozovo District","Lianozovo District"
"2019-02-25 12:21:54.781737+01",213251829,"Miklukho-Maklaya, 6","","facebook_places",105513216149009,55.651000000000003,37.505000000000003,"Peoples' Friendship University of Russia","Peoples' Friendship University of Russia"
"2019-02-25 15:07:02.356071+01",1032668670,"Улица Героев-Панфиловцев","","facebook_places",204555239925177,55.856511275999999,37.410464001999998,"Улица Героев-Панфиловцев","Улица Героев-Панфиловцев"
"2019-02-25 10:39:57.890586+01",664432611,"","","facebook_places",340831572788473,52.700000000000003,39.149999999999999,"Lipetsk Oblast","Lipetsk Oblast"
"2019-02-25 11:03:32.327833+01",154239831837042,"ул. Автозаводская, дом 23 А","","facebook_places",154239831837042,55.701540000000001,37.644779999999997,"ВТБ Ледовый Дворец","ВТБ Ледовый Дворец"
"2019-02-25 13:57:35.296354+01",948236742,"","","facebook_places",684565051687739,55.750878616541002,37.535406697595000,"Башня ОКО","Башня ОКО"
"2019-02-25 12:13:32.545509+01",670465554,"","","facebook_places",1592849777629696,55.948760227374002,37.495913089493001,"Пацаева","Пацаева"
"2019-02-25 12:15:12.095737+01",700179963462336,"Мытищи, ул. Веры Волошиной","","facebook_places",700179963462336,55.895278160025001,37.713985639938997,"МГОУ / MRSU","МГОУ / MRSU"
"2019-02-25 14:00:48.001979+01",817213331663474,"ул. Авиационная, 66","","facebook_places",817213331663474,55.809942300000003,37.455053800000002,"Алые Паруса","Алые Паруса"
"2019-02-22 22:01:22.245662+01",931364140,"","","facebook_places",124510304260863,55.655555560000003,37.532777780000004,"Russian Space Research Institute","Russian Space Research Institute"
"2019-02-25 11:04:19.14741+01",118391868866649,"Москва, ул. Арбат","","facebook_places",118391868866649,55.750996240828996,37.596096506469998,"Старый Арбат","Старый Арбат"
"2019-02-25 12:00:38.398742+01",506819004,"","","facebook_places",363258173720875,55.745247556599999,37.728779492900003,"ОАО ""Российские космические системы""","ОАО ""Российские космические системы"""
"2019-02-25 14:33:07.674761+01",1472243899487754,"ш. Энтузиастов, 5, стр.2","Москва","facebook_places",1472243899487754,55.749420000000001,37.696620000000003,"Music Media Dome","Music Media Dome"
"2019-02-25 12:15:18.430914+01",493089298,"","","facebook_places",152171778154640,55.754722222200002,37.621388888900000,"GUM","GUM"
"2019-02-25 12:23:23.436514+01",213621351,"Ryazanskiy prospekt 99","Москва","facebook_places",302040333145771,55.714655993351997,37.815977666222999,"State University of Management","State University of Management"
"2019-02-25 10:40:22.797263+01",190348881715887,"Ленинградский Проспект, 15","","facebook_places",190348881715887,55.781725199999997,37.572642999999999,"Мозгва","Мозгва"
"2019-02-25 14:34:58.928092+01",421726107,"Nikol'skaya ulitsa,10","Москва","facebook_places",145706748826476,55.758110000000002,37.624149299999999,"Papa's","Papa's"
"2019-02-25 14:02:24.288341+01",730501083764740,"Краснодарский край, Г.Сочи, Олимпийский Парк, Олимпийский пр., Д.1","Сочи","facebook_places",730501083764740,43.414063547018998,39.951088095037001,"Главный Медиацентр","Главный Медиацентр"
"2019-02-25 14:30:25.401311+01",737675559,"Первомайская улица","","facebook_places",355757644567736,55.928426063671999,37.521881489118002,"ВШСИ МФТИ","ВШСИ МФТИ"
"2019-02-25 14:37:45.160775+01",128322561129502,"Миусская пл.","","facebook_places",128322561129502,55.777222440061003,37.595288858819998,"РГГУ","РГГУ"
"2019-02-25 14:39:44.349868+01",1032719339,"Ленинградский пр., 36, корпус 5 ","Москва","facebook_places",1138819796163233,55.788265404600999,37.567942142486999,"РЫБАКОВ ФОНД","РЫБАКОВ ФОНД"
"2019-02-25 15:06:05.351093+01",792937396,"Суркова 18","Yaroslavl","facebook_places",1416528085280601,57.632719999999999,39.885129900000003,"Ярославль","Ярославль"
"2019-02-23 00:48:42.00818+01",511743068,"Московская область, город Долгопрудный, Московское шоссе, дом 23","","facebook_places",247129442031419,55.929699999999997,37.513300000000001,"МФТИ, кофейня 6ки","МФТИ"
"2019-02-25 14:01:24.554738+01",611908928,"ул. Спортивная, д.1, мкрн. Полево","","facebook_places",333564506840249,55.905790638501003,36.874190342887999,"Арена Истра","Арена Истра"
"2019-02-25 10:40:38.705982+01",565182180234844,"Москва, Миусская площадь, д. 6","","facebook_places",565182180234844,55.777787368035000,37.596741020678998,"Институт лингвистики РГГУ","Институт лингвистики РГГУ"
"2019-02-25 10:40:41.654155+01",505554954,"","","facebook_places",269598179773335,55.521465274310003,36.995792788366998,"Наро-Фоминский Район П. Селятино","Наро-Фоминский Район П. Селятино"
"2019-02-25 19:30:21.048128+01",222146698,"Дмитровское шоссе, 163а","Москва","facebook_places",269053313163399,55.909422615566001,37.540669441223002,"ТРЦ РИО Дмитровское шоссе","ТРЦ РИО Дмитровское шоссе"
"2019-02-22 15:36:33.500132+01",457708209,"","","facebook_places",262284997225329,55.413480064700998,37.900067694815000,"Аэропорт DMD","Аэропорт DMD"
"2019-02-25 19:33:47.049404+01",1433831,"9, Institutskiy pereulok","Dolgoprudnyy, Moskovskaya Oblast', Russia","facebook_places",543279849069606,55.927923147203003,37.523587946423000,"МФТИ","МФТИ"
"2019-02-25 14:01:20.074862+01",219321117,"","","facebook_places",129669010408465,55.885277780000003,37.454166669999999,"Arena Khimki","Arena Khimki"
"2019-02-25 15:15:52.480105+01",655740001255389,"Набережная Тараса Шевченко, причал ""Гостиница Украина""","","facebook_places",655740001255389,55.745500000000000,37.543089999999999,"Erwin.река","Erwin.река"
"2019-02-25 15:15:54.405473+01",406740577,"Верхняя Красносельская улица, д.19А","","facebook_places",634354486613036,55.781643361832998,37.666176666349998,"Фитнес клуб СССР Красносельская","Фитнес клуб СССР Красносельская"
"2019-02-25 18:41:03.574317+01",721185918,"Institutskiy pereulok, 9","Dolgoprudnyy, Moskovskaya Oblast', Russia","facebook_places",180384995335164,55.929953099999999,37.517542200000001,"БиоФармкластер ""Северный""","БиоФармкластер ""Северный"""
"2019-02-25 10:41:29.085636+01",501555112,"улица Новый Арбат, дом 34, строение 1","Москва","facebook_places",283065968400805,55.753259999999997,37.578969999999998,"Академия Лайма-Люкс","Академия Лайма-Люкс"
"2019-02-22 07:58:06.676748+01",246484588,"","","facebook_places",371619822894967,48.857467047999997,2.373074670000000,"Musee D'Orsay","Musee D'Orsay"
"2019-02-25 12:01:04.012325+01",1033650458,"Варшавское шоссе, д.1, стр.6","Москва (Moscow, Russia)","facebook_places",641020669346927,55.703159999999997,37.623359999999998,"Онлайн-школа Фоксфорд","Онлайн-школа Фоксфорд"
"2019-02-25 12:18:01.58299+01",219970953,"ул. Лестева","","facebook_places",139567589520052,55.714026583417002,37.610908800216002,"Ул. Лестева","Ул. Лестева"
"2019-02-25 12:01:06.627077+01",147336002542348,"Академика Бакулева, 20","Москва","facebook_places",147336002542348,55.640729999999998,37.475610000000003,"ГБОУ Школа 109","ГБОУ Школа 109"
"2019-02-25 15:16:26.9043+01",432118432,"","","facebook_places",159601840790746,55.814984379999998,49.106208500000001,"Russia - Kazan","Russia - Kazan"
"2019-02-25 15:27:51.426409+01",1361690257277922," Новороссийск, ул.Свободы 1 (офис), с.Абрау-Дюрсо (пансионат)","Новороссийка, Краснодарский край","facebook_places",1361690257277922,44.723610000000001,37.774949900000003,"Пансионат ""Моряк""","Пансионат ""Моряк"""
"2019-02-25 14:01:27.62654+01",1752716568351683,"","Москва","facebook_places",1752716568351683,55.739252182968002,37.645661830902000,"Gagarin Night Club","Gagarin Night Club"
"2019-02-25 12:16:14.562225+01",840145741,"","","facebook_places",772678509436278,59.931300000000000,30.326400000000000,"Saint Petersburg State University of Economics","Saint Petersburg State University of Economics"
"2019-02-25 14:01:35.898018+01",217380544,"Москва, ул.Рождественка, 11, МАРХИ, ВШСД, аудитория 001","Moscow, Russia","facebook_places",193976647307102,55.763176350084002,37.622720790232996,"МАрхИ (Московский Архитектурный Институт Государственная Академия)","МАрхИ (Московский Архитектурный Институт Государственная Академия)"
"2019-02-25 14:28:23.858843+01",5303045,"ул. А.Невского, 14","Kaliningrad, Kaliningrad","facebook_places",280694638609479,54.724159999999998,20.527390000000000,"БФУ им Канта","БФУ им Канта"
"2019-02-22 21:39:20.693149+01",217967572,"Андропова просп., д.39","","facebook_places",334853773252980,55.667743810350998,37.669893220794002,"Музей-заповедник «Коломенское»: коломенский парк","Музей-заповедник «Коломенское»: коломенский парк"
"2019-02-25 15:17:42.130275+01",213543870,"420014, Казань, Кремль, а/я 20.","","facebook_places",103748482996573,55.796759000000002,49.106997999999997,"Kazan Kremlin","Kazan Kremlin"
"2019-02-22 21:40:01.937104+01",152479,"Mont des arts","Brussels, Belgium","facebook_places",234918826526184,50.843844000807998,4.357514830557400,"Square-Brussels Convention Centre","Square-Brussels Convention Centre"
"2019-02-25 14:33:14.884494+01",1024464641,"Воздвиженка 4/7, стр. 1","Москва","facebook_places",132266776851476,55.752406226235998,37.609572808114002,"Республика*","Республика*"
"2019-02-25 15:18:07.051649+01",955467053,"Большой Москворецкий Мост","","facebook_places",132895620083652,55.749166666667001,37.624444444444002,"Bolshoy Moskvoretsky Bridge","Bolshoy Moskvoretsky Bridge"
"2019-02-25 15:18:14.471239+01",344303690,"","","facebook_places",241403076041393,37.920499999999997,29.120999999999999,"Hierapolis Pamukkale","Hierapolis Pamukkale"
"2019-02-25 14:00:44.853802+01",1007675200,"Новокузнецкая дом 1","Москва","facebook_places",497104487134260,55.740420000000000,37.630139999999997,"Moskalyan на Новокузнецкой Улице","Moskalyan на Новокузнецкой Улице"
"2019-02-25 15:22:30.852695+01",224143851,"посёлок Рыбачье","","facebook_places",236006593086114,44.769598643160997,34.598225214872997,"Крым Рыбачье","Крым Рыбачье"
"2019-02-22 21:54:36.110234+01",502512067,"Raushskaya naberezhnaya, 4","","facebook_places",418615341566503,55.748530000000002,37.627270000000003,"Развлекательный клуб ""Кабана""","Развлекательный клуб ""Кабана"""
"2019-02-25 10:42:30.398785+01",148638748,"Малый конюшенный переулок, дом 2","Moskva","facebook_places",703334493029404,55.758362742834002,37.580087051690000,"Точка Кипения","Точка Кипения"
"2019-02-25 10:50:14.959127+01",501727523,"","","facebook_places",168295119898022,55.710780000000000,37.577430000000000,"Российская академия наук","Российская академия наук"
"2019-02-25 12:14:07.094563+01",1473470996061966,"МКАД 66 км","","facebook_places",1473470996061966,55.907730000000001,37.542209999999997,"Vegas Крокус Сити","Vegas Крокус Сити"
"2019-02-25 12:17:34.390779+01",1200125416693230,"ул. Первомайская, д. 5, каб. 235","","facebook_places",1200125416693230,55.929530000000000,37.518479900000003,"Фонд целевого капитала МФТИ","Фонд целевого капитала МФТИ"
"2019-02-22 21:54:11.066009+01",2013958,"Манежная пл. д.1","Москва","facebook_places",119386594876981,55.753500000000002,37.612340000000003,"Центральный Выставочный Зал ""Манеж""","Центральный Выставочный Зал ""Манеж"""
"2019-02-25 14:38:22.007178+01",243809257,"","","facebook_places",111631732194428,44.391644220117001,9.219207523704201,"Liguria, Italy","Liguria"
"2019-02-25 14:55:20.877972+01",204669692972712,"","Москва (Moscow, Russia)","facebook_places",204669692972712,55.753588284174000,37.619934082031001,"Москва","Москва"
"2019-02-25 14:44:50.14848+01",528403942,"","","facebook_places",400718286655017,55.891284700659000,37.614281644555000,"Тверская","Тверская"
"2019-02-25 14:03:14.425492+01",265799920528580,"Мясницкая 13 строение 20","","facebook_places",265799920528580,55.763319820436003,37.634085416794001,"Техноковоркинг Laba.space","Техноковоркинг Laba.space"
"2019-02-25 15:27:44.323441+01",234996354,"Ashtarak Highway, near Vahagni","","facebook_places",112257662254661,40.233223188236998,44.437676697740002,"Կովկաս ռեստորանային համալիր - Caucasus Restaurant Complex - Kovkas","Կովկաս ռեստորանային համալիր - Caucasus Restaurant Complex - Kovkas"
"2019-02-25 10:20:59.496764+01",490244047993782,"141032, Россия, Московская область,  Мытищи, д. Болтино, ул. Прибрежная стр. 2в/1","","facebook_places",490244047993782,55.973287899456999,37.681185007095003,"Gals Club Яхт Клуб Галс","Gals Club Яхт Клуб Галс"
"2019-02-25 12:18:31.88043+01",488453207,"ВДНХ","","facebook_places",767741979967183,55.830610378964998,37.630462426252997,"Главный Каток Страны","Главный Каток Страны"
"2019-02-25 12:19:18.504168+01",822153057931719,"Лихачевское шоссе дом 1 корпус 5","","facebook_places",822153057931719,55.936219999999999,37.489680000000000,"Фитнес для женщин","Фитнес для женщин"
"2019-02-25 19:26:58.81251+01",1234710556549070,"Institutskiy pereulok, 9/7","Dolgoprudnyy, Moskovskaya Oblast', Russia","facebook_places",1234710556549070,55.930558599999998,37.517139499999999,"Лекторий МФТИ","Лекторий МФТИ"
"2019-02-25 13:58:57.644122+01",636264913230475,"Футбольная аллея, 1","Saint Petersburg, Russia","facebook_places",636264913230475,59.973011350290001,30.220320224761998,"Газпром Арена - Gazprom Arena","Газпром Арена - Gazprom Arena"
"2019-02-25 15:36:45.92844+01",943061177,"ул. Промышленная 19","AbrauDyurso, Russia","facebook_places",139506599430314,44.703096486542002,37.600027338646001,"Абрау-Дюрсо","Абрау-Дюрсо"
"2019-02-25 15:28:45.551919+01",310118012,"Морской Порт Г. Новороссийск","","facebook_places",308556505917927,44.720402974000002,37.783242247600000,"Морской порт Новороссийск","Морской порт Новороссийск"
"2019-02-25 08:57:36.721125+01",498154769,"Ходынский бульвар, 4","Moscow, Russia","facebook_places",128020210683514,55.790328402614001,37.531292438507002,"АВИАПАРК","АВИАПАРК"
"2019-02-25 19:28:00.582283+01",993221280791473,"Новые Водники","","facebook_places",993221280791473,55.962332799999999,37.521264799999997,"Долгопрудный,новые Водники, Набережная","Долгопрудный"
"2019-02-25 09:07:53.311256+01",2050223405228927,"","","facebook_places",2050223405228927,55.844720000000002,37.470611666666997,"Северный Речной Вокзал","Северный Речной Вокзал"
"2019-02-25 15:07:38.816798+01",238784504,"","","facebook_places",106377962728145,41.631354069605003,2.715508006943900,"Santa Susana, Cataluna, Spain","Santa Susana"
"2019-02-25 12:20:12.474118+01",1022240422,"Ленинградская ул., 39 (влад.), строен. 5","Москва (Moscow, Russia)","facebook_places",1213427628673093,55.910947375412000,37.396409697724998,"Чайхона 1 МЕГА Химки","Чайхона 1 МЕГА Химки"
"2019-02-25 14:06:18.102752+01",234581941,"","","facebook_places",104010186301582,44.500041666667002,33.600033333333002,"Balaklava District","Balaklava District"
"2019-02-25 15:09:10.320929+01",482586425091265,"","","facebook_places",482586425091265,44.235713356889001,8.432144563896699,"Spotorno,Liguria","Spotorno"
"2019-02-25 15:38:26.026988+01",451984853,"Сиреневый бульвар , дом 4","","facebook_places",420620264642145,55.801670000000001,37.760219900000003,"ГЦОЛИФК","ГЦОЛИФК"
"2019-02-25 12:21:16.947664+01",1569902553023522,"Береговая улица","","facebook_places",1569902553023522,55.827530000000003,37.466479999999997,"Коттеджный посёлок ""Набережный""","Коттеджный посёлок ""Набережный"""
"2019-02-25 14:10:48.247151+01",1967688103508087,"","","facebook_places",1967688103508087,54.963343741677001,37.457977649919997,"Парк-Отель Воздвиженское","Парк-Отель Воздвиженское"
"2019-02-25 15:13:45.437537+01",213226563,"","","facebook_places",110761475615126,51.215699999999998,4.414100000000000,"Antwerp, Belgium","Antwerp"
"2019-02-25 15:49:34.905269+01",269321222,"Пушкинская площадь, Б. Путинковский пер. 5","Moscow, Russia","facebook_places",113595728674598,55.767330481339002,37.607649755879002,"Бар-ресторан Счастье","Бар-ресторан Счастье"
"2019-02-25 18:52:21.124518+01",807037004,"Овчинниковская наб. 20, стр.1","Москва","facebook_places",899909236733667,55.743991899999998,37.634979199999996,"Ресторан «Карлсон»","Ресторан «Карлсон»"
"2019-02-25 10:49:30.359725+01",141524753226175,"","","facebook_places",141524753226175,55.752200000000002,37.615600000000001,"Парк Зарядье, Москва","Парк Зарядье"
"2019-02-25 14:11:14.379799+01",2327407,"Москва, МКАД, 66-й км, корп.2","","facebook_places",204971342863528,55.825127410397002,37.389374830186000,"Крокус Экспо","Крокус Экспо"
"2019-02-25 15:15:56.17876+01",236480600,"","","facebook_places",110519205641389,31.513100000000001,-9.769720000000000,"Mogadar, Essaouira, Morocco","Mogadar"
"2019-02-25 15:52:53.537522+01",535985608,"Красная горка","Krasnogorsk, Moskovskaya Oblast', Russia","facebook_places",271647366342970,55.778892259999999,37.689484350000001,"Медицинский Вытрезвитель","Медицинский Вытрезвитель"
"2019-02-25 10:49:35.377849+01",287432415077002,"Тенистый проезд","","facebook_places",287432415077002,55.860222755000997,37.637612920020999,"Свиблово Стадион","Свиблово Стадион"
"2019-02-25 15:19:12.051765+01",264913030,"Химки, Московская область, Клязма-Старбеево квартал, Ивакино2","Москва (Moscow, Russia)","facebook_places",300489456678064,55.952464421110001,37.468989041169998,"Олимпиец","Олимпиец"
"2019-02-25 15:56:15.803464+01",760725172,"","","facebook_places",181259841955248,41.722031740699997,13.333595410999999,"Inferno Di Dante","Inferno Di Dante"
"2019-02-25 12:23:06.280595+01",301325514,"Проспект Мира,д.26,стр.8","Moscow, Russia","facebook_places",676689462379170,55.777310000000000,37.636279999999999,"Food Embassy","Food Embassy"
"2019-02-25 13:55:32.569296+01",87678,"Кутузовский проспект д. 2/1","Москва","facebook_places",292817331896,55.751449999999998,37.565649999999998,"Radisson Royal Hotel Moscow","Radisson Royal Hotel Moscow"
"2019-02-22 23:56:49.335492+01",5645704,"Domodedovsky District","","facebook_places",107248442645764,55.413324877298002,37.903892934391998,"Domodedovo International Airport","Domodedovo International Airport"
"2019-02-25 14:26:08.069224+01",268997440,"","","facebook_places",113553561991319,56.229999999999997,35.636666666666997,"Lotoshino","Lotoshino"
"2019-02-25 15:20:04.271659+01",341840552855711,"","","facebook_places",341840552855711,43.413719190016998,39.949763194997999,"Технопарк ""сириус"", Сочи","Технопарк ""сириус"""
"2019-02-25 15:57:38.970284+01",3443703,"Московская область, Серпуховской район, дер. Спас-Тешилово, д.3","","facebook_places",440943639279333,54.838038939777000,37.575399856375000,"Царьград","Царьград"
"2019-02-25 15:57:42.743818+01",988302,"2800 East Observatory Road","Los Angeles, CA","facebook_places",116459771702203,34.119042989556000,-118.300450710779998,"Griffith Observatory","Griffith Observatory"
"2019-02-25 10:50:49.638787+01",1010876021,"","","facebook_places",112907995394437,42.506700000000002,20.611100000000000,"Rudn","Rudn"
"2019-02-25 12:24:10.565754+01",1129913123786909,"","","facebook_places",1129913123786909,52.616700000000002,38.466700000000003,"Елецкий Знаменский Епархальный Женский Монастырь","Елецкий Знаменский Епархальный Женский Монастырь"
"2019-02-25 12:24:17.069023+01",214383034,"","","facebook_places",149613088496151,52.630216231683001,38.446664134613997,"г. Елец","г. Елец"
"2019-02-25 14:26:10.857637+01",531477025,"","","facebook_places",135209366512115,43.561111111111003,41.271944444444003,"Arkhyz","Arkhyz"
"2019-02-25 15:22:32.006346+01",344261140,"","","facebook_places",106997382664054,46.081359900000002,1.690510000000000,"Aulon, Limousin, France","Aulon"
"2019-02-25 15:58:36.946663+01",774253795,"Владимирская область, камешковский р-н","","facebook_places",201016899962467,56.174686068374001,40.857602254185998,"Запольское Озеро","Запольское Озеро"
"2019-02-25 15:25:24.311789+01",430863630,"","","facebook_places",101258866649978,55.865278000000004,37.536667000000001,"Zapadnoye Degunino District","Zapadnoye Degunino District"
"2019-02-25 19:31:04.687597+01",547615751,"","","facebook_places",380562118662280,55.929046617899999,37.522089779399998,"Физтех","Физтех"
"2019-02-25 16:01:18.790378+01",318459665,"","","facebook_places",110835755632709,34.056100000000001,-118.430000000000007,"Westwood, Los Angeles","Westwood"
"2019-02-22 20:31:29.165951+01",942389244,"Музей-заповедник «Коломенское», пр-т Андропова, 39","Moscow, Russia","facebook_places",334469982872,55.669316611855997,37.673940137092004,"Пикник «Афиши»","Пикник «Афиши»"
"2019-02-25 16:01:30.883907+01",4999227,"","","facebook_places",451406198239465,55.719365850000003,37.673391510000002,"Цниитмаш","Цниитмаш"
"2019-02-25 15:35:03.277257+01",955165125,"Ленинские горы, д. 1, стр. 12","Москва","facebook_places",285563818229074,55.704039999999999,37.521310000000000,"Биологический факультет МГУ имени М.В.Ломоносова","Биологический факультет МГУ имени М.В.Ломоносова"
"2019-02-22 22:10:49.277365+01",213801732,"","Ростов-на-Дону, Ростовская обл.","facebook_places",283687761711907,47.226149900000003,39.734369999999998,"Don","Don"
"2019-02-25 18:20:33.005126+01",211296285964150,"Университетская наб. д. 7-9","","facebook_places",211296285964150,59.940269999999998,30.300879999999999,"СПбГУ","СПбГУ"
"2019-02-25 15:31:33.131694+01",440417346,"","","facebook_places",259852750787052,52.373152272825003,4.523486997936400,"Северное Море","Северное Море"
"2019-02-25 16:03:20.061692+01",308583446196491,"","","facebook_places",308583446196491,54.363882099999998,48.570346700000002,"Ульяновск Проспект Столыпина","Ульяновск Проспект Столыпина"
"2019-02-22 23:32:20.871874+01",423604078,"","","facebook_places",113725058638318,56.299444444400002,43.983333333300003,"N. I. Lobachevsky State University of Nizhny Novgorod","N. I. Lobachevsky State University of Nizhny Novgorod"
"2019-02-24 17:48:43.10653+01",219244324,"","","facebook_places",111734845519864,56.316699999999997,44.000000000000000,"Nizhni Novgorod, Russia","Nizhni Novgorod"
"2019-02-25 16:04:01.669913+01",249420979,"","","facebook_places",133011043403899,33.708333333333002,-118.251388888890006,"Los Angeles Harbor Light","Los Angeles Harbor Light"
"2019-02-25 19:27:54.728534+01",380745845593173,"Мясницкая 24/7 стр.3","","facebook_places",380745845593173,55.763100000000001,37.636569999999999,"Smart place ""Розетка и кофе""","Smart place ""Розетка и кофе"""
"2019-02-25 08:48:12.373613+01",418993009,"","","facebook_places",108562925833633,44.604236324074002,40.106609970370002,"Maikop, Adygeya, Russia","Maikop"
"2019-02-25 13:59:31.641824+01",948308925,"ул. Щукинская, 42","Москва","facebook_places",361632287220943,55.809550000000002,37.464440000000003,"ТРК ЩУКА","ТРК ЩУКА"
"2019-02-25 16:11:30.264871+01",815068638591950,"Огородный проезд, дом 5, стр. 5.","Москва (Moscow, Russia)","facebook_places",815068638591950,55.809264272493003,37.606244087218997,"ООО ""Мастер Тул""","ООО ""Мастер Тул"""
"2019-02-25 16:26:53.740574+01",221040128,"","","facebook_places",109313105760124,55.662337477495001,37.667233577245000,"Kolomenskoye, Moskva, Russia","Kolomenskoye"
"2019-02-25 18:42:56.929243+01",266014386,"проспект Мира, 119","Москва","facebook_places",209997259022691,55.826290000000000,37.637650000000001,"ВДНХ","ВДНХ"
"2019-02-25 15:41:16.991982+01",602532680,"","","facebook_places",368495096522688,55.558333330000004,38.146388889999997,"MAKS Air Show","MAKS Air Show"
"2019-02-25 16:13:01.487429+01",173358022,"30 Rockefeller Plaza","New York, NY","facebook_places",108793907292,40.759062333736999,-73.979441088320002,"Top Of The Rock NYC","Top Of The Rock NYC"
"2019-02-25 16:13:18.708496+01",10595165,"105064, Москва, ул. Земляной Вал, 7","Москва","facebook_places",273228219452518,55.762369999999997,37.657730000000001,"Старбакс","Старбакс"
"2019-02-25 08:57:19.041206+01",2645154302165188,"Барвиха Luxury Village","","facebook_places",2645154302165188,55.738862871434002,37.266729181789003,"ЦУМ Барвиха","ЦУМ Барвиха"
"2019-02-25 15:41:15.558273+01",1006972811,"","","facebook_places",255701207938550,55.558333330000004,38.146388889999997,"MAKS","MAKS"
"2019-02-25 16:20:11.980203+01",220128482,"г.Москва, A-80, ГСП-3, Волоколамское шоссе, д. 4 ","Москва","facebook_places",394412780622014,55.810917900466002,37.498741820055997,"Московский авиационный институт (НИУ)","Московский авиационный институт (НИУ)"
"2019-02-22 22:23:43.029471+01",223289896,"Жуковский, Фрунзе, д. 28","","facebook_places",118263641658740,55.598300000000002,38.119090000000000,"ДК Ленина, г. Жуковский","ДК Ленина"
"2019-02-24 17:11:16.311011+01",662222924,"","","facebook_places",103761809662429,52.047904000000003,113.471365000000006,"Chita, Zabaykalsky Krai","Chita"
"2019-02-25 16:06:47.075322+01",30861991,"Москва, Кремль","","facebook_places",112851458726255,55.751666666666999,37.617777777778002,"Moscow Kremlin","Moscow Kremlin"
"2019-02-25 16:21:36.363155+01",461864649,"","","facebook_places",100746030102428,55.759927292287998,37.866710763146003,"Реутово","Реутово"
"2019-02-25 19:31:03.015902+01",17326249,"","","facebook_places",115085015172389,55.752200000000002,37.615600000000001,"Moscow, Russia","Moscow"
"2019-02-23 00:13:02.077833+01",330912644,"","","facebook_places",163778150346428,55.606591285461000,38.093612008409998,"Жуковский - Наукоград","Жуковский - Наукоград"
"2019-02-25 16:30:03.197026+01",219777365,"","","facebook_places",121460761339899,55.788177240000003,37.788682150000000,"Измаиловский Проспект","Измаиловский Проспект"
"2019-02-22 22:31:02.184883+01",6219282,"Вязовая улица, 10","","facebook_places",459734014067348,59.967300000000002,30.274380000000001,"Академия Волейбола Платонова","Академия Волейбола Платонова"
"2019-02-22 22:31:10.049239+01",2234764,"м/р-н ИКЕА, корп.1","Москва","facebook_places",175733865807321,55.910674722799001,37.399774212186003,"IKEA Химки","IKEA Химки"
"2019-02-25 16:31:07.959273+01",1650613561880086,"Zubarra Road","","facebook_places",1650613561880086,26.216699999999999,50.583300000000001,"Party Department","Party Department"
"2019-02-22 22:33:21.252926+01",712604471,"","","facebook_places",109924649096911,55.896386919999998,37.555401699999997,"Электричка","Электричка"
"2019-02-25 16:36:20.502058+01",731504754,"улица Двинцев 12","","facebook_places",314472358642100,55.796485305136002,37.600720859714002,"Samsung Moscow Research Center","Samsung Moscow Research Center"
"2019-02-25 16:39:52.814319+01",657359647,"","","facebook_places",610744615679866,55.620879360000004,38.039901190000002,"Жуковский","Жуковский"
"2019-02-25 17:31:51.212716+01",421539619,"","","facebook_places",393433074077813,55.796728000000002,37.537421000000002,"Mail.Ru","Mail.Ru"
"2019-02-23 00:51:32.69357+01",513430973,"Институтский переулок, 9","","facebook_places",303793753161415,55.929933509999998,37.516743550000001,"МФТИ","МФТИ"
"2019-02-25 08:56:11.625424+01",767610312,"Россия, Московская область, Одинцовский район, поселок Барвиха","","facebook_places",259859724177083,55.716666666667002,37.266666666667000,"Барвиха","Барвиха"
"2019-02-25 16:52:49.249861+01",419266449,"Гарднеровский переулок, 3","Москва","facebook_places",724493147624151,55.766339573076998,37.677858980769002,"Myloungeroom Круглосуточная Кальянная М.Бауманская Москва 18+","Myloungeroom Круглосуточная Кальянная М.Бауманская Москва 18+"
"2019-02-25 09:00:56.01621+01",494906184,"","","facebook_places",234641489885220,44.600000000000001,33.533333333332998,"Sevastopol","Sevastopol"
"2019-02-25 18:10:48.862222+01",15871298,"MOSKOVSKOYE SHOSSE","","facebook_places",307896789342811,55.928160566888998,37.525069210712999,"Стадион МФТИ","Стадион МФТИ"
"2019-02-25 18:41:12.172501+01",677307192388401,"","","facebook_places",677307192388401,58.865350224898997,42.613687489542002,"Europe/Moscow","Europe/Moscow"
"2019-02-25 16:39:29.066846+01",889878930,"Лихачевский проезд, д.4, стр.1","","facebook_places",798509450244515,55.922300000000000,37.514330000000001,"Технопарк Лихачевский","Технопарк Лихачевский"
"2019-02-25 08:55:44.975044+01",741896935,"","","facebook_places",353718351356745,55.714278040000004,37.757727019999997,"Новый Арбат","Новый Арбат"
"2019-02-25 09:03:41.509963+01",54088,"Новоясеневский проспект, 30","Москва (Moscow, Russia)","facebook_places",252710728102099,55.604590000000002,37.536679900000003,"Дворец спорта Содружество","Дворец спорта Содружество"
"2019-02-25 16:13:12.339166+01",448073020,"Ленинский, 53, Москва","","facebook_places",262002353890421,55.697650000000003,37.565680000000000,"Фиан","Фиан"
"2019-02-25 16:42:58.446764+01",1011148755,"","","facebook_places",1465659793723827,55.607222222221999,37.288611111111003,"Аэропорт Внуково","Аэропорт Внуково"
"2019-02-25 08:51:12.160768+01",1017148253,"Москва, Стремянный пер., 36","Москва","facebook_places",167365853316663,55.727034600000003,37.627268500000000,"Plekhanov Russian University of Economics / РЭУ Плеханова","Plekhanov Russian University of Economics / РЭУ Плеханова"
"2019-02-25 16:14:34.413496+01",3454334,"Инновационный центр Сколково, улица Нобеля, 1","Москва","facebook_places",165762016786222,55.750639999999997,37.653269999999999,"РВК","РВК"
"2019-02-25 10:36:55.940218+01",4591855,"4, Sirenevyi bul'var","Москва","facebook_places",159658157408500,55.801711737689999,37.759698942467999,"РГУФКСМиТ","РГУФКСМиТ"
"2019-02-25 16:20:08.477489+01",840777314,"","Moscow, Russia","facebook_places",349600615117530,55.671417982808002,37.676260704973998,"Geek Picnic","Geek Picnic"
"2019-02-25 16:49:17.822885+01",1714945018753522,"3 Nobel Street","","facebook_places",1714945018753522,55.684791528123000,37.340622045361997,"Skoltech","Skoltech"
"2019-02-25 16:59:43.21701+01",1683311978352841,"Талалихина, Д28","","facebook_places",1683311978352841,55.730405531168003,37.679355095890998,"ЛД Центральный","ЛД Центральный"
"2019-02-25 17:03:26.355563+01",1923393471266275,"МО, Долгопрудный. Лихачевский проезд 8","","facebook_places",1923393471266275,55.922156600000001,37.513614099999998,"Спорт Клуб Грифон","Спорт Клуб Грифон"
"2019-02-25 18:07:15.887313+01",213198597,"Улица Казакова, 8","Москва","facebook_places",429408420440561,55.762329999999999,37.662059999999997,"Гоголь-Центр / Gogol-Center","Гоголь-Центр / Gogol-Center"
"2019-02-25 10:58:20.863732+01",12466583,"Пресненская набережная 6, строение 2","","facebook_places",104052339630282,55.746666666666996,37.536944444444004,"Moscow International Business Center","Moscow International Business Center"
"2019-02-25 16:38:05.186726+01",498495976,"","Moscow, Russia","facebook_places",297742177057857,55.409206753345998,37.009542876718001,"Белоусово","Белоусово"
"2019-02-25 17:05:02.010655+01",2864446,"ул. Челюскинцев, 189е","Donetsk, Ukraine","facebook_places",122581454447308,48.020705763374004,37.810025934469003,"DONBASS ARENA","DONBASS ARENA"
"2019-02-25 18:12:00.7227+01",581093637,"Akademika Lavrent'yeva Ulitsa","","facebook_places",387240054777733,55.945117035088003,37.502104975282997,"Центральный Парк Город Долгопрудный","Центральный Парк Город Долгопрудный"
"2019-02-25 18:22:19.129648+01",479083749,"Тверская улица","","facebook_places",143266569024203,55.763888888888999,37.606388888889001,"Tverskaya Street","Tverskaya Street"
"2019-02-25 16:40:03.999897+01",976007275,"","","facebook_places",505578562825159,55.802222222222000,37.632222222221998,"Москва (город)","Москва (город)"
"2019-02-25 08:49:41.66771+01",915485625313833,"Климентовский пер., 1, стр. 18","","facebook_places",915485625313833,55.740852703607999,37.631510404281997,"МФТИ в Климентовском","МФТИ в Климентовском"
"2019-02-25 10:48:15.538137+01",484170119,"Большой Харитоньевский переулок, 4","Москва","facebook_places",794532763909684,55.763777699999999,37.643339900000001,"Лицей ВШЭ","Лицей ВШЭ"
"2019-02-25 10:48:29.210589+01",407929794,"Пресненская набережная, 2","Москва","facebook_places",179041032115599,55.748939999999998,37.538739999999997,"АФИМОЛЛ Сити/ AFIMALL City","АФИМОЛЛ Сити/ AFIMALL City"
"2019-02-24 14:04:26.887626+01",587682074630979,"Дмитровское шоссе 9","Москва","facebook_places",587682074630979,55.815420000000003,37.575449900000002,"БУХ.1С","БУХ.1С"
"2019-02-25 19:30:05.125366+01",475839896253823,"Московское ш., 21, корп. 1","","facebook_places",475839896253823,55.928893668305001,37.523665157021000,"Бассейн МФТИ","Бассейн МФТИ"
"2019-02-25 12:21:56.268173+01",1428842287426237,"Мясницкая ул., 20","Moscow, Russia","facebook_places",1428842287426237,55.762400000000000,37.633470000000003,"Высшая школа экономики","Высшая школа экономики"
"2019-02-25 08:51:43.63306+01",214338534,"Korablestroiteley str.,14","St. Petersburg, Khabarovsk, RU","facebook_places",338952602103,59.938946272924000,30.214830662265001,"Park Inn by Radisson Pribaltiyskaya Hotel & Congress Center","Park Inn by Radisson Pribaltiyskaya Hotel & Congress Center"
"2019-02-25 17:07:47.44992+01",517592719,"","","facebook_places",222804384445100,55.930000000000000,37.560833330000001,"Severny District, Moscow","Severny District"
"2019-02-22 23:10:58.931988+01",333032,"161 Maude Street","Sandton, South Africa","facebook_places",182938755168686,-26.106003718632000,28.053548839365000,"Sandton Convention Centre","Sandton Convention Centre"
"2019-02-22 13:51:53.625143+01",509310178,"","","facebook_places",1432748673627586,55.777000000000001,37.789000000000002,"Измайловский парк","Измайловский парк"
"2019-02-25 19:24:32.388754+01",1027433771,"Институтский переулок, д. 9.","Dolgoprudnyy, Moskovskaya Oblast', Russia","facebook_places",295249057306132,55.930558599999998,37.517139499999999,"Moscow Institute of Physics and Technology - MIPT","Moscow Institute of Physics and Technology - MIPT"
"2019-02-25 17:12:04.371804+01",222061665,"Калининградская область","","facebook_places",650137465009899,54.638573081899999,19.895021400299999,"Балтийская Коса","Балтийская Коса"
"2019-02-25 17:12:14.373696+01",239291563,"","Kazbegi","facebook_places",138381579519138,42.662500000000001,44.620277777778000,"Gergeti Trinity Church","Gergeti Trinity Church"
"2019-02-24 17:15:59.732814+01",1237829402953491,"ул. Охотный ряд, д. 1","","facebook_places",1237829402953491,55.757953287177003,37.615824937820001,"Государственная Дума","Государственная Дума"
"2019-02-22 23:11:00.865494+01",799124676,"O.R. Tambo Airport Road","","facebook_places",289159161164466,-26.024907063499999,28.010316433000000,"Johannesburg Airport","Johannesburg Airport"
"2019-02-22 23:11:03.019852+01",251042283,"","","facebook_places",273235902765007,25.242022668000001,55.373577140000002,"Dubai International Airport - Terminal 3 (Emirates Airline)","Dubai International Airport - Terminal 3 (Emirates Airline)"
"2019-02-25 12:18:42.357872+01",942958768,"","Moscow, Russia","facebook_places",321810880576,55.733980000000002,37.588290000000001,"Яндекс","Яндекс"
"2019-02-25 17:13:25.93008+01",944875684,"Ленинградское шоссе д.57, корп. 2","Москва","facebook_places",147177155317632,55.854920000000000,37.465850000000003,"PARKHOUSE","PARKHOUSE"
"2019-02-25 16:51:59.096195+01",264225383,"Химки Левобережный","","facebook_places",273305619448777,55.900121400000003,37.478363999999999,"Левобережная Химки","Левобережная Химки"
"2019-02-25 16:55:01.120409+01",512466437,"","","facebook_places",198711660281708,55.846768316168003,37.468866149858002,"Red Square,  Kremlin","Red Square"
"2019-02-25 17:19:04.09281+01",591736882,"","Москва","facebook_places",537595499599406,55.760410273138000,37.614827156067001,"Шереметьево","Шереметьево"
"2019-02-25 17:21:00.787014+01",219129087,"ул. Олимпийская деревня, 2","","facebook_places",283590555124296,43.395504510899997,39.972323917600001,"Олимпийская Набережная","Олимпийская Набережная"
"2019-02-22 23:26:37.868429+01",842556295,"Европы площадь, 2","","facebook_places",435905889924829,55.741660000000003,37.567000000000000,"Москва, Рэдиссон Славянская, гостиница","Москва"
"2019-02-25 16:59:38.666022+01",213178526,"улица Володарского","","facebook_places",313642288724079,54.960261408999998,20.470838793900000,"Променад Зеленоградска","Променад Зеленоградска"
"2019-02-25 16:59:47.867554+01",531862383618258,"ул. Канта, 1","","facebook_places",531862383618258,54.706389000000002,20.511666999999999,"Кёнигсбергский собор","Кёнигсбергский собор"
"2019-02-25 17:05:05.828748+01",1015484212,"Староконюшенный переулок, 32","","facebook_places",1476261769365824,55.749620000000000,37.595340000000000,"Omelchenko Gallery","Omelchenko Gallery"
"2019-02-25 17:28:55.296809+01",2487239,"Dmitrovskoye Shosse, Estate 171","Moscow","facebook_places",145640755458926,55.943641999999997,37.536389999999997,"Holiday Inn Moscow Vinogradovo","Holiday Inn Moscow Vinogradovo"
"2019-02-25 18:38:33.221009+01",229311506,"","","facebook_places",111235688896478,45.203600000000002,33.361400000000003,"Yevpatoriya","Yevpatoriya"
"2019-02-25 18:22:04.536921+01",533813493,"","Dolgoprudyy, Moskovskaya Oblast', Russia","facebook_places",1427690154149780,55.939859180101998,37.492650179755998,"Лихачёвский","Лихачёвский"
"2019-02-22 23:32:56.638344+01",498585115,"","","facebook_places",280758032035277,44.906092719199997,37.989012664199997,"Город Крымск","Город Крымск"
"2019-02-22 23:33:01.524519+01",547691273,"Коммунистическая улица","Krymsk","facebook_places",667060349998017,44.936380000000000,37.980570000000000,"Гигант","Гигант"
"2019-02-22 23:33:03.745281+01",229682501,"","","facebook_places",1394275117451291,44.934384999999999,37.964503999999998,"Футбольный центр Гигант","Футбольный центр Гигант"
"2019-02-25 08:56:28.42834+01",352885903,"улица Новый Арбат","","facebook_places",1433214466914681,55.752222222222002,37.591111111110998,"Новый Арбат","Новый Арбат"
"2019-02-25 17:11:20.796093+01",774881305,"","","facebook_places",329960700431826,55.942238742366001,37.489294419697998,"Dolgoprudniy","Dolgoprudniy"
"2019-02-25 17:32:46.822537+01",1047253122040109,"Головинское шоссе 5/1","","facebook_places",1047253122040109,55.839474899999999,37.490213900000000,"Тинькофф Банк","Тинькофф Банк"
"2019-02-25 14:28:25.366921+01",407667929,"","","facebook_places",166077653437913,43.029166666667002,131.891944444440014,"Far Eastern Federal University","Far Eastern Federal University"
"2019-02-25 17:33:20.747652+01",505850771,"143080, Московская обл., Одинцовский р-н, ВНИИССОК пос., ул. Селекционная, 14","","facebook_places",130125433738677,55.659260842701002,37.204117201834002,"ВНИИССОК","ВНИИССОК"
"2019-02-22 23:36:19.983115+01",356521893,"","","facebook_places",363726070437458,44.936336218944000,37.964018586441000,"Стадион Гигант","Стадион Гигант"
"2019-02-25 19:29:10.188875+01",258961008,"Проспект Вернадского 82-84","Москва","facebook_places",362252433862064,55.667310000000000,37.478549999999998,"Президентская академия - РАНХиГС","Президентская академия - РАНХиГС"
"2019-02-25 17:36:48.870871+01",213621865,"ул. Электрозаводская, 21, ,  3-я ""Мраморная"" проходная, 4 эт.","Москва","facebook_places",227950620703945,55.786670700000002,37.704418199999999,"Naked Studio","Naked Studio"
"2019-02-25 17:39:49.442365+01",1647392248908301,"ул.Маршала Савицкого, дом 7","Москва","facebook_places",1647392248908301,55.504554400000004,37.579831800000001,"Ледовый комплекс ""Южный лед""","Ледовый комплекс ""Южный лед"""
"2019-02-25 19:26:38.551896+01",1022297882,"проспект Ракетостроителей, д. 4","Dolgoprudnyy, Moskovskaya Oblast', Russia","facebook_places",508711392637308,55.934827520939002,37.511658668518002,"Стадион Салют","Стадион Салют"
"2019-02-23 00:03:09.622105+01",40978794,"","","facebook_places",239159832794593,44.559452554045002,38.079462723702001,"Радуга","Радуга"
"2019-02-25 16:54:31.178515+01",230123819,"Нащокинский пер. 5 стр.5","Москва","facebook_places",163759773649595,55.746560192551002,37.597564826583998,"Академия Долорес / Dolores Academy","Академия Долорес / Dolores Academy"
"2019-02-25 17:28:48.103145+01",762020059,"9, Institutskiy pereulok","Dolgoprudnyy, Moskovskaya Oblast', Russia","facebook_places",1603282666573978,55.929970842053997,37.517575641790003,"Alumni_mipt","Alumni_mipt"
"2019-02-25 17:44:35.156736+01",1023080541,"Республика Крым, Ялта, Понизовка, c. Оползневое, ул. Генерала Острякова, 9","Ялта","facebook_places",565627250251239,44.396785433654998,33.938475413113998,"Mriya Resort & Spa Yalta","Mriya Resort & Spa Yalta"
"2019-02-25 19:07:56.90609+01",213054252486394,"Ул. Спортивная д5/3","Dolgoprudnyy, Moskovskaya Oblast', Russia","facebook_places",213054252486394,55.943539999999999,37.495049999999999,"DvoryankinaMarina","DvoryankinaMarina"
"2019-02-22 23:53:45.045319+01",654102128,"","","facebook_places",271382016211952,44.502547079999999,38.127195290000003,"Дивноморск","Дивноморск"
"2019-02-25 17:44:55.729929+01",1759498780981149,"Рябиновая 26, строение 10","Москва","facebook_places",1759498780981149,55.694530000000000,37.422739999999998,"Faros.Media","Faros.Media"
"2019-02-25 18:58:43.244634+01",279852755,"","Novosibirsk, Russia","facebook_places",461039054028441,54.835909999999998,83.099720000000005,"Новосибирский Академгородок","Новосибирский Академгородок"
"2019-02-25 17:38:05.888158+01",221165772,"","MOSKVA","facebook_places",388334827950604,55.752645000000001,37.572651000000000,"Москва - река","Москва - река"
"2019-02-25 17:38:06.993075+01",270006970,"Moscow","Moscow, Russia","facebook_places",667446356652876,55.575344285000000,37.137802790000002,"Храм Христа Спасителя","Храм Христа Спасителя"
"2019-02-25 17:38:08.60193+01",539107042,"","","facebook_places",321347774623997,55.679563810795997,37.532987948124003,"Цветной Бульвар","Цветной Бульвар"
"2019-02-25 17:49:01.338668+01",541899024,"","","facebook_places",1442550829328580,58.047803712295000,38.780882344190999,"Rybinsk Sea / Рыбинское море","Rybinsk Sea / Рыбинское море"
"2019-02-25 19:33:30.793746+01",238745726798014,"Первомайская ул., 18","","facebook_places",238745726798014,55.924661158588002,37.524399392855997,"IQ Cafe","IQ Cafe"
"2019-02-25 17:36:46.256737+01",1026759580,"Leninsky prospect, 31 k.4","","facebook_places",183327955358034,55.712730000000000,37.589579999999998,"ИФХЭ РАН","ИФХЭ РАН"
"2019-02-25 18:04:59.29152+01",1109500,"ул. Тверская, 18, стр. 1","","facebook_places",163669817021025,55.766178099999998,37.604209900000001,"Lookin Rooms","Lookin Rooms"
"2019-02-25 19:05:51.880445+01",457543300,"","","facebook_places",142786269067846,55.766666666667000,37.600000000000001,"Tverskoy District","Tverskoy District"
"2019-02-25 18:08:56.499289+01",2001805,"","Dolgoprudnyy, Moskovskaya Oblast', Russia","facebook_places",141387869265123,55.939043737844003,37.515762421246997,"Долгопрудный","Долгопрудный"
"2019-02-25 17:49:12.174084+01",613445346,"Ленинградский просп., 24а","Москва","facebook_places",215952281764860,55.783239999999999,37.574289999999998,"Спортивный комплекс ""Крылья Советов""","Спортивный комплекс ""Крылья Советов"""
"2019-02-25 17:55:17.10803+01",1023288873,"проспект Мира, домовладение 119, ВДНХ","Москва","facebook_places",1012912458751117,55.830649519841003,37.638301849365000,"75 павильон ВДНХ","75 павильон ВДНХ"
"2019-02-25 12:05:45.129523+01",359545221,"","","facebook_places",107881505913202,55.755833333333001,37.617777777778002,"Moscow","Moscow"
"2019-02-25 18:04:36.248604+01",222190580,"191025, Санкт-Петербург, Невский просп., 47","Санкт-Петербург (Saint Petersburg, Russia)","facebook_places",163920617003990,59.932526543009999,30.347657188502001,"Ресторан Палкин","Ресторан Палкин"
"2019-02-25 18:07:03.060687+01",213194024,"","","facebook_places",109694065724159,55.765833333332999,37.684722222222000,"Bauman Moscow State Technical University","Bauman Moscow State Technical University"
"2019-02-23 00:07:47.892729+01",466005201,"","","facebook_places",105537599480521,55.933333333333003,37.500000000000000,"Dolgoprudny","Dolgoprudny"
"2019-02-25 18:06:56.534831+01",217651206,"Ярославское шоссе, д. 26, корпуса ОС-1,ОС-2,ОС-3,ОС-4","","facebook_places",212493298761712,55.852347235590003,37.698871407879999,"МГСУ Общежитие","МГСУ Общежитие"
"2019-02-25 18:07:01.664518+01",872969586,"Ярославская обл, Рыбинский р-он, с. Спасс, ул. Нижняя, д. 61","","facebook_places",708583029268301,58.024258719999999,39.041763709999003,"Парк-Отель ""спасское""","Парк-Отель ""спасское"""
"2019-02-25 19:17:33.346136+01",2082769,"Ленинские горы, д. 1, корп. 46","","facebook_places",426238314101423,55.695880000000002,37.537689999999998,"МГУ - Экономический Факультет","МГУ - Экономический Факультет"
"2019-02-25 14:23:28.255384+01",11539706,"Мосфильмовская ул., 4а","","facebook_places",399879896734692,55.716158628487001,37.525052978498998,"Мосфильмовская","Мосфильмовская"
"2019-02-25 18:07:18.87449+01",13426954,"Воробьёвы горы","Moscow, Moscow City","facebook_places",144651515603611,55.709173208861998,37.541882168100003,"Смотровая площадка на Воробьёвых горах","Смотровая площадка на Воробьёвых горах"
"2019-02-23 00:13:00.935889+01",266245215,"","","facebook_places",659939040716926,55.939884665702003,37.505375436691999,"Город Долгопрудный","Город Долгопрудный"
"2019-02-25 18:08:19.380697+01",28031973,"","","facebook_places",263073203754363,55.889648481800002,37.711552830000002,"МКАД","МКАД"
"2019-02-25 18:25:53.073876+01",1596395427339615,"","","facebook_places",1596395427339615,55.801384740000003,49.111631010000004,"Дом Земледельцев, Kazan","Дом Земледельцев"
"2019-02-23 00:08:55.92152+01",611601775,"","","facebook_places",237005209739845,55.698982680063999,37.578376000086003,"Институт Системного Анализа РАН","Институт Системного Анализа РАН"
"2019-02-23 00:08:59.41789+01",502913422,"","","facebook_places",386030718136786,55.674600349999999,37.567178839999997,"ЦЭМИ","ЦЭМИ"
"2019-02-25 18:16:43.61107+01",1858519257716924,"Дирижабельная, 6к3","","facebook_places",1858519257716924,55.940402166668001,37.510419333339002,"Коворкинг СТАРТ г. Долгопрудный","Коворкинг СТАРТ г. Долгопрудный"
"2019-02-25 18:31:50.431075+01",840059203,"ул. Молодогвардейская, д.54, стр.5","Москва","facebook_places",363316053866412,55.734873737941001,37.395761434027001,"Картинг-клуб ""Le Mans""","Картинг-клуб ""Le Mans"""
"2019-02-25 10:27:48.604723+01",1939549072953922,"Восточно-Кругликовская 1а","","facebook_places",1939549072953922,45.035130000000002,39.027569999999997,"Парк Галицкого","Парк Галицкого"
"2019-02-25 18:52:18.327123+01",279134919,"73-й км МКАД, д. 7","","facebook_places",154424788040197,55.944653395777998,37.497714496488001,"Якитория","Якитория"
"2019-02-25 19:33:55.233057+01",1048038281934601,"Первомайская 18","","facebook_places",1048038281934601,55.924860000000002,37.524760000000001,"IQ Cafe","IQ Cafe"
"2019-02-25 18:20:30.7583+01",331892495,"","Ashukino, Moskovskaya Oblast', Russia","facebook_places",108004119221429,55.712670000000003,37.476810000000000,"Moscow State University of Economics, Statistics, and Informatics","Moscow State University of Economics"
"2019-02-25 18:40:58.483765+01",224253539,"","","facebook_places",108162242541886,43.481388888889001,40.541388888889003,"Lake Ritsa","Lake Ritsa"
"2019-02-25 18:22:32.779372+01",75854758,"Вокзальная улица","","facebook_places",258402110977143,55.675434912599997,37.288394942899998,"Станция Одинцово","Станция Одинцово"
"2019-02-23 00:18:46.161514+01",5382086,"Россия, Московская область, Савёловское направление, платформа Водники","","facebook_places",101454233272045,55.951119951010000,37.515750450231003,"Станция ""Водники""","Станция ""Водники"""
"2019-02-25 18:23:35.312185+01",213188865,"","","facebook_places",117688481625030,43.646447000000002,40.332205999999999,"Rosa Khutor Alpine Resort","Rosa Khutor Alpine Resort"
"2019-02-25 18:46:42.870152+01",570597835,"","Miass","facebook_places",1443546892556697,55.760433569999996,37.662401459999998,"Сабвэй","Сабвэй"
"2019-02-23 00:19:43.211081+01",219236216,"ул. Большая Якиманка, 24","Москва","facebook_places",214307235250904,55.737451439521998,37.612929096327001,"Президент отель","Президент отель"
"2019-02-25 15:07:08.712013+01",11616446006,"125167, г. Москва, Ленинградский проспект д.39, строение 79, БЦ «SkyLight».","Москва","facebook_places",11616446006,55.796959999999999,37.537820000000004,"Mail.ru Group","Mail.ru Group"
"2019-02-25 18:27:08.434559+01",499211279,"","","facebook_places",338770756136333,55.943104269999999,37.490434420000000,"лихачевское шоссе","лихачевское шоссе"
"2019-02-25 18:28:28.79405+01",498541123,"МКАД 84 км (внешн.)","","facebook_places",250871795007304,55.914619085833003,37.573236129999998,"Леруа Мерлен Алтуфьево","Леруа Мерлен Алтуфьево"
"2019-02-25 18:29:28.136773+01",651894834978871,"Naberezhnaya, 22","Dolgoprudnyy, Moskovskaya Oblast', Russia","facebook_places",651894834978871,55.961813251368000,37.516872882843003,"Ресторан Мореман в яхт-клубе Аврора","Ресторан Мореман в яхт-клубе Аврора"
"2019-02-25 18:31:06.882557+01",268087356,"Серебряническая набережная, 29","Москва (Moscow, Russia)","facebook_places",107172492706152,55.750639999999997,37.653269999999999,"BC Silver City","BC Silver City"
"2019-02-23 00:35:44.215688+01",679959890,"","Dolgoprudyy, Moskovskaya Oblast', Russia","facebook_places",629937137097229,55.927579999999999,37.524090000000001,"Стадион Мфти","Стадион Мфти"
"2019-02-25 14:06:27.573162+01",362792033820345,"Россия, Москва, Щукинская улица","","facebook_places",362792033820345,55.804706294900001,37.453513677084999,"Щукинская","Щукинская"
"2019-02-25 12:13:23.852783+01",415009470,"Проспект Ленина 36","Tomsk07, Tomskaya Oblast', Russia","facebook_places",140030906059408,56.469478600000002,84.946739199999996,"ТГУ","ТГУ"
"2019-02-23 00:30:38.60869+01",219817703,"","Petrodvorets, Sankt-Peterburg, Russia","facebook_places",422743841082963,59.886677952924003,29.910162870046001,"Петергоф, Фонтаны","Петергоф"
"2019-02-25 19:30:13.540078+01",406553821,"","","facebook_places",190960597705588,55.794166666667003,37.588055555555996,"Moscow Savyolovskaya railway station","Moscow Savyolovskaya railway station"
"2019-02-25 09:05:21.146832+01",214179276,"","","facebook_places",107677462599905,53.899999999999999,27.566700000000001,"Minsk, Belarus","Minsk"
"2019-02-25 19:19:06.384907+01",29390523,"Москва, ул. Лодочная, дом 12","","facebook_places",151806831608591,55.842440000000003,37.464050000000000,"Ледовый дворец Звезда","Ледовый дворец Звезда"
"2019-02-25 12:16:16.047192+01",213076983,"Leningradskiy prospekt, 64","Moscow, Russia","facebook_places",195155873829358,55.807687278514003,37.545708449144001,"Moscow State Automobile & Road Technical University (MADI)","Moscow State Automobile & Road Technical University (MADI)"
"2019-02-25 08:56:24.534359+01",108692080047743,"Малая Бронная ул.","","facebook_places",108692080047743,55.763765754359000,37.592029919924997,"Патриаршие пруды / Patriarshiye Ponds","Патриаршие пруды / Patriarshiye Ponds"
"2019-02-25 08:52:22.382556+01",835994653192520,"","","facebook_places",835994653192520,55.752200000000002,37.615600000000001,"Воробьевы Горы","Воробьевы Горы"
"2019-02-25 18:32:50.96303+01",417570716,"","","facebook_places",210702285641333,52.920611385234999,36.011077655169998,"Гостиница Гринн (Орел)","Гостиница Гринн (Орел)"
"2019-02-25 12:07:27.024249+01",427141636,"Веерная, Нежинская, Матвеевская, Наташи Ковшовой, Большая Очаковская","","facebook_places",282648738413762,55.694166670000001,37.443888889999997,"Ochakovo-Matveyevskoye District","Ochakovo-Matveyevskoye District"
"2019-02-25 18:40:08.821788+01",249982361,"ул.Интернациональная 162-Б","","facebook_places",386477274806694,45.199726471856003,33.330965974861002,"Арена Крым","Арена Крым"
"2019-02-25 19:15:52.524147+01",35689564,"Территория инновационного центра «Сколково», дом 1, Центр Городского развития (Гиперкуб)","","facebook_places",391029744332605,55.696566427401002,37.356107562228999,"Гиперкуб","Гиперкуб"
"2019-02-22 23:32:17.351625+01",19615988,"улица Лескова","Москва (Moscow, Russia)","facebook_places",356988374322215,55.901316434519998,37.602993715132001,"Лианозовский Питомник","Лианозовский Питомник"
"2019-02-25 17:57:05.518151+01",77891714,"Ленинский проспект, д. 65","Москва","facebook_places",328198700549535,55.692064103126000,37.555217742920000,"Gubkin Russian State University of Oil and Gas","Gubkin Russian State University of Oil and Gas"
"2019-02-25 15:25:23.178365+01",213264682,"","","facebook_places",115486911798138,43.277500000000003,76.895799999999994,"Almaty, Kazakhstan","Almaty"
"2019-02-22 22:33:19.971038+01",291199085,"ЮЗАО","","facebook_places",133630850010179,55.670277777777997,37.554444444444002,"Novye Cheryomushki","Novye Cheryomushki"
"2019-02-25 12:13:48.888772+01",356777434747749,"Чистопрудный бульвар","","facebook_places",356777434747749,55.762790000000002,37.641800000000004,"Чистопрудный Бульвар","Чистопрудный Бульвар"
"2019-02-25 15:15:58.371826+01",272115562,"м.китай-город","","facebook_places",123698591008174,55.755555555556000,37.632500000000000,"Kitay-gorod (Moscow Metro)","Kitay-gorod (Moscow Metro)"
"2019-02-25 16:09:54.851748+01",212988663,"","","facebook_places",108424279189115,40.714199999999998,-74.006399999999999,"New York, New York","New York"
"2019-02-25 18:37:10.469341+01",4956170,"улица Большая Якиманка","Москва","facebook_places",147906031950517,55.734741063794999,37.612883792395998,"Большая Якиманка","Большая Якиманка"
"2019-02-25 18:44:42.171614+01",523066883,"","","facebook_places",112862432095857,55.706666669999997,37.516666669999999,"Ramenki District","Ramenki District"
"2019-02-25 18:44:54.692395+01",813457476,"Воздвиженская, 9-19","","facebook_places",889388854462248,50.461308631000001,30.509655485000000,"BOtaN","BOtaN"
"2019-02-25 18:51:35.766929+01",345016247,"Москва, Пресненская наб., 8, стр. 1","","facebook_places",137242562964108,55.747059999999998,37.539319999999996,"City of Capitals","City of Capitals"
"2019-02-25 18:54:36.404997+01",466990429,"","","facebook_places",293014604131048,55.632418870000002,37.769943220000002,"Охотный Ряд Старбакс","Охотный Ряд Старбакс"
"2019-02-25 19:04:13.712578+01",224185352,"","","facebook_places",203300516383938,55.955631775081002,37.522778689538001,"Водники","Водники"
"2019-02-25 19:05:54.47018+01",795540201,"","","facebook_places",660289753998061,59.950000000000003,30.316666666700002,"Санкт–Петербург","Санкт–Петербург"
"2019-02-25 19:17:23.051236+01",846821032,"","","facebook_places",1598063273795227,55.944708217177997,37.530159867729999,"Чистая линия","Чистая линия"
"2019-02-25 19:19:20.151813+01",1019085642,"Дмитровское шоссе, д.9","Москва (Moscow, Russia)","facebook_places",1631718833760014,55.815418200000003,37.575450900000000,"Курсы 1С и экзамены 1С:Учебный центр N1","Курсы 1С и экзамены 1С:Учебный центр N1"
"2019-02-25 19:26:37.407267+01",617880686,"","","facebook_places",418621598192126,55.580238201428998,37.653394302857002,"ЛД ""южный""","ЛД ""южный"""
"2019-02-25 19:31:11.375573+01",213589318,"","","facebook_places",299715520149394,55.727777777778002,37.628055555556003,"Plekhanov Russian University of Economics","Plekhanov Russian University of Economics"
"2019-02-25 18:39:40.115013+01",739174505,"","","facebook_places",155610877835006,45.189551333291000,33.357582520716001,"Евпатория","Евпатория"
"2019-02-25 18:39:38.447572+01",17586224,"","Евпатория","facebook_places",609924292352979,45.183357238770000,33.361824035645000,"Набережная Горького","Набережная Горького"
"2019-02-25 18:54:52.199361+01",11182844,"Авиамоторная ул­., 8А стр.5.","","facebook_places",167931813338136,55.755747231470998,37.714611095808998,"Конгресс-Центр Мтуси","Конгресс-Центр Мтуси"
"2019-02-25 19:18:47.210777+01",522756170,"","Dolgoprudyy, Moskovskaya Oblast', Russia","facebook_places",300332426786063,55.933429500000003,37.497604400000000,"Гимназия 12","Гимназия 12"
"2019-02-25 19:18:58.729312+01",1784221268533265,"Tverskaya St, 3","","facebook_places",1784221268533265,55.757280000000002,37.612890000000000,"The Ritz-Carlton, Moscow.","The Ritz-Carlton"
"2019-02-25 19:26:59.935626+01",296621693,"улица Чкалова","Medvezhyegorsk","facebook_places",446338278834562,62.914287665518003,34.513696509226001,"Малая Медвежка","Малая Медвежка"
"2019-02-22 23:08:42.252187+01",286040438,"Нижегородская область","","facebook_places",188476397886498,56.313588184902002,43.873289120530998,"Н Новгород","Н Новгород"
"2019-02-25 18:40:17.918064+01",323753764,"","","facebook_places",388167161242257,45.189398192700999,33.357638851598999,"Украина Палас Hotel,Евпатория","Украина Палас Hotel"
"2019-02-25 18:57:18.919295+01",274041159,"","","facebook_places",203544566355521,55.600000000000001,38.116666666667001,"Жуковский","Жуковский"
"2019-02-25 19:08:03.628799+01",213174792,"","","facebook_places",215142321949280,55.776388888889002,37.580277777778001,"Moscow Smolenskaya railway station","Moscow Smolenskaya railway station"
"2019-02-25 19:20:11.235535+01",405206136,"","","facebook_places",407859805934400,55.924501851099997,37.524339830199999,"BP Долгопрудный","BP Долгопрудный"
"2019-02-25 15:47:10.830844+01",212903416,"","","facebook_places",106012156106461,41.007931999999997,28.978144000000000,"Istanbul, Turkey","Istanbul"
"2019-02-25 14:21:55.759729+01",216856748,"Россия, Москва, проспект Вернадского","","facebook_places",164492646967080,55.676944440000000,37.500277779999998,"Prospekt Vernadskogo District","Prospekt Vernadskogo District"
"2019-02-25 19:23:11.659088+01",206258876,"77 Massachusetts Ave","Cambridge, MA","facebook_places",126533127390327,42.358002668843000,-71.093015500788994,"Massachusetts Institute of Technology (MIT)","Massachusetts Institute of Technology (MIT)"
"2019-02-25 19:33:49.873547+01",1139940102763765,"г.Долгопрудный,пр.Ракетостроителей, 5к2","","facebook_places",1139940102763765,55.933230000000002,37.499240000000000,"Salon Olga B","Salon Olga B"
"2019-02-25 17:15:52.085838+01",1815425775411910,"улица Ракетостроителей 4","","facebook_places",1815425775411910,55.935236171752997,37.511744499206998,"ГТО Стадион Салют- г.Долгопрудный","ГТО Стадион Салют- г.Долгопрудный"
"2019-02-25 12:13:09.879435+01",615831356,"Коломенское","","facebook_places",209332505761792,55.667691658324998,37.669616169831002,"Парк Коломенское","Парк Коломенское"
"2019-02-23 01:33:42.51811+01",472697557,"","Khimki","facebook_places",730573143653057,55.818861601510001,37.515975585031001,"Олимпийский центр Планерная","Олимпийский центр Планерная"
"2019-02-25 19:26:49.890081+01",172842059856900,"Münchner Stadtbibliothek Am Gasteig, Rosenheimer Straße 5","München","facebook_places",172842059856900,48.130860900000002,11.590921800000000,"Europe Direct Informationszentrum München","Europe Direct Informationszentrum München"
"2019-02-25 12:21:53.338604+01",1022534471,"Новая площадь, 10","Москва","facebook_places",199683053701425,55.757990000000000,37.627170000000000,"Разведка","Разведка"
"2019-02-25 09:04:57.036161+01",445945880,"","","facebook_places",109385842420478,54.614800000000002,39.743099999999998,"Ryazan","Ryazan"
"2019-02-25 19:26:58.555566+01",8284,"","Москва","facebook_places",345497682209283,55.750169999999997,37.594673999999998,"Arbat Street, Moscow","Arbat Street"
"2019-02-25 18:41:06.788169+01",221630742,"","","facebook_places",106456079391157,55.783299999999997,49.166699999999999,"Kazan, Tatarstan","Kazan"
"2019-02-25 19:32:50.584757+01",1019346793,"","","facebook_places",470177862992771,55.768058799999999,37.599929799999998,"Чайхона 1","Чайхона 1"
"2019-02-25 14:02:19.175009+01",1951967925046415,"Олимпийский Проспект, 21","","facebook_places",1951967925046415,43.403610911823002,39.963588993575002,"Олимпийский Парк, Сочи","Олимпийский Парк"
"2019-02-25 18:28:22.413485+01",213054430,"с. Эстосадок, ул. Олимпийская, д. 35","г. Сочи, Краснодарский край","facebook_places",378445532238786,43.672458347472997,40.294874912683000,"Роза Хутор","Роза Хутор"
"2019-02-23 01:47:30.341695+01",336531362,"","MOSKVA","facebook_places",272474296288263,55.754831123646000,37.621476542038003,"Red Square, Moscow","Red Square"
"2019-02-25 19:27:52.442556+01",406639092,"","","facebook_places",760099637362425,54.717216290071001,20.507555009368002,"Гимназия 32","Гимназия 32"
"2019-02-25 16:17:33.13233+01",221674386,"","","facebook_places",107428115952951,54.183900000000001,37.597400000000000,"Tula, Russia","Tula"
"2019-02-22 18:37:17.715348+01",662125093963070,"","","facebook_places",662125093963070,55.929444444444002,37.521388888889000,"معهد موسكو للفيزياء والتكنولوجيا","معهد موسكو للفيزياء والتكنولوجيا"
"2019-02-22 20:25:07.001696+01",1025974742,"проспект Ракетостроителей, № 4 / ФОК Салют | prospekt Raketostroiteley, № 4 / FOK Saljut .","","facebook_places",539921859502650,55.932600000000001,37.497990000000002,"Долгопрудный Ракетостроителей 4","Долгопрудный Ракетостроителей 4"